store,name,address,city,zipcode,store_location,county_number
2593,Hy-vee Food Store/carroll,905 US HIGHWAY 30 WEST,CARROLL,51401,"905 US HIGHWAY 30 WEST
CARROLL 51401
(42.07083983900003, -94.876875266999946)",14
2612,Hy-vee Store / Perry,1215  141 ST,PERRY,50220,"1215 141 ST
PERRY 50220
(41.830259127000033, -94.104369448999989)",25
2595,Hy-vee Wine and Spirits / D,"1620  4TH AVE, SOUTH",DENISON,51442,"1620 4TH AVE, SOUTH
DENISON 51442
(42.012347709000039, -95.348700101999952)",24
2663,Hy-Vee / Urbandale,8701 DOUGLAS,URBANDALE,50322,"8701 DOUGLAS
URBANDALE 50322
(41.629370499000061, -93.739353576999974)",77
2626,Hy-vee Drugstore / University Des Mo,4100 UNIVERSITY AVE,DES MOINES,50311,"4100 UNIVERSITY AVE
DES MOINES 50311
(41.600322844000061, -93.67351049399997)",77
3565,Hartig Drug Store #10,701 MORMON TREK BLVD,IOWA CITY,52246,"701 MORMON TREK BLVD
IOWA CITY 52246
(41.651981942000077, -91.57408759599997)",52
2806,Osco #881 / Clinton,1307 N SECOND,CLINTON,52732,"1307 N SECOND
CLINTON 52732
(41.858709010000041, -90.184835924999959)",23
2953,Dahl's / E. Euclid,1320 E. EUCLID,DES MOINES,50316,"1320 E. EUCLID
DES MOINES 50316
(41.627737933000049, -93.603330769999957)",77
2955,Dahl's / Beaver,1819 BEAVER,DES MOINES,50310,"1819 BEAVER
DES MOINES 50310
(41.61084087200004, -93.672945875999972)",77
3440,Hawkeye Pantry,501 LOCUST ST,DES MOINES,50309,"501 LOCUST ST
DES MOINES 50309
(41.587103703000025, -93.62381460499995)",77
3451,Barnes Foodland,622 10TH ST,DEWITT,52742,"622 10TH ST
DEWITT 52742
(41.825207591000037, -90.539408655999978)",23
3456,Quick Shop/clear Lake,904 N 8TH ST,CLEAR LAKE,50428,"904 N 8TH ST
CLEAR LAKE 50428
(43.142829505000066, -93.378762566999967)",17
3647,Wal-Mart 2889 / Clinton,2715 SOUTH 25TH ST,CLINTON,52732,"2715 SOUTH 25TH ST
CLINTON 52732
(41.817266053000026, -90.244354939999937)",23
3666,Target Store T-1771 / Cedar Rapids,3400 EDGEWOOD RD SW,CEDAR RAPIDS,52404,"3400 EDGEWOOD RD SW
CEDAR RAPIDS 52404
(41.943470064000053, -91.716047562999961)",57
3831,The Market Of Madrid,301 ANNEX RD,MADRID,50156,"301 ANNEX RD
MADRID 50156
(41.879240723000066, -93.815324121999936)",8
3909,D And S Grocery,104 SE  A ST,MELCHER-DALLAS,50163,"104 SE A ST
MELCHER-DALLAS 50163
(41.222427248000031, -93.241676946999974)",63
4077,Xo Food And Liquor,428 FRANKLIN ST,WATERLOO,50703,"428 FRANKLIN ST
WATERLOO 50703
(42.501514385000064, -92.334586679999973)",7
3995,Barmuda Distribution,900 TECHNOLOGY PKWY STE 100,CEDAR FALLS,50613,"900 TECHNOLOGY PKWY STE 100
CEDAR FALLS 50613
(42.473391795000055, -92.456500400999971)",7
4014,Wal-Mart 1732 / Denison,510 C AVE,DENISON,51442,"510 C AVE
DENISON 51442
(42.109809594000069, -95.454844125999955)",24
4075,Ali's West Side Liquor,919 W 5TH ST,WATERLOO,50701,"919 W 5TH ST
WATERLOO 50701
(42.488768244000028, -92.34593138799994)",7
4085,Save More Foods / Waterloo,1975 FRANKLIN ST,WATERLOO,50703,"1975 FRANKLIN ST
WATERLOO 50703
(42.495416510000041, -92.315540613999985)",7
4126,Sam's Mainstreet Market / Solon,123 E MAIN ST,SOLON,52333,"123 E MAIN ST
SOLON 52333
(41.807163191000029, -91.494860154999969)",52
4103,Fareway Stores #093 / Ames,3619 STANGE RD,AMES,50010,"3619 STANGE RD
AMES 50010
(42.05737657800006, -93.645232345999943)",85
4139,University Groceries,2121 UNIVERSITY AVE,DES MOINES,50314,"2121 UNIVERSITY AVE
DES MOINES 50314
(41.600443430000041, -93.64571379299997)",77
4149,Fareway Stores #015 / Denison,609 ARROWHEAD DR,DENISON,51442,"609 ARROWHEAD DR
DENISON 51442
(42.024307402000034, -95.372080463999964)",24
4186,H and A Mini Mart/phillips,5901 FLEUR DR,DES MOINES,50321,"5901 FLEUR DR
DES MOINES 50321
(41.531190544000026, -93.644923534999975)",77
4269,Tipton Family Foods,610 CEDAR ST,TIPTON,52772,"610 CEDAR ST
TIPTON 52772
(41.771651018000057, -91.12837346699996)",16
4301,Sahota Food Mart,1805 SE 14TH ST,DES MOINES,50320,"1805 SE 14TH ST
DES MOINES 50320
(41.571861483000077, -93.596873382999945)",77
4409,Kum & Go #90 / BOONE,1704 S STORY ST,BOONE,50036,"1704 S STORY ST
BOONE 50036
(42.036731145000033, -93.879643340999962)",8
4448,Kum & Go #572 / URBANDALE,4860 NW URBANDALE DR,URBANDALE,50322,"4860 NW URBANDALE DR
URBANDALE 50322
(41.646586153000044, -93.771009565999975)",77
4534,D & B Foods,141 W GILLET ST,PRESTON,52069,"141 W GILLET ST
PRESTON 52069
(42.050293345000057, -90.395596128999955)",49
4595,Quik Trip #559 / Fleur Dr DM,4024 FLEUR DR,DES MOINES,50321,"4024 FLEUR DR
DES MOINES 50321
(41.547160018000056, -93.645106747999989)",77
4647,B and B EAST/Waterloo,1615 BISHOP AVE,WATERLOO,50707,"1615 BISHOP AVE
WATERLOO 50707
(42.498081738000053, -92.293117209999991)",7
4601,Kum & Go #4110 / Guthrie DM,2110 GUTHRIE AVE,DES MOINES,50317,"2110 GUTHRIE AVE
DES MOINES 50317
(41.615047853000078, -93.579130547999966)",77
4637,Kwik Shop #560 / Cedar Rapids,3301 J ST,CEDAR RAPIDS,52404,"3301 J ST
CEDAR RAPIDS 52404
(41.944662675000075, -91.666793276999954)",57
4617,Lickety Liquor,2501 HUBBELL AVE,DES MOINES,50317,"2501 HUBBELL AVE
DES MOINES 50317
(41.607763127000055, -93.570461931999944)",77
4729,No Frills Supermarkets #790 / Deniso,501 HIGHWAY 39 NORTH,DENISON,51442,"501 HIGHWAY 39 NORTH
DENISON 51442
(42.021971363000034, -95.368527330999939)",24
4795,Walgreens #00359 / Des Moines,2545 E EUCLID AVE,DES MOINES,50317,"2545 E EUCLID AVE
DES MOINES 50317
(41.627722953000045, -93.568680503999985)",77
4801,Walgreens #05852 / Des Moines,3030 UNIVERSITY AVE,DES MOINES,50311,"3030 UNIVERSITY AVE
DES MOINES 50311
(41.600343585000076, -93.659150757999953)",77
4829,Central City 2,1501 MICHIGAN AVE,DES MOINES,50314,"1501 MICHIGAN AVE
DES MOINES 50314
(41.605830751000042, -93.613754311999969)",77
4840,Independence Ave Liquor & Food / Wat,1761 INDEPENDENCE AVE,WATERLOO,50707,"1761 INDEPENDENCE AVE
WATERLOO 50707
(42.498436641000069, -92.302510610999946)",7
4864,CLINTON LIQUOR & CONVENIENCE STORE,1641 S BLUFF BLVD,CLINTON,52733,"1641 S BLUFF BLVD
CLINTON 52733
(41.83318074500005, -90.225489904999961)",23
4928,Shop n Save / 6th Ave,1829 6TH AVE,DES MOINES,50314,"1829 6TH AVE
DES MOINES 50314
(41.611071329000026, -93.625773762999984)",77
4971,Fareway Stores #138 / Pleasant Hill,"5500, E UNIVERSITY AVE",PLEASANT HILL,50327,"5500, E UNIVERSITY AVE
PLEASANT HILL 50327
(41.59908699500005, -93.50671942699995)",77
4935,Ali's Liquor,1117 E 4TH ST,WATERLOO,50703,"1117 E 4TH ST
WATERLOO 50703
(42.507766149000076, -92.332784157999981)",7
2285,John's Grocery,401 EAST MARKET ST,IOWA CITY,52240,"401 EAST MARKET ST
IOWA CITY 52240
(41.663580847000048, -91.530031378999979)",52
2505,Hy-vee Wine and Spirits / B,1111  8TH ST,BOONE,50036,"1111 8TH ST
BOONE 50036
(42.063838574000044, -93.875920317999942)",8
3943,Good and Quick Co,519 LINCOLNWAY,NEVADA,50201,"519 LINCOLNWAY
NEVADA 50201
(42.021167099000024, -93.448099670999966)",85
4004,Wal-Mart 4256 / Ames,534 S DUFF AVE,AMES,50010,"534 S DUFF AVE
AMES 50010
(42.01591056500007, -93.610303227999964)",85
3932,Main Street Spirits / Mapleton,311 MAIN ST,MAPLETON,51034,"311 MAIN ST
MAPLETON 51034
(42.165916916000072, -95.793780474999949)",67
4062,H and A Mini Mart Corp,145 UNIVERSITY AVE,DES MOINES,50314,"145 UNIVERSITY AVE
DES MOINES 50314
(41.600427701000058, -93.619340573999978)",77
4034,Spice-n-ice,123 N LAWLER ST,POSTVILLE,52162,"123 N LAWLER ST
POSTVILLE 52162
(43.086109585000031, -91.568313511999975)",3
4027,Wal-Mart 1621 / Centerville,23148 HWY 5,CENTERVILLE,52544,"23148 HWY 5
CENTERVILLE 52544
(40.708576749000031, -92.867792513999973)",4
4072,Famous Liquors,2604 W LOCUST ST,DAVENPORT,52804,"2604 W LOCUST ST
DAVENPORT 52804
(41.538218311000037, -90.615260069999977)",82
4069,Fareway Stores #648 / Ottumwa,1325 ALBIA RD,OTTUMWA,52501,"1325 ALBIA RD
OTTUMWA 52501
(41.009357831000045, -92.440293556999961)",90
4097,Schleswig Foods And Spirits,108  2ND ST,SCHLESWIG,51461,"108 2ND ST
SCHLESWIG 51461
(42.165969921000055, -95.436633030999985)",24
4106,Hartig Drug Co. / Jfk Rd,2255 JOHN F KENNEDY RD,DUBUQUE,52002,"2255 JOHN F KENNEDY RD
DUBUQUE 52002
(42.511455140000066, -90.720519897999964)",31
4105,Fareway Stores #426 / Nevada,1505 SOUTH B AVE,NEVADA,50201,"1505 SOUTH B AVE
NEVADA 50201
(42.009818451000058, -93.439380656999958)",85
4147,Fareway Stores #974 / Cedar Falls,214 N MAGNOLIA DR,CEDAR FALLS,50613,"214 N MAGNOLIA DR
CEDAR FALLS 50613
(42.539767309000069, -92.474389495999958)",7
4167,"Iowa Street Market, Inc.",1256 IOWA ST,DUBUQUE,52001,"1256 IOWA ST
DUBUQUE 52001
(42.504873844000031, -90.668053303999955)",31
4171,"Brothers Market, Inc. / Cascade",105 SE NIXON ST,CASCADE,52033,"105 SE NIXON ST
CASCADE 52033
(42.306910658000049, -90.993786217999968)",31
4181,Puff N Snuff,1101 RHOMBERG AVE,DUBUQUE,52001,"1101 RHOMBERG AVE
DUBUQUE 52001
(42.51950035200008, -90.660315440999966)",31
4192,Fareway Stores #044 / Bettendorf,3800 BELMONT RD,BETTENDORF,52722,"3800 BELMONT RD
BETTENDORF 52722
(41.556288394000035, -90.479907286999946)",82
4200,Fareway Stores #019 / Sioux City,4016 INDIAN HILLS DR,SIOUX CITY,51108,"4016 INDIAN HILLS DR
SIOUX CITY 51108
(42.537441774000058, -96.373707636999939)",97
4197,Fareway Stores #014 / Sergeant Bluff,700  1ST ST,SERGEANT BLUFF,51054,"700 1ST ST
SERGEANT BLUFF 51054
(42.400461575000065, -96.352869916999964)",97
4273,Smokin' Joe's #4 Tobacco and Liquor,2800 E UNIVERSITY AVE,DES MOINES,50317,"2800 E UNIVERSITY AVE
DES MOINES 50317
(41.600587869000037, -93.562041055999941)",77
4252,Fareway Stores #840 / Monticello,433 N FARLEY ST,MONTICELLO,52310,"433 N FARLEY ST
MONTICELLO 52310
(42.241931166000029, -91.191499481999983)",53
4289,Fareway Stores #062 / Waukon,777  11TH AVE SW,WAUKON,52172,"777 11TH AVE SW
WAUKON 52172
(43.256647503000067, -91.485736359999976)",3
4275,Fareway Stores #980 / Knoxville,1308 S LINCOLN ST,KNOXVILLE,50138,"1308 S LINCOLN ST
KNOXVILLE 50138
(41.308011993000036, -93.109516941999971)",63
4293,Eddyville Market and Deli L,121 WALNUT,EDDYVILLE,52553,"121 WALNUT
EDDYVILLE 52553
(41.156497305000073, -92.637636796999971)",90
4331,Moore's Foods,303 HIGHWAY 150 N,WEST UNION,52175,"303 HIGHWAY 150 N
WEST UNION 52175
(42.965066989000036, -91.814437450999947)",33
4334,Fareway Stores #114 / Dubuque,2050 JOHN F KENNEDY RD,DUBUQUE,52001,"2050 JOHN F KENNEDY RD
DUBUQUE 52001
(42.506921655000042, -90.720381400999941)",31
4377,Quik Trip #562 / Ne 14th,4801 NE 14TH ST,DES MOINES,50313,"4801 NE 14TH ST
DES MOINES 50313
(41.647698911000077, -93.600233436999986)",77
4713,Walgreens #10985 / Coralville,2751 HEARTLAND DR,CORALVILLE,52241,"2751 HEARTLAND DR
CORALVILLE 52241
(41.700587494000047, -91.610042244999988)",52
4462,SHELTON'S,"113, 1ST ST NW",BUFFALO CENTER,50424,"113, 1ST ST NW
BUFFALO CENTER 50424
(43.386699580000027, -93.947598007999943)",95
4472,Quick Shop Foods / Centerville,1023 SOUTH MAIN,CENTERVILLE,52544,"1023 SOUTH MAIN
CENTERVILLE 52544
(40.724519907000058, -92.874139058999958)",4
4520,Casey's General Store #2842 / Huxley,902 N HWY 69,HUXLEY,50124,"902 N HWY 69
HUXLEY 50124
(41.901404864000028, -93.607352233999961)",85
4565,KUM & GO #228 / Sioux city,1925 S LAKEPORT ST,SIOUX CITY,51106,"1925 S LAKEPORT ST
SIOUX CITY 51106
(42.47087982100004, -96.34668561999996)",97
4558,Kum & Go #226 / Sioux City,1373 PIERCE ST,SIOUX CITY,51105,"1373 PIERCE ST
SIOUX CITY 51105
(42.504879048000078, -96.405077500999937)",97
4590,Casey's General Store #3045 / Cedar,"601, MAIN ST",CEDAR FALLS,50613,"601, MAIN ST
CEDAR FALLS 50613
(42.533009704000051, -92.445627468999987)",7
4588,Sam's Mini Mart / Sioux City,"923, W 7TH ST",SIOUX CITY,51103,"923, W 7TH ST
SIOUX CITY 51103
(42.503447205000043, -96.418877805999955)",97
4596,Quik Trip #534 / E University DM,2945 E UNIVERSITY,DES MOINES,50317,"2945 E UNIVERSITY
DES MOINES 50317
(41.600433463000059, -93.559500274999948)",77
4631,Thunder Ridge Ampride,"2425, WHITETAIL DR",CEDAR FALLS,50613,"2425, WHITETAIL DR
CEDAR FALLS 50613
(42.539986771000031, -92.474978391999969)",7
4646,Pronto Market / Fairbank,104 4th ST,FAIRBANK,50629,"104 4th ST
FAIRBANK 50629
(42.638540282000065, -92.047397721999971)",10
4694,Rina Mart LLC / Davenport,"3815, WEST KIMBERLY RD",DAVENPORT,52806,"3815, WEST KIMBERLY RD
DAVENPORT 52806
(41.561724860000027, -90.631492263999974)",82
4701,Walgreens #11193 / Boone,310 STORY ST,BOONE,50036,"310 STORY ST
BOONE 50036
(42.059450685000058, -93.879963674999942)",8
4735,Walgreens #01301 / Ottumwa,327 W 4th ST,OTTUMWA,52501,"327 W 4th ST
OTTUMWA 52501
(41.021834738000052, -92.41371387199996)",90
4932,B and B West,3105 HUDSON RD,CEDAR FALLS,50613,"3105 HUDSON RD
CEDAR FALLS 50613
(42.509090638000032, -92.465858080999965)",7
4807,Williamsburg Foods,"103, W WALNUT ST",WILLIAMSBURG,52361,"103, W WALNUT ST
WILLIAMSBURG 52361
(41.662798425000062, -92.008099089999973)",48
4766,Keywest Conoco / Dubuque,2150 TWIN VALLEY DR,DUBUQUE,52003,"2150 TWIN VALLEY DR
DUBUQUE 52003
(42.459806393000065, -90.674240766999958)",31
4947,The Music Station,1420 W FIRST ST,CEDAR FALLS,50647,"1420 W FIRST ST
CEDAR FALLS 50647
(42.537775587000056, -92.462286425999991)",7
4963,Jeff's Market / Durant,"408, 6TH AVE",DURANT,52747,"408, 6TH AVE
DURANT 52747
(41.600579803000073, -90.911774444999935)",70
4964,Jeff's Market / Wilton,101 E 4TH ST,WILTON,52778,"101 E 4TH ST
WILTON 52778
(41.588767762000032, -91.016571018999969)",70
9002,Mississippi River Distillery,303 N CODY RD,LECLAIRE,52753,"303 N CODY RD
LECLAIRE 52753
(41.599690241000076, -90.34356354099998)",82
4966,Midtown,1100 E 5TH ST,STORM LAKE,50588,"1100 E 5TH ST
STORM LAKE 50588
(42.644502188000047, -95.187030353999944)",11
2200,Sac Liquor Store,619 E MAIN ST,SAC CITY,50583,"619 E MAIN ST
SAC CITY 50583
(42.421357053000065, -94.974010318999945)",81
2113,Jamboree Foods,1119 MARKET ST. BOX 71,GOWRIE,50543,"1119 MARKET ST. BOX 71
GOWRIE 50543
(42.280542454000056, -94.289410885999985)",94
2178,"Double ""d"" Liquor Store",618 ROSSVILLE ROAD,WAUKON,52172,"618 ROSSVILLE ROAD
WAUKON 52172
(43.262061865000078, -91.47355676899997)",3
2478,Prairie Meadows,ONE PRAIRIE MEADOWS DRIVE,ALTOONA,50009,"ONE PRAIRIE MEADOWS DRIVE
ALTOONA 50009
(41.658442627000056, -93.493201099999965)",77
2501,Hy-vee  #2 / Ames,640 LINCOLNWAY,AMES,50010,"640 LINCOLNWAY
AMES 50010
(42.032116513000062, -93.616286143999957)",85
2524,Hy-vee Food Store/dubuque,3500 DODGE ST,DUBUQUE,52001,"3500 DODGE ST
DUBUQUE 52001
(42.49157096700003, -90.724952891999976)",31
2548,Hy-vee Food Store/altoona,100 8TH STREET SW,ALTOONA,50009,"100 8TH STREET SW
ALTOONA 50009
(41.64401599100006, -93.464718499999947)",77
2554,Hy-vee Food Store/davenpo,3019 ROCKINGHAM ROAD,DAVENPORT,52802,"3019 ROCKINGHAM ROAD
DAVENPORT 52802
(41.510465603000057, -90.620756453999945)",82
2566,Hy-vee Food Store/knoxvil,813 N LINCOLN STE 1,KNOXVILLE,50138,"813 N LINCOLN STE 1
KNOXVILLE 50138
(41.325023200000032, -93.10944293099999)",63
2576,Hy-vee Wine and Spirits / S,1250 N LAKE ST,STORM LAKE,50588,"1250 N LAKE ST
STORM LAKE 50588
(42.653392438000026, -95.200827704999938)",11
2611,Hy-vee Drugstore / Ottumwa,1140 NORTH JEFFERSON ST,OTTUMWA,52501,"1140 NORTH JEFFERSON ST
OTTUMWA 52501
(41.026390861000039, -92.401484704999973)",90
2596,Hy-vee/regal Liquors and Vi,2453 NORTH COURT,OTTUMWA,52501,"2453 NORTH COURT
OTTUMWA 52501
(41.050039140000081, -92.408156416999987)",90
2621,Hy-vee Food Store #3 / Sioux City,3301 GORDON DR,SIOUX CITY,51105,"3301 GORDON DR
SIOUX CITY 51105
(42.488524712000071, -96.362705793999964)",97
2635,Hy-vee #4 / Davenport,4064 E 53RD ST,DAVENPORT,52807,"4064 E 53RD ST
DAVENPORT 52807
(41.57496803500004, -90.51393071199999)",82
2636,Hy-vee Wine and Spirits / H,2310 HUBBELL AVE,DES MOINES,50317,"2310 HUBBELL AVE
DES MOINES 50317
(41.60444225100008, -93.573732106999955)",77
2638,Hy-vee Wine and Spirits / C,5925 UNIVERSITY AVE STE A,CEDAR FALLS,50613,"5925 UNIVERSITY AVE STE A
CEDAR FALLS 50613
(42.51276180800005, -92.429380295999977)",7
2649,Hy-vee #3 / Dubuque,400 LOCUST ST,DUBUQUE,52001,"400 LOCUST ST
DUBUQUE 52001
(42.497324461000062, -90.666508442999941)",31
2642,Hy-vee Wine and Spirits / P,512 E OSKALOOSA,PELLA,50219,"512 E OSKALOOSA
PELLA 50219
(41.397058246000029, -92.899725233999959)",63
3013,Keith's Foods,207 E LOCUST ST,BLOOMFIELD,52537,"207 E LOCUST ST
BLOOMFIELD 52537
(40.752718168000058, -92.41298102099995)",26
2665,Hy-Vee / Waukee,1005 E HICKMAN RD,WAUKEE,50263,"1005 E HICKMAN RD
WAUKEE 50263
(41.615050215000053, -93.841288262999967)",25
2835,Cvs Pharmacy #8538 / Cedar Falls,2302 WEST FIRST ST,CEDAR FALLS,50613,"2302 WEST FIRST ST
CEDAR FALLS 50613
(42.539993684000081, -92.473042557999975)",7
3045,Britt Food Center,8 2ND ST NW,BRITT,50423,"8 2ND ST NW
BRITT 50423
(43.098706568000068, -93.802028072999974)",41
3354,Sam's Club 8238 / Davenport,3845 ELMORE AVE.,DAVENPORT,52807,"3845 ELMORE AVE.
DAVENPORT 52807
(41.559769012000061, -90.527130193999938)",82
3495,Great Pastimes,228 N MAIN ST,MONTICELLO,52310,"228 N MAIN ST
MONTICELLO 52310
(42.239603252000052, -91.183552506999945)",53
3644,Wal-Mart 2764 / Altoona,3501  8TH ST SW,ALTOONA,50009,"3501 8TH ST SW
ALTOONA 50009
(41.644217867000066, -93.504650507999941)",77
3721,Wal-Mart 0913 / Decorah,1798 OLD STAGE RD,DECORAH,52101,"1798 OLD STAGE RD
DECORAH 52101
(43.290163714000073, -91.752987413999961)",96
3722,Wal-Mart 1361 / Sioux City,3400 SINGING HILLS BLVD,SIOUX CITY,51106,"3400 SINGING HILLS BLVD
SIOUX CITY 51106
(42.436032514000033, -96.364435368999978)",97
3732,North Scott Foods,425 E LECLAIRE RD,ELDRIDGE,52748,"425 E LECLAIRE RD
ELDRIDGE 52748
(41.654673672000058, -90.577270490999979)",82
3818,Round Window Liquor,703 W PLEASANT ST,KNOXVILLE,50138,"703 W PLEASANT ST
KNOXVILLE 50138
(41.320768839000038, -93.105567545999975)",63
3749,Wal-Mart 1526 / Storm Lake,1831 LAKE AVE NW,STORM LAKE,50588,"1831 LAKE AVE NW
STORM LAKE 50588
(42.664019537000058, -95.20069295899998)",11
3757,Wal-Mart 3590 / Sioux City,3101 FLOYD BLVD,SIOUX CITY,51108,"3101 FLOYD BLVD
SIOUX CITY 51108
(42.531837834000044, -96.372027753999987)",97
3762,Wine and Spirits Gallery,7690 HICKMAN RD,WINDSOR HEIGHTS,50322,"7690 HICKMAN RD
WINDSOR HEIGHTS 50322
(41.614484208000079, -93.722350830999972)",77
3820,"Charlie's Wine and Spirits,",507 W 19th St,SIOUX CITY,51103,"507 W 19th St
SIOUX CITY 51103
(42.510566711000081, -96.420211569999992)",97
3819,Quillins Decorah,915 SHORT ST,DECORAH,52101,"915 SHORT ST
DECORAH 52101
(43.290962246000049, -91.797752409999987)",96
3841,Hartig Drug Company #2 / Locust,157 LOCUST ST,DUBUQUE,52001,"157 LOCUST ST
DUBUQUE 52001
(42.495383094000033, -90.665530668999963)",31
3822,The Secret Cellar,1205 CURTIS BR RD NE,SWISHER,52338,"1205 CURTIS BR RD NE
SWISHER 52338
(41.838059877000035, -91.69020603599995)",52
3842,Bancroft Liquor Store,107 N PORTLAND ST PO BX 222,BANCROFT,50517,"107 N PORTLAND ST PO BX 222
BANCROFT 50517
(43.293549118000044, -94.218028179999976)",55
3928,Smokin' Joe's #12 Tobacco and Liquor,465 HWY 965 UNIT G,NORTH LIBERTY,52317,"465 HWY 965 UNIT G
NORTH LIBERTY 52317
(41.739311076000035, -91.607667392999986)",52
3876,Affiliated Foods Of Manson,1101 MAIN ST PO BOX 535,MANSON,50563,"1101 MAIN ST PO BOX 535
MANSON 50563
(42.530877983000039, -94.534173979999991)",13
3873,Target Store T-1113 / Coralville,1441 CORAL RIDGE AVE,CORALVILLE,52241,"1441 CORAL RIDGE AVE
CORALVILLE 52241
(41.690880740000068, -91.608412107999982)",52
3915,Sac City Food Pride,106  S 16 ST,SAC CITY,50583,"106 S 16 ST
SAC CITY 50583
(42.422469005000039, -95.002667567999936)",81
3950,Hometown Foods / State Center,120 E MAIN ST,STATE CENTER,50247,"120 E MAIN ST
STATE CENTER 50247
(42.016833542000029, -93.162177372999963)",64
3944,Sam's Club 4973 / Dubuque,4400 ASBURY RD,DUBUQUE,52002,"4400 ASBURY RD
DUBUQUE 52002
(42.515316417000065, -90.737820220999936)",31
3949,Wal-Mart 0751 / Pella,1650 WASHINGTON ST,PELLA,50219,"1650 WASHINGTON ST
PELLA 50219
(41.410298496000053, -92.933112668999968)",63
3970,"The Liquor Cabinet, Inc.","835 6 ST, STE 1",NEVADA,50201,"835 6 ST, STE 1
NEVADA 50201
(42.019131192000032, -93.452293126999962)",85
4395,KUM & GO #133 / ELLSWORTH,1111 IA HIGHWAY 175,ELLSWORTH,50075,"1111 IA HIGHWAY 175
ELLSWORTH 50075
(42.310444244000053, -93.573826647999965)",40
2518,Hy-vee Wine and Spirits / R,1607 NORTH BROADWAY,RED OAK,51566,"1607 NORTH BROADWAY
RED OAK 51566
(41.018607511000027, -95.232814087999941)",69
3763,Main Street Liquors / Hawarden,911 CENTRAL AVE,HAWARDEN,51023,"911 CENTRAL AVE
HAWARDEN 51023
(42.996129050000036, -96.485278619999974)",84
3779,"Station Wine and Spirits, T",2324 N 15TH ST,FORT DODGE,50501,"2324 N 15TH ST
FORT DODGE 50501
(42.52882560900008, -94.178035251999972)",94
3816,Swils,200 E OAK ST,RED OAK,51566,"200 E OAK ST
RED OAK 51566
(41.016663297000036, -95.229950546999987)",69
3830,Wal-Mart 1435 / Creston,806 LAUREL ST,CRESTON,50801,"806 LAUREL ST
CRESTON 50801
(41.049592479000069, -94.37508139199997)",88
3880,Target Store T-2454 / Council Bluffs,3804 METRO DR,COUNCIL BLUFFS,51503,"3804 METRO DR
COUNCIL BLUFFS 51503
(41.220625539000025, -95.837317464999956)",78
2327,West Side Spirits,801 HULL ST,CORNING,50841,"801 HULL ST
CORNING 50841
(40.990103008000062, -94.743558055999983)",2
4018,Hometown Foods / Gladbrook,310 SECOND ST PO BOX 249,GLADBROOK,50635,"310 SECOND ST PO BOX 249
GLADBROOK 50635
(42.187631667000062, -92.716430979999984)",48
4006,Larchwood Offsale,913 BROWN ST PO BOX 326,LARCHWOOD,51241,"913 BROWN ST PO BOX 326
LARCHWOOD 51241
(43.453845349000062, -96.435384277999958)",60
4015,Wal-Mart 0749 / Ames,3015 GRAND AVE,AMES,50010,"3015 GRAND AVE
AMES 50010
(42.052070320000041, -93.620657631999961)",85
4030,Buy Rite Foods,201 MARKET ST,LAKE PARK,51347,"201 MARKET ST
LAKE PARK 51347
(43.45480634900008, -95.321380651999959)",30
4102,Fareway Stores #386 / Ames,619 BURNETT AVE,AMES,50010,"619 BURNETT AVE
AMES 50010
(42.027719149000063, -93.615457383999967)",85
4193,Hartley Wine And Spirits,361  3RD ST NW,HARTLEY,51346,"361 3RD ST NW
HARTLEY 51346
(43.184839687000078, -95.481844666999962)",71
4230,Fareway Stores #106 / Clive,10151 UNIVERSITY AVE,CLIVE,50325,"10151 UNIVERSITY AVE
CLIVE 50325
(41.600467743000024, -93.756844748999981)",77
4203,Liquor and Tobacco Outlet /,620 W BREMER AVE,WAVERLY,50677,"620 W BREMER AVE
WAVERLY 50677
(42.72573690400003, -92.478770550999968)",9
4205,Fareway Stores #467 / Marshalltown,102 WEST ANSON ST,MARSHALLTOWN,50158,"102 WEST ANSON ST
MARSHALLTOWN 50158
(42.038103512000077, -92.914431020999984)",64
4235,Fareway Stores #395 / Webster City,942  2ND ST,WEBSTER CITY,50595,"942 2ND ST
WEBSTER CITY 50595
(42.469458194000026, -93.827358004999951)",40
4233,Fareway Stores #815 / Cresco,112 S ELM ST,CRESCO,52136,"112 S ELM ST
CRESCO 52136
(43.372086342000046, -92.116786980999962)",45
4231,Fareway Stores #719 / Le Mars,115 PLYMOUTH ST NE,LE MARS,51031,"115 PLYMOUTH ST NE
LE MARS 51031
(42.793086624000068, -96.168670754999937)",75
4239,Fareway Stores #850 / Spirit Lake,1906 KEOKUK,SPIRIT LAKE,51360,"1906 KEOKUK
SPIRIT LAKE 51360
(43.421599892000074, -95.10627844399994)",30
4249,Fareway Stores #048 / Clarinda,115 ESSIE DAVISON DR,CLARINDA,51632,"115 ESSIE DAVISON DR
CLARINDA 51632
(40.723199699000077, -95.040251382999941)",73
4255,FAREWAY STORES #058 / ORANGE CITY,512  8TH SE,ORANGE CITY,51041,"512 8TH SE
ORANGE CITY 51041
(42.997513355000081, -96.051774199999954)",84
4254,Fareway Stores #849 / Emmetsburg,2008  12TH ST,EMMETSBURG,50536,"2008 12TH ST
EMMETSBURG 50536
(43.109181723000063, -94.677460223999958)",74
4256,Fareway Stores #912 / Sioux Center,115  1ST AVE NW,SIOUX CENTER,51250,"115 1ST AVE NW
SIOUX CENTER 51250
(43.077708298000061, -96.176947594999945)",84
4274,Ruthven Meat Processing,1701 RAILROAD ST,RUTHVEN,51358,"1701 RAILROAD ST
RUTHVEN 51358
(43.13092643300007, -94.897346705999951)",74
4285,Fareway Stores #922 / New Hampton,102 S WATER AVE,NEW HAMPTON,50659,"102 S WATER AVE
NEW HAMPTON 50659
(43.05802847700005, -92.312843121999947)",19
4311,Fareway Stores #508 / Fort Dodge,1231  1ST AVE S,FORT DODGE,50501,"1231 1ST AVE S
FORT DODGE 50501
(42.505021931000044, -94.181499693999967)",94
4318,Fareway Stores #841 / Red Oak,811 BROADWAY,RED OAK,51566,"811 BROADWAY
RED OAK 51566
(41.000201857000036, -95.232768186999976)",69
4345,Lucky Mart,1031 WEST ST,GRINNELL,50112,"1031 WEST ST
GRINNELL 50112
(41.745970113000055, -92.727407616999983)",79
4357,Kum and Go #125 / Story Cit,527 PARK AVE,STORY CITY,50248,"527 PARK AVE
STORY CITY 50248
(42.18671905900004, -93.597827471999949)",85
4374,Kum and Go #141 / Grimes,1950 PRINCETON DR,GRIMES,50111,"1950 PRINCETON DR
GRIMES 50111
(41.673937520000038, -93.772629775999974)",77
4392,KUM & GO #156 / CLIVE,15600 HICKMAN RD,CLIVE,50325,"15600 HICKMAN RD
CLIVE 50325
(41.614733280000053, -93.834491177999951)",77
4405,KUM & GO #92 / ANKENY,1025 E  1ST ST,ANKENY,50021,"1025 E 1ST ST
ANKENY 50021
(41.731853508000029, -93.581680546999962)",77
4449,Kum & Go #121 / URBANDALE,12041 DOUGLAS PKWY,URBANDALE,50322,"12041 DOUGLAS PKWY
URBANDALE 50322
(41.629637735000074, -93.78195195699999)",77
4397,Quik Trip #514 / Ankeny,802 E 1ST ST,ANKENY,50021,"802 E 1ST ST
ANKENY 50021
(41.731918036000025, -93.586320785999987)",77
4426,LIQUOR AND GROCERY DEPOT,114 CENTRAL ST N Suite 1,MARSHALLTOWN,50158,"114 CENTRAL ST N Suite 1
MARSHALLTOWN 50158
(42.038899067000045, -92.912855822999973)",64
4445,Kum & Go #196 / WEBSTER CITY,1102 2ND ST,WEBSTER CITY,50595,"1102 2ND ST
WEBSTER CITY 50595
(42.469496581000044, -93.831121091999989)",40
4450,Kum & Go #157 / URBANDALE,4585 156TH ST,URBANDALE,50323,"4585 156TH ST
URBANDALE 50323
(41.643483588000038, -93.833424244999946)",77
4496,B P ON 1ST,"2824, 1ST AVE NE",CEDAR RAPIDS,52402,"2824, 1ST AVE NE
CEDAR RAPIDS 52402
(42.00586958100007, -91.634857785999941)",57
4514,Casey's General Store #2813 / Fort D,1230 3RD AVE NW,FORT DODGE,50501,"1230 3RD AVE NW
FORT DODGE 50501
(42.515449834000037, -94.218026432999977)",94
4525,Casey's General Store #2425 / Akron,600 HIGHWAY 12 SOUTH,AKRON,51001,"600 HIGHWAY 12 SOUTH
AKRON 51001
(42.834886589000064, -96.549575601999948)",75
4527,Casey's General Store #30 / Gilmore,105 SE FIRST ST,GILMORE CITY,50541,"105 SE FIRST ST
GILMORE CITY 50541
(42.732739320000064, -94.444597895999948)",46
4557,Hometown Foods / Traer,420 SECOND ST,TRAER,50675,"420 SECOND ST
TRAER 50675
(42.193426492000071, -92.467980583999974)",86
4584,J & C Grocery / Dumont,"611, MAIN ST",DUMONT,50602,"611, MAIN ST
DUMONT 50602
(42.750229626000078, -92.973018122999974)",12
4582,Pronto / Spirit Lake,"2402, 17th ST",SPIRIT LAKE,51360,"2402, 17th ST
SPIRIT LAKE 51360
(43.42285611300008, -95.126456686999973)",30
4589,dyno's #53 / Sibley,1026 2nd AVE,SIBLEY,51249,"1026 2nd AVE
SIBLEY 51249
(43.397935153000049, -95.752012028999957)",72
4602,Cheap Smokes/Beer City,58231 190th ST,PACIFIC JUNCTION,51561,"58231 190th ST
PACIFIC JUNCTION 51561
(41.041840655000044, -95.822923986999967)",65
4643,Cubby's Red Oak,"2405, N BROADWAY ST",RED OAK,51566,"2405, N BROADWAY ST
RED OAK 51566
(41.027479767000045, -95.232956849999937)",69
4623,Casey's General Store #1493 / Van Me,"700, DEBRA DR",VAN METER,50261,"700, DEBRA DR
VAN METER 50261
(41.533478525000078, -93.953006245999973)",25
4667,Kum & Go #56 / Bevington,101 E IA HIGHWAY 92,BEVINGTON,50033,"101 E IA HIGHWAY 92
BEVINGTON 50033
(41.360712382000031, -93.789514245999953)",61
4725,Casey's General Store #1548 / Ankeny,"2905, W  1ST ST",ANKENY,50023,"2905, W 1ST ST
ANKENY 50023
(41.731682971000055, -93.638360137999939)",77
4738,Casey's General Store #2284 / Counci,"1030, VETERAN MEMORIAL HWY",COUNCIL BLUFFS,51501,"1030, VETERAN MEMORIAL HWY
COUNCIL BLUFFS 51501
(41.219718399000044, -95.860300551999956)",78
4731,Walgreens #05060 / Clive,12753 UNIVERSITY AVE,CLIVE,50325,"12753 UNIVERSITY AVE
CLIVE 50325
(41.600448442000072, -93.793850197999973)",77
4788,Walgreens #12580 / Cedar Rapids,324 EDGEWOOD RD NW,CEDAR RAPIDS,52405,"324 EDGEWOOD RD NW
CEDAR RAPIDS 52405
(41.975001103000068, -91.716047562999961)",57
4823,Casey's General Store #3223 / Cresto,903 N SUMNER AVE,CRESTON,50801,"903 N SUMNER AVE
CRESTON 50801
(41.066337643000054, -94.372540822999952)",88
4810,Kum & Go #518 / Ankeny,3603 NE OTTERVIEW CIRCLE,ANKENY,50021,"3603 NE OTTERVIEW CIRCLE
ANKENY 50021
(41.761074835000045, -93.572416191999991)",77
4873,Casey's General Store #2559 / Grange,"1802, SYCAMORE ST",GRANGER,50109,"1802, SYCAMORE ST
GRANGER 50109
(41.759160283000028, -93.824467477999974)",25
4854,Casey's General Store #3029 / Armstr,"307, S 4TH AVE",ARMSTRONG,50514,"307, S 4TH AVE
ARMSTRONG 50514
(43.392712187000029, -94.482920484999966)",32
4899,Graettinger Market,"124, W ROBINS ST",GRAETTINGER,51342,"124, W ROBINS ST
GRAETTINGER 51342
(43.237733136000031, -94.751036056999965)",74
4926,GS Super Stop,4923 MERLE HAY RD,DES MOINES,50322,"4923 MERLE HAY RD
DES MOINES 50322
(41.65044462000003, -93.69736249999994)",77
4941,Kum & Go #170 / Urbandale,6990 DOUGLAS AVE,URBANDALE,50322,"6990 DOUGLAS AVE
URBANDALE 50322
(41.629353432000073, -93.711621062999939)",77
2651,Hy-vee / Waverly,1311 4 STREET SW,WAVERLY,50677,"1311 4 STREET SW
WAVERLY 50677
(42.712328953000053, -92.475453131999984)",9
2962,Dahl's / Johnston,5440 NW 86TH ST,JOHNSTON,50131,"5440 NW 86TH ST
JOHNSTON 50131
(41.659150287000045, -93.736487304999969)",77
2578,Hy-vee/charles City,901 KELLY ST,CHARLES CITY,50616,"901 KELLY ST
CHARLES CITY 50616
(43.06837242000006, -92.678489807999938)",34
2565,Hy-vee Food Store/spencer,819 N GRAND AVE,SPENCER,51301,"819 N GRAND AVE
SPENCER 51301
(43.146590552000077, -95.145176020999941)",21
2562,Hy-vee Food Store/fort Do,115 SOUTH 29TH ST,FORT DODGE,50501,"115 SOUTH 29TH ST
FORT DODGE 50501
(42.504739622000045, -94.158213230999991)",94
2579,Hy-vee Food Store/grinnel,320 WEST STREET SOUTH,GRINNELL,50112,"320 WEST STREET SOUTH
GRINNELL 50112
(41.741066320000073, -92.728896979999945)",79
2619,Hy-vee Wine and Spirits / W,1725  74TH ST,WEST DES MOINES,50266,"1725 74TH ST
WEST DES MOINES 50266
(41.582247679000034, -93.788548231999982)",77
2592,Hy-vee Drugstore / Marshalltown,1706 SOUTH CENTER,MARSHALLTOWN,50158,"1706 SOUTH CENTER
MARSHALLTOWN 50158
(42.027993668000079, -92.912586054999963)",64
2604,Hy-vee Wine and Spirits / L,1201 12TH AVE SW,LEMARS,51031,"1201 12TH AVE SW
LEMARS 51031
(42.778049346000046, -96.183417657999939)",75
2597,Hy-vee Food Store/cheroke,1300 N. SECOND,CHEROKEE,51012,"1300 N. SECOND
CHEROKEE 51012
(42.765528652000057, -95.552584845999945)",18
2620,Hy-vee / Windsor Hts,7101 UNIVERSITY AVE,WINDSOR HEIGHTS,50311,"7101 UNIVERSITY AVE
WINDSOR HEIGHTS 50311
(41.600407591000078, -93.714312456999949)",77
2658,Hy-vee Food Store / Mount Ayr,402 S HAYES ST,MOUNT AYR,50854,"402 S HAYES ST
MOUNT AYR 50854
(40.711828177000029, -94.233140072999959)",80
2843,Cvs Pharmacy #8526 / Cedar Rapids,4116 CENTER POINTE RD,CEDAR RAPIDS,52402,"4116 CENTER POINTE RD
CEDAR RAPIDS 52402
(42.020852701000081, -91.665157036999972)",57
2850,CVS/Pharmacy #10161 / Des Moines,215 E EUCLID AVE,DES MOINES,50313,"215 E EUCLID AVE
DES MOINES 50313
(41.627727562000075, -93.620721007999975)",77
3054,Mcnally's Super Valu,1026 MAIN,GRINNELL,50112,"1026 MAIN
GRINNELL 50112
(41.745730438000066, -92.725754091999988)",79
3041,Shugar's Super Valu / Colfax,28 E HOWARD,COLFAX,50054,"28 E HOWARD
COLFAX 50054
(41.677938242000039, -93.24445605599999)",50
3056,Clarion Super Valu Ii,325 CENTRAL AVE W,CLARION,50525,"325 CENTRAL AVE W
CLARION 50525
(42.731646957000066, -93.736540309999953)",99
3616,Laurens Food Pride,410 W MAIN ST,LAURENS,50554,"410 W MAIN ST
LAURENS 50554
(42.846736865000025, -94.853230443999962)",76
3393,The Hangout Liquors,111 W MAIN ST.,RICEVILLE,50466,"111 W MAIN ST.
RICEVILLE 50466
(43.363783410000053, -92.55446449599998)",66
3514,Karen's Spirits and Wine,328  2ND AVE S,FORT DODGE,50501,"328 2ND AVE S
FORT DODGE 50501
(42.502356703000032, -94.192454436999981)",94
3576,Liquor Store / Hartley,10  3RD ST NW,HARTLEY,51346,"10 3RD ST NW
HARTLEY 51346
(43.184850872000027, -95.477251102999958)",71
3615,Emmetsburg Food Pride,1307 S BROADWAY,EMMETSBURG,50536,"1307 S BROADWAY
EMMETSBURG 50536
(43.10760947600005, -94.678902999999991)",74
3625,Wal-Mart 0892 / Ankeny,1002 SE NATIONAL DR,ANKENY,50021,"1002 SE NATIONAL DR
ANKENY 50021
(41.704898180000043, -93.582420311999954)",77
3654,The Beverage Shop / Belmond,207 E MAIN ST,BELMOND,50421,"207 E MAIN ST
BELMOND 50421
(42.845926811000027, -93.615231536999943)",99
3691,Target Store T-1791 / Urbandale,11148 PLUM DR,URBANDALE,50322,"11148 PLUM DR
URBANDALE 50322
(41.647262429000079, -93.769705337999937)",77
2641,Hy-vee Drugstore / Council Bluffs,757 W BROADWAY,COUNCIL BLUFFS,51501,"757 W BROADWAY
COUNCIL BLUFFS 51501
(41.261663631000033, -95.855018710999957)",78
2191,Keokuk Spirits,1013 MAIN,KEOKUK,52632,"1013 MAIN
KEOKUK 52632
(40.400032359000079, -91.387719839999988)",56
2629,Hy-vee Food Store #2/ Cou,1745 MADISON AVE,COUNCIL BLUFFS,51503,"1745 MADISON AVE
COUNCIL BLUFFS 51503
(41.243530364000037, -95.826614363999965)",78
4104,Fareway Stores #491 / Mason City,400 NORTH DELAWARE AVE,MASON CITY,50401,"400 NORTH DELAWARE AVE
MASON CITY 50401
(43.15553225900004, -93.199518216999991)",17
4098,Wal-Mart 1475 / Washington,2485 HWY 92,WASHINGTON,52353,"2485 HWY 92
WASHINGTON 52353
(41.296765722000032, -91.661274998999943)",92
4152,Food Land Super Markets / Missouri V,407 W HURON,MISSOURI VALLEY,51555,"407 W HURON
MISSOURI VALLEY 51555
(41.557398042000045, -95.899110555999982)",43
4110,"Brothers Market, Inc.",706 HIGHWAY 57,PARKERSBURG,50665,"706 HIGHWAY 57
PARKERSBURG 50665
(42.577342480000027, -92.795859130999986)",12
4148,Fareway Stores #479 / Independence,1400 3RD AVE SE,INDEPENDENCE,50644,"1400 3RD AVE SE
INDEPENDENCE 50644
(42.455349367000053, -91.890282943999978)",10
4154,Fareway Stores #055 / Hiawatha,885 MILLER RD,HIAWATHA,52233,"885 MILLER RD
HIAWATHA 52233
(42.034904033000032, -91.703520287999936)",57
4159,Fareway Stores #073 / Council Bluffs,310 MCKENZIE AVE,COUNCIL BLUFFS,51503,"310 MCKENZIE AVE
COUNCIL BLUFFS 51503
(41.280288092000035, -95.81799682999997)",78
4164,Expo Mart / Bettendorf,1810 STATE ST,BETTENDORF,52722,"1810 STATE ST
BETTENDORF 52722
(41.525318516000027, -90.506590676999963)",82
4155,Fareway Stores #949 / Marion,3300 10TH AVE,MARION,52302,"3300 10TH AVE
MARION 52302
(42.036029261000067, -91.576916878999953)",57
4188,"Main St. Market, Inc.",882 MAIN ST,HOLY CROSS,52053,"882 MAIN ST
HOLY CROSS 52053
(42.600940174000073, -90.995912910999948)",31
4223,Station Mart Liquor and Tobbacco,1119 RIVER FOREST RD,EVANSDALE,50707,"1119 RIVER FOREST RD
EVANSDALE 50707
(42.462798869000039, -92.297743620999938)",7
4228,Fareway Stores #462 / Vinton,501 A AVE,VINTON,52349,"501 A AVE
VINTON 52349
(42.166359392000061, -92.025627661999977)",6
4250,Fareway Stores #882 / Eldora,1232 14TH ST,ELDORA,50627,"1232 14TH ST
ELDORA 50627
(42.361018968000053, -93.100757294999937)",42
4460,MOORE'S FOODS,808 S Main St,Monona,52159,"808 S Main St
Monona 52159
(43.045290408000028, -91.389833569999951)",22
4315,Fareway Stores #554 / Washington,301 NORTH MARION AVE,WASHINGTON,52353,"301 NORTH MARION AVE
WASHINGTON 52353
(41.30198901600005, -91.693087195999965)",92
4313,Fareway Stores #940 / Atltic,301 POPLAR ST,ATLANTIC,50022,"301 POPLAR ST
ATLANTIC 50022
(41.408230552000077, -95.014436973999977)",15
4353,Kum and Go #302 / Clear Lak,2905 FOURTH AVE,CLEAR LAKE,50248,"2905 FOURTH AVE
CLEAR LAKE 50248
(45.250643097000079, -92.271213397999986)",17
4372,Kum and Go #404 / Mason Cit,1303 4TH ST SW,MASON CITY,50401,"1303 4TH ST SW
MASON CITY 50401
(43.148322432000043, -93.221540627999957)",17
4396,"Trunck's Country Foods, INC.",606 GRUNDY AVE,REINBECK,50669,"606 GRUNDY AVE
REINBECK 50669
(42.325671571000044, -92.601380249999977)",38
4414,KUM & GO #23 / NEOLA,29356 298TH ST,NEOLA,51559,"29356 298TH ST
NEOLA 51559
(41.438900837000062, -95.612087526999971)",78
4424,CIRCLE K #6601 / BURLINGTON,1012 MAPLE ST,BURLINGTON,52601,"1012 MAPLE ST
BURLINGTON 52601
(40.804588134000028, -91.112281850999977)",29
4421,KUM & GO #1 / HAMPTON,609 CENTRAL AVE W,HAMPTON,50441,"609 CENTRAL AVE W
HAMPTON 50441
(42.741757078000035, -93.215180031999978)",35
4435,Kum & Go #220  Council Bluffs,2024 5TH AVE,COUNCIL BLUFFS,51501,"2024 5TH AVE
COUNCIL BLUFFS 51501
(41.257167558000049, -95.875020952999989)",78
4471,Kum & Go #212 / WATERLOO,117 E SAN MARNAN DR,WATERLOO,50702,"117 E SAN MARNAN DR
WATERLOO 50702
(42.458321101000081, -92.35624381699995)",7
4468,CIRCLE K #6600 / MUSCATINE,802 CYPRESS ST,MUSCATINE,52761,"802 CYPRESS ST
MUSCATINE 52761
(41.431618416000049, -91.041151494999951)",70
4561,Kroegers Liquor Co LLC,"3539, LAFAYETTE RD",EVANSDALE,50707,"3539, LAFAYETTE RD
EVANSDALE 50707
(42.477694955000061, -92.289409864999982)",7
4572,Grundy Center Family Foods,"1400, G AVE",GRUNDY CENTER,50638,"1400, G AVE
GRUNDY CENTER 50638
(42.36154515000004, -92.783120397999937)",38
4612,ATC Liquor,"214, MYRTLE ST",DAVENPORT,52802,"214, MYRTLE ST
DAVENPORT 52802
(41.521581666000031, -90.589217348999966)",82
4615,North Side Liquor & Grocery,1303 NORTH FEDERAL AVE,MASON CITY,50401,"1303 NORTH FEDERAL AVE
MASON CITY 50401
(43.163669673000072, -93.201053056999967)",17
4624,Kwik Shop #568 / Hiawatha,"300, E BLAIRS FERRY RD",HIAWATHA,52233,"300, E BLAIRS FERRY RD
HIAWATHA 52233
(42.034775910000064, -91.67144800799997)",57
4633,Kwik Shop #520 / Carter Lake,1202 EAST LOCUST ST,CARTER LAKE,51510,"1202 EAST LOCUST ST
CARTER LAKE 51510
(41.284958291000066, -95.914150137999968)",78
4626,Kwik Shop #527 / Council Bluffs,"3632, AVENUE G",COUNCIL BLUFFS,51501,"3632, AVENUE G
COUNCIL BLUFFS 51501
(41.26810847400003, -95.906091078999964)",78
4698,Quality Quick Stop,201 W BURLINGTON AVE,FAIRFIELD,52556,"201 W BURLINGTON AVE
FAIRFIELD 52556
(41.00668769400005, -91.965206153999986)",51
4696,Quik Trip #517 / West Des Moines,1451 22nd ST,WEST DES MOINES,50266,"1451 22nd ST
WEST DES MOINES 50266
(41.59461325500007, -93.735998964999965)",77
4740,Walgreens #04405 / Council Bluffs,2508 W BROADWAY,COUNCIL BLUFFS,51501,"2508 W BROADWAY
COUNCIL BLUFFS 51501
(41.261978334000048, -95.882680169999958)",78
4752,Gasland / Burlington,1003 SUMMER ST,BURLINGTON,52655,"1003 SUMMER ST
BURLINGTON 52655
(40.797130271000071, -91.114872606999938)",29
4794,Smokin' Joe's #17 Tobacco and Liquor,110 S ROOSEVELT HWY 61,BURLINGTON,52601,"110 S ROOSEVELT HWY 61
BURLINGTON 52601
(40.809590166000078, -91.141153567999936)",29
4808,CB Quick Stop / Council Bluffs,"3500, AVE A",COUNCIL BLUFFS,51501,"3500, AVE A
COUNCIL BLUFFS 51501
(41.262857525000072, -95.902521309999941)",78
4839,DS Services LLC,87 8th ST N,Northwood,50459,"87 8th ST N
Northwood 50459
(43.444982846000073, -93.220938234999949)",98
4834,Muscatine Fast Break,2603 SECOND AVE,MUSCATINE,52761,"2603 SECOND AVE
MUSCATINE 52761
(41.451816763000068, -91.034878472999935)",70
4867,Speedy Gas N Shop,"430, S 35TH ST",COUNCIL BLUFFS,51501,"430, S 35TH ST
COUNCIL BLUFFS 51501
(41.257570856000029, -95.902086899999972)",78
4936,Pickle Barrel Market,2 N  EYBERG ST,TREYNOR,51575,"2 N EYBERG ST
TREYNOR 51575
(41.232260986000028, -95.613047376999987)",78
4910,Prime Mart #3 / Waterloo,1008 LAPORTE RD,WATERLOO,50702,"1008 LAPORTE RD
WATERLOO 50702
(42.476308221000068, -92.322867973999962)",7
4952,Sub Express & Gas,4307 W LOCUST ST,DAVENPORT,52804,"4307 W LOCUST ST
DAVENPORT 52804
(41.538133042000027, -90.637270956999942)",82
2506,Hy-vee #1044 / Burlington,3140 AGENCY,BURLINGTON,52601,"3140 AGENCY
BURLINGTON 52601
(40.814668295000047, -91.135900171999936)",29
2558,Hy-vee Food Store / Mt Pl,1700 E WASHINGTON,MOUNT PLEASANT,52641,"1700 E WASHINGTON
MOUNT PLEASANT 52641
(40.962274443000069, -91.528739544999951)",44
2445,Ruback's Food Center,504 SOUTH HIGHWAY,OAKLAND,51560,"504 SOUTH HIGHWAY
OAKLAND 51560
(41.316198647000078, -95.408296761999964)",78
2535,Hy-vee Food Store #1/wdm,1700 VALLEY WEST DR,WEST DES MOINES,50265,"1700 VALLEY WEST DR
WEST DES MOINES 50265
(41.59727543200006, -93.752034235999986)",77
2539,Hy-vee Food Store/iowa Falls,HIGHWAY 65 SOUTH,IOWA FALLS,50126,"HIGHWAY 65 SOUTH
IOWA FALLS 50126
(42.580004297000073, -93.20465010199996)",42
2568,Hy-vee Food Store #4/ceda,1556 FIRST AVENUE NE,CEDAR RAPIDS,52402,"1556 FIRST AVENUE NE
CEDAR RAPIDS 52402
(41.988826181000036, -91.651145289999988)",57
2582,Hy-vee #2 Food Store/maso,551 S ILLINOIS AVE,MASON CITY,50401,"551 S ILLINOIS AVE
MASON CITY 50401
(43.146554109000078, -93.171110673999976)",17
2573,Hy-Vee Food Store / Muscatine,2400 2ND AVE,MUSCATINE,52761,"2400 2ND AVE
MUSCATINE 52761
(41.450211635000073, -91.035527206999973)",70
2584,Hy-vee Food Store/ft Madi,2606 AVENUE L,FORT MADISON,52627,"2606 AVENUE L
FORT MADISON 52627
(40.626992699000027, -91.342920274999983)",56
2588,Hy-vee Food and Drug #6/ced,4035 MT. VERNON ROAD S.E.,CEDAR RAPIDS,52403,"4035 MT. VERNON ROAD S.E.
CEDAR RAPIDS 52403
(41.976843602000031, -91.609930473999952)",57
2618,Hy-vee Drugstore #6 / Cedar Rapids,505 BOYSON RD NE,CEDAR RAPIDS,52402,"505 BOYSON RD NE
CEDAR RAPIDS 52402
(42.046692621000034, -91.639221477999968)",57
2652,Hy-vee Drug Store / Mason City,875  4TH ST SW,MASON CITY,50401,"875 4TH ST SW
MASON CITY 50401
(43.148271732000069, -93.214141825999945)",17
2653,Hy-vee Wine and Spirits / W,1004 W MADISON ST,WASHINGTON,52353,"1004 W MADISON ST
WASHINGTON 52353
(41.296593062000056, -91.704420096999968)",92
3403,Econ-o-mart/columb Junct,113 EAST WALNUT ST.,COLUMBUS JUNCTION,52738,"113 EAST WALNUT ST.
COLUMBUS JUNCTION 52738
(41.280163646000062, -91.358417312999961)",58
3562,Wal-Mart 0797 / W Burlington,324 WEST AGENCY RD,WEST BURLINGTON,52655,"324 WEST AGENCY RD
WEST BURLINGTON 52655
(40.813068006000037, -91.159015626999974)",29
3549,Quicker Liquor Store,1414 48TH ST,FORT MADISON,52627,"1414 48TH ST
FORT MADISON 52627
(40.624219157000027, -91.373164215999964)",56
3606,Scotty's Liquor Store,804 G AVE,GRUNDY CENTER,50638,"804 G AVE
GRUNDY CENTER 50638
(42.361482185000057, -92.774251328999981)",38
3591,Ackley Super Foods,526 MAIN ST,ACKLEY,50601,"526 MAIN ST
ACKLEY 50601
(42.55411259300007, -93.055288254999937)",94
3629,Wal-Mart 1965 / Council Bluffs,3200 MANAWA DR,COUNCIL BLUFFS,51503,"3200 MANAWA DR
COUNCIL BLUFFS 51503
(41.228111387000069, -95.847522193999964)",78
3707,Target Store T-1768 / Cedar Rapids,1030 BLAIRS FERRY RD NE,CEDAR RAPIDS,52402,"1030 BLAIRS FERRY RD NE
CEDAR RAPIDS 52402
(42.035228569000026, -91.650860675999979)",57
3740,Hometown Foods / Waterloo,1010 E MITCHELL AVE,WATERLOO,50702,"1010 E MITCHELL AVE
WATERLOO 50702
(42.476621641000065, -92.342699895999942)",7
3808,Thriftway,300  4TH ST,LA PORTE CITY,50651,"300 4TH ST
LA PORTE CITY 50651
(42.316217192000067, -92.190685228999939)",7
3790,Wal-Mart 0784 / Mt Pleasan,1045 N GRAND AVE,MT PLEASANT,52641,"1045 N GRAND AVE
MT PLEASANT 52641
(40.980256953000037, -91.539832561999958)",44
3803,Strawberry Foods and Deli,128 W MISSION,STRAWBERRY POINT,52076,"128 W MISSION
STRAWBERRY POINT 52076
(42.68357267600004, -91.535027391999961)",22
3806,Target Store T-1901 / Wdm,5405 MILLS CIVIC PKWY,WEST DES MOINES,50266,"5405 MILLS CIVIC PKWY
WEST DES MOINES 50266
(41.559257824000042, -93.779321076999963)",77
3833,Wal-Mart 3394 / Atlantic,1905 EAST 7TH ST,ATLANTIC,50022,"1905 EAST 7TH ST
ATLANTIC 50022
(41.403845149000063, -94.987239289999991)",15
3859,Wal-Mart 0750 / Independence,302 ENTERPRISE DR SW,INDEPENDENCE,50644,"302 ENTERPRISE DR SW
INDEPENDENCE 50644
(42.449892160000047, -91.893369906999965)",10
3868,Wal-Mart 3630 / Marion,5491 BUSINESS HWY 151,MARION,52302,"5491 BUSINESS HWY 151
MARION 52302
(42.040537134000033, -91.587246784999991)",57
4021,Wal-Mart 0985 / Fairfield,2701 W BURLINGTON AVE,FAIRFIELD,52556,"2701 W BURLINGTON AVE
FAIRFIELD 52556
(41.006402278000053, -91.994434833999946)",51
4019,Wal-Mart 1506 / Manchester,1220 WEST MAIN,MANCHESTER,52057,"1220 WEST MAIN
MANCHESTER 52057
(42.483831469000052, -91.477310902999989)",28
3976,North English Family Food,119 NORTH MAIN ST,NORTH ENGLISH,52316,"119 NORTH MAIN ST
NORTH ENGLISH 52316
(41.51522751300007, -92.076381386999969)",48
3899,Wal-Mart 3762 / WDM,6365 STAGECOACH DR,WEST DES MOINES,50266,"6365 STAGECOACH DR
WEST DES MOINES 50266
(41.558127436000063, -93.795560183999953)",77
3963,Tobacco Hut #14 / Council Bluffs,1925 W BROADWAY,COUNCIL BLUFFS,51501,"1925 W BROADWAY
COUNCIL BLUFFS 51501
(41.261873477000051, -95.873041331999957)",78
4051,Fareway Stores #639 / Maquoketa,110 WESTGATE DR,MAQUOKETA,52060,"110 WESTGATE DR
MAQUOKETA 52060
(42.068702324000071, -90.68066366499994)",49
4024,Wal-Mart 1546 / Iowa Falls,840 S OAK,IOWA FALLS,50126,"840 S OAK
IOWA FALLS 50126
(42.502959347000058, -93.262383255999964)",42
4090,Mcelroy's Food Market,135 MADISON ST,WINTHROP,50682,"135 MADISON ST
WINTHROP 50682
(42.473036893000028, -91.732490624999969)",10
2527,Hy-vee Food Store #5/des,1107 SE ARMY POST RD,DES MOINES,50315,"1107 SE ARMY POST RD
DES MOINES 50315
(41.526253016000055, -93.602251081999952)",77
3791,Pit Stop Liquor and Tobacco,111 E HARRISON ST,JEFFERSON,50129,"111 E HARRISON ST
JEFFERSON 50129
(42.01427317200006, -94.374150842999939)",37
4917,Kum & Go #115 / Perry,1115 IA HWY 141,PERRY,50220,"1115 IA HWY 141
PERRY 50220
(41.830222655000057, -94.105721032999952)",25
4368,Kum and Go #570 / Johnston,5800 NORTHGLEN DR,JOHNSTON,50131,"5800 NORTHGLEN DR
JOHNSTON 50131
(41.682702928000026, -93.698490811999989)",77
4406,KUM & GO #4020 / ANKENY,1910 SW WHITE BIRCH CIRCLE,ANKENY,50023,"1910 SW WHITE BIRCH CIRCLE
ANKENY 50023
(41.701918379000062, -93.626520441999958)",77
4537,Casey's General Store #1834 / Leon,401 NW CHURCH ST,LEON,50144,"401 NW CHURCH ST
LEON 50144
(40.742179399000065, -93.747854564999955)",27
4684,Indy 66 #928 / Indianola,1201 N JEFFERSON,INDIANOLA,50125,"1201 N JEFFERSON
INDIANOLA 50125
(41.371669802000042, -93.558417129999953)",91
9014,Werner Distilling,5520 190th St.,Holstein,51025,"5520 190th St.
Holstein 51025
(42.428241937000053, -95.533000663999985)",47
2510,Hy-vee Drugstore #3 / Cedar Rapids,2405 MT VERNON RD SE,CEDAR RAPIDS,52403,"2405 MT VERNON RD SE
CEDAR RAPIDS 52403
(41.976942698000073, -91.632660384999951)",57
3582,Korthouse Liquor,102 W 1ST ST,LEON,50144,"102 W 1ST ST
LEON 50144
(40.739521213000046, -93.747092812999938)",27
3847,Logan Ave Convenience Store,735 LOGAN AVE,WATERLOO,50703,"735 LOGAN AVE
WATERLOO 50703
(42.510419219000028, -92.337777347999975)",7
4091,Fareway Stores #705 / Clear Lake,910 HWY 18 W,CLEAR LAKE,50428,"910 HWY 18 W
CLEAR LAKE 50428
(43.142297150000047, -93.400492297999961)",17
3713,Wal-Mart 0810 / Mason City,4151  4TH ST SW,MASON CITY,50401,"4151 4TH ST SW
MASON CITY 50401
(43.148181854000029, -93.263710684999978)",17
4993,Site Food Mart,"1301, MAIN ST",KEOKUK,52632,"1301, MAIN ST
KEOKUK 52632
(40.402203258000043, -91.389949504999947)",56
3886,Wal-Mart 0646 / Anamosa,101  115 ST,ANAMOSA,52205,"101 115 ST
ANAMOSA 52205
(42.099844648000044, -91.261269218999985)",53
4415,KUM & GO #513 / ACKLEY,420 SHERMAN ST,ACKLEY,50601,"420 SHERMAN ST
ACKLEY 50601
(42.556691400000034, -93.056670992999955)",42
2583,Hy-vee Food Store/washing,528 S HWY 1,WASHINGTON,52353,"528 S HWY 1
WASHINGTON 52353
(41.30226301700003, -91.716642594999939)",92
4771,Cenex Gas Station,"502, E AVE NW",CEDAR RAPIDS,52402,"502, E AVE NW
CEDAR RAPIDS 52402
(41.97799926700003, -91.680798827999979)",57
3690,Target Store T-1792 / Waterloo,1501 E SAN MARNAN,WATERLOO,50702,"1501 E SAN MARNAN
WATERLOO 50702
(42.464613712000073, -92.325207105999937)",7
2605,Hy-vee Drugstore #5 / Cedar Rapids,2001 BLAIRS FERRY ROAD NE,CEDAR RAPIDS,52402,"2001 BLAIRS FERRY ROAD NE
CEDAR RAPIDS 52402
(42.034773418000043, -91.669380149999938)",57
2569,Hy-vee Food Store #2/ceda,279 COLLINS ROAD NE,CEDAR RAPIDS,52402,"279 COLLINS ROAD NE
CEDAR RAPIDS 52402
(42.027797677000081, -91.631207955999969)",57
3477,Sam's Club 6472 / Council Bluffs,3221 MANAWA CENTRE DR,COUNCIL BLUFFS,51501,"3221 MANAWA CENTRE DR
COUNCIL BLUFFS 51501
(41.22546021900007, -95.847244046999947)",78
3814,Costco Wholesale #788,7205 MILLS CIVIC PKWY,WEST DES MOINES,50266,"7205 MILLS CIVIC PKWY
WEST DES MOINES 50266
(41.561587738000071, -93.804282957999988)",25
3908,County Market #214 / Ft M,11802 AVENUE H,FORT MADISON,52627,"11802 AVENUE H
FORT MADISON 52627
(40.63009685600008, -91.318487642999969)",56
4955,Cenex Ampride,504 1st ST SW,MASON CITY,50401,"504 1st ST SW
MASON CITY 50401
(43.150907000000075, -93.208920836999937)",17
4189,Fareway Stores #594 / Manchester,109 EAST MARION ST,MANCHESTER,52057,"109 EAST MARION ST
MANCHESTER 52057
(42.482121482000025, -91.457050331999937)",28
2575,Hy-vee Food Store #1/wate,2834 Ansborough Ave,WATERLOO,50702,"2834 Ansborough Ave
WATERLOO 50702
(42.471906467000053, -92.376695690999952)",7
3521,Ameristar Casino / Council Bluffs,2200 RIVER ROAD,COUNCIL BLUFFS,51501,"2200 RIVER ROAD
COUNCIL BLUFFS 51501
(41.240559720000078, -95.90677668699999)",78
4972,Quillins Quality Foods Monona,808 S MAIN ST,MONONA,52159,"808 S MAIN ST
MONONA 52159
(43.045290408000028, -91.389833569999951)",22
4897,Gasland #102 / Burlington,1703 MT PLEASANT ST,BURLINGTON,52601,"1703 MT PLEASANT ST
BURLINGTON 52601
(40.819973401000027, -91.122347032999983)",29
4931,Hudson Gas Mart,230 WATERLOO RD,HUDSON,50643,"230 WATERLOO RD
HUDSON 50643
(42.408206061000044, -92.452339510999991)",7
4184,Fareway Stores #998 / Muscatine,2100 CEDAR PLAZA DR,MUSCATINE,52761,"2100 CEDAR PLAZA DR
MUSCATINE 52761
(41.43537139700004, -91.081927291999989)",70
3528,Super Target-t084 Mason C,3450  4TH ST SW,MASON CITY,50401,"3450 4TH ST SW
MASON CITY 50401
(43.148716512000078, -93.252240871999959)",17
4962,Hilltop Grocery,1312 HARRISON ST,DAVENPORT,52803,"1312 HARRISON ST
DAVENPORT 52803
(41.53317131600005, -90.577277404999961)",82
4607,Casey's General Store #1024 / Gutten,"1131, S HWY 52",GUTTENBERG,52052,"1131, S HWY 52
GUTTENBERG 52052
(42.773689403000049, -91.10049896299995)",22
4704,The Filling Station / Council Bluffs,1531 2nd AVE,COUNCIL BLUFFS,51501,"1531 2nd AVE
COUNCIL BLUFFS 51501
(41.259663400000079, -95.867170456999986)",78
2836,Cvs Pharmacy #8546 / Waterloo,205 FRANKLIN ST,WATERLOO,50703,"205 FRANKLIN ST
WATERLOO 50703
(42.503347103000067, -92.337227914999971)",7
2513,Hy-vee Food Store #2/iowa,812  S 1ST AVE,IOWA CITY,52240,"812 S 1ST AVE
IOWA CITY 52240
(41.651292004000027, -91.501962306999985)",52
3769,Wal-Mart 0753 / Cedar Fall,525 BRANDILYNN BLVD,CEDAR FALLS,50613,"525 BRANDILYNN BLVD
CEDAR FALLS 50613
(42.485056344000043, -92.441149701999962)",7
3756,Main Street Liquors / Manning,32627 CONCORD AVE,MANNING,51455,"32627 CONCORD AVE
MANNING 51455
(41.883929358000046, -95.053957935999961)",14
3877,Target Store T-2041 / Des Moines,5901 DOUGLAS AVE,DES MOINES,50322,"5901 DOUGLAS AVE
DES MOINES 50322
(41.629438456000059, -93.699499929999945)",77
4546,Casey's General Store #2303 / Glidde,705 IDAHO ST,GLIDDEN,51443,"705 IDAHO ST
GLIDDEN 51443
(42.063022999000054, -94.72901978799996)",14
4688,Walgreens #10770 / Carroll,105 E 6th ST,CARROLL,51401,"105 E 6th ST
CARROLL 51401
(42.065517449000026, -94.866543907999983)",14
4940,Cambridge Country Store,301 WATER ST,CAMBRIDGE,50046,"301 WATER ST
CAMBRIDGE 50046
(41.89946096400007, -93.529285140999946)",77
4921,Market Express,5340 16TH AVE SW,CEDAR RAPIDS,52404,"5340 16TH AVE SW
CEDAR RAPIDS 52404
(41.963897716000076, -91.739880207999988)",57
3993,New Star Liquor / W 4th S / Waterloo,1625 WEST 4TH ST,WATERLOO,50701,"1625 WEST 4TH ST
WATERLOO 50701
(42.484468587000038, -92.356242088999977)",7
2238,Adventureland Inn/boutiqu,3200 Adventureland Dr,ALTOONA,50009,"3200 Adventureland Dr
ALTOONA 50009
(41.658502705000046, -93.49506006699994)",77
3618,Wal-Mart 2716 / Cedar Rapids,3601 29TH AVE SW,CEDAR RAPIDS,52404,"3601 29TH AVE SW
CEDAR RAPIDS 52404
(41.949183077000043, -91.718830323999953)",57
4260,Fareway Stores #699 / Osceola,215 S MAIN ST,OSCEOLA,50213,"215 S MAIN ST
OSCEOLA 50213
(41.03321300500005, -93.765650749999963)",20
2840,Cvs Pharmacy #8633 / Bettendorf,2002 SPRUCE HILLS DR,BETTENDORF,52722,"2002 SPRUCE HILLS DR
BETTENDORF 52722
(41.550025743000049, -90.503477210999961)",82
3447,Sam's Club 6432 / Sioux City,4201 S. YORK ST.,SIOUX CITY,51106,"4201 S. YORK ST.
SIOUX CITY 51106
(42.433921534000035, -96.371659023999939)",97
3774,Eagle Country Market / Dubuque,1800 ELM ST,DUBUQUE,52001,"1800 ELM ST
DUBUQUE 52001
(42.51076605600008, -90.665580216999956)",31
3797,The Liquor Store / Davenport,211  W 53RD ST,DAVENPORT,52806,"211 W 53RD ST
DAVENPORT 52806
(41.574523254000042, -90.575940757999945)",82
3825,Shop N Save #2 / E 14th,1372 E 14TH ST,DES MOINES,50316,"1372 E 14TH ST
DES MOINES 50316
(41.604809829000033, -93.600557227999957)",77
3849,Hartig Drug Co #6 / Dyersville,711  16TH AVE SE,DYERSVILLE,52040,"711 16TH AVE SE
DYERSVILLE 52040
(42.470365062000042, -91.116572668999936)",31
4118,Lake View Redemption Center,502 5th Street,LAKE VIEW,51450,"502 5th Street
LAKE VIEW 51450
(42.307767416000047, -95.051579625999977)",81
4156,Fareway Stores #412 / Oelwein,102  2ND AVE SE,OELWEIN,50662,"102 2ND AVE SE
OELWEIN 50662
(42.679465875000062, -91.916768141999967)",33
4157,Fareway Stores #993 / North Liberty,615 WESTWOOD DR   P.O Box 96,NORTH LIBERTY,52317,"615 WESTWOOD DR P.O Box 96
NORTH LIBERTY 52317
(41.741083286000048, -91.608350695999945)",52
4182,Fareway Stores #008 / Dyersville,1207  12TH AVE SE,DYERSVILLE,52040,"1207 12TH AVE SE
DYERSVILLE 52040
(42.475297365000074, -91.11032406399994)",31
4183,Fareway Stores #589 / Decorah,103 E MAIN,DECORAH,52101,"103 E MAIN
DECORAH 52101
(43.303261702000043, -91.785010477999947)",96
4191,Fareway Stores #995 / Pella,2010 WASHINGTON ST,PELLA,50219,"2010 WASHINGTON ST
PELLA 50219
(41.412307325000029, -92.942133027999944)",63
4201,Fareway Stores #022 / Sioux City,4040 WAR EAGLE DR,SIOUX CITY,51109,"4040 WAR EAGLE DR
SIOUX CITY 51109
(42.494853044000081, -96.461638405999963)",97
4308,Keystone Liquor and Wine / Coralvill,517  2ND ST STE 2,CORALVILLE,52241,"517 2ND ST STE 2
CORALVILLE 52241
(41.671408460000066, -91.573421347999954)",52
4427,Kum & Go #507 / North Liberty,610 N KANSAS AVE,NORTH LIBERTY,52317,"610 N KANSAS AVE
NORTH LIBERTY 52317
(41.752590031000068, -91.636912118999987)",52
4536,Casey's General Store #2420 / Dubuqu,2699 ROCKDALE,DUBUQUE,52003,"2699 ROCKDALE
DUBUQUE 52003
(42.455084342000077, -90.678362478999986)",31
4712,Walgreens #11942 / Dubuque,345 E 20TH ST,DUBUQUE,52001,"345 E 20TH ST
DUBUQUE 52001
(42.512133885000026, -90.666956924999965)",31
4748,Walgreens #06186 / Davenport,4011 E 53RD ST,DAVENPORT,52807,"4011 E 53RD ST
DAVENPORT 52807
(41.574813629000062, -90.513780914999984)",82
4789,Katy Did's General Store,419 MERRILL ST,BUSSEY,50044,"419 MERRILL ST
BUSSEY 50044
(41.204751410000028, -92.886707120999972)",63
4973,Quillins Quality Foods West Union,"303, HWY 150 N",WEST UNION,52175,"303, HWY 150 N
WEST UNION 52175
(42.965066989000036, -91.814437450999947)",33
4977,Bacon Creek Country Store,2520 GORDON DR,SIOUX CITY,51106,"2520 GORDON DR
SIOUX CITY 51106
(42.489801441000054, -96.376580419999982)",97
2594,Hy-vee Food Store/sioux C,4500 SERGEANT ROAD,SIOUX CITY,51106,"4500 SERGEANT ROAD
SIOUX CITY 51106
(42.447602576000065, -96.347417318999987)",97
2600,Hy-vee Food Store/oskaloo,110  SO  D  ST,OSKALOOSA,52577,"110 SO D ST
OSKALOOSA 52577
(41.295137088000047, -92.649712731999955)",62
4853,Kum & Go #62 / Johnston,6130 NW 86TH ST,JOHNSTON,50131,"6130 NW 86TH ST
JOHNSTON 50131
(41.67182077800004, -93.736517263999986)",77
4890,Casey's General Store #3210 / Urband,4400 128TH ST,URBANDALE,50323,"4400 128TH ST
URBANDALE 50323
(41.640346757000032, -93.794524855999953)",77
4944,Jiffy Express / Martensdale,"290, HWY 28",MARTENSDALE,50160,"290, HWY 28
MARTENSDALE 50160
(41.373577479000062, -93.737350403999983)",91
4025,Karam Kaur Khasriya Llc,702 13TH ST,BELLE PLAINE,52208,"702 13TH ST
BELLE PLAINE 52208
(41.897088416000031, -92.27776074999997)",6
4042,Lake Ohana Market/mineola,23226 CENTRE DR,GLENWOOD,51534,"23226 CENTRE DR
GLENWOOD 51534
(41.130287503000034, -95.742780481999944)",65
4117,Tobacco Shop / Arnolds Park,612 S HIGHWAY 71 UNIT 4,ARNOLDS PARK,51331,"612 S HIGHWAY 71 UNIT 4
ARNOLDS PARK 51331
(43.361637451000036, -95.140187792999939)",30
4131,Fareway Stores #933 / Urbandale,8450 MEREDITH DR,URBANDALE,50322,"8450 MEREDITH DR
URBANDALE 50322
(41.643825569000057, -93.734780952999984)",77
4146,Fareway Stores #561 / Waverly,220 W BREMER AVE,WAVERLY,50677,"220 W BREMER AVE
WAVERLY 50677
(42.72578184300005, -92.467070281999952)",9
4236,Fareway Stores #551 / Eagle Grove,205 NW  1ST ST,EAGLE GROVE,50533,"205 NW 1ST ST
EAGLE GROVE 50533
(42.665170231000047, -93.90320161599999)",99
4247,Fareway Stores #879 / Belmond,115 SECOND AVE SE,BELMOND,50421,"115 SECOND AVE SE
BELMOND 50421
(42.845249269000078, -93.614153000999977)",99
2544,Hy-vee Food Store/marshal,802 SOUTH CENTER,MARSHALLTOWN,50158,"802 SOUTH CENTER
MARSHALLTOWN 50158
(42.039480489000027, -92.912763669999947)",64
4310,Fareway Stores #502 / Cherokee,205 WEST BLUFF ST,CHEROKEE,51012,"205 WEST BLUFF ST
CHEROKEE 51012
(42.755082065000067, -95.552391262999947)",18
4321,Fareway Stores #501 / Charles City,210  11TH ST,CHARLES CITY,50616,"210 11TH ST
CHARLES CITY 50616
(43.052662300000065, -92.674430307999955)",34
4361,Quik Trip #538 / Nw 2nd,4575 NW 2ND,DES MOINES,50313,"4575 NW 2ND
DES MOINES 50313
(41.643601396000065, -93.619844120999971)",77
4378,Kum and Go #202 / 4th St Wa,85  4TH ST,WAUKEE,50263,"85 4TH ST
WAUKEE 50263
(41.614100677000067, -93.882483714999978)",25
2529,Hy-vee Drugstore #4 / Cedar Rapids,4825 JOHNSON AVE NW,CEDAR RAPIDS,52405,"4825 JOHNSON AVE NW
CEDAR RAPIDS 52405
(41.968474579000031, -91.733071374999952)",57
4499,Casey's General Store #1316 / Milfor,510 OKOBOJI AVE,MILFORD,51351,"510 OKOBOJI AVE
MILFORD 51351
(43.320110366000051, -95.149943010999948)",30
4538,K & S Grocery,402 NORTH MAIN ST,CLARKSVILLE,50619,"402 NORTH MAIN ST
CLARKSVILLE 50619
(42.787570650000077, -92.667803534999962)",12
4634,Kwik Shop #565 / Cedar Rapids,"4201, CENTER POINT RD NE",CEDAR RAPIDS,52402,"4201, CENTER POINT RD NE
CEDAR RAPIDS 52402
(42.021977328000048, -91.665662888999975)",57
4724,Walgreens #05942 / Newton,1204 1ST AVE EAST,NEWTON,50208,"1204 1ST AVE EAST
NEWTON 50208
(41.699227801000063, -93.037700977999975)",50
2656,Hy-vee Food Store / Corning,300  10TH ST,CORNING,51632,"300 10TH ST
CORNING 51632
(40.991862193000031, -94.731948733999957)",22
3542,Chuck's Sportsmans Beverage,244 W 4TH ST,ST ANSGAR,50472,"244 W 4TH ST
ST ANSGAR 50472
(43.378451547000054, -92.921300925999958)",66
3592,Wal-Mart 0886 / Fort Dodge,3036 1ST AVE SOUTH,FORT DODGE,50501,"3036 1ST AVE SOUTH
FORT DODGE 50501
(42.50533650400007, -94.155660925999939)",94
4125,Wapello Jack and Jill,503 HWY 61 SOUTH,WAPELLO,52653,"503 HWY 61 SOUTH
WAPELLO 52653
(41.173490005000076, -91.189164398999935)",58
4416,KUM & GO #83 / CASEY,501 ANTUQUE COUNTRY DR,CASEY,50048,"501 ANTUQUE COUNTRY DR
CASEY 50048
(41.505229635000035, -94.519213904999958)",39
4699,Walgreens #06553 / Bettendorf,830 MIDDLE RD,BETTENDORF,52722,"830 MIDDLE RD
BETTENDORF 52722
(41.53855823400005, -90.522040470999968)",82
4717,Walgreens #05512 / Bettendorf,3425 MIDDLE RD,BETTENDORF,52722,"3425 MIDDLE RD
BETTENDORF 52722
(41.550884193000059, -90.48506950899997)",82
4898,Burlington Shell,"130, S ROOSEVELT AVE",BURLINGTON,52601,"130, S ROOSEVELT AVE
BURLINGTON 52601
(40.808202842000071, -91.141053175999957)",29
4419,KUM & GO #4 / LAMONI,2091 E MAIN ST,LAMONI,50140,"2091 E MAIN ST
LAMONI 50140
(40.623583097000051, -93.896690197999988)",27
4693,Hawkeye Convenience Stores / 16th St,250 16th AVE SW,CEDAR RAPIDS,52404,"250 16th AVE SW
CEDAR RAPIDS 52404
(41.961698010000077, -91.667849918999991)",57
4953,Tri Stop,302 HWY 136,LOST NATION,52254,"302 HWY 136
LOST NATION 52254
(41.968126759000029, -90.893316317999961)",23
4356,Kum and Go #396 / Nevada,136 LINCOLN HWY,NEVADA,50201,"136 LINCOLN HWY
NEVADA 50201
(42.022673307000048, -93.45821009399998)",85
4511,Super Quick / SE 30 DM,303 SE 30TH ST,DES MOINES,50317,"303 SE 30TH ST
DES MOINES 50317
(41.585360464000075, -93.558263875999955)",77
4551,Casey's General Store #2845 / Urband,201 SUNSET ST,URBANA,52345,"201 SUNSET ST
URBANA 52345
(42.226669406000042, -91.877002995999987)",6
4799,Walgreens #05777 / Des Moines,2930 E UNIVERSITY AVE,DES MOINES,50317,"2930 E UNIVERSITY AVE
DES MOINES 50317
(41.600607457000081, -93.558651042999941)",77
4791,Walgreens #05470 / Sioux City,4650 MORNINGSIDE AVE,SIOUX CITY,97,"4650 MORNINGSIDE AVE
SIOUX CITY 97
(42.499810303000061, -96.42093775699999)",97
4821,Casey's General Store #3215 / Oskalo,901 S MARKET ST,OSKALOOSA,52577,"901 S MARKET ST
OSKALOOSA 52577
(41.287564647000067, -92.645109508999951)",62
4915,Casey's General Store #2429 / Betten,"3902, STATE ST",BETTENDORF,52722,"3902, STATE ST
BETTENDORF 52722
(41.530636296000068, -90.478643233999946)",82
4930,Casey's General Store #3251 / Boone,1303 SE MARSHALL ST,BOONE,50036,"1303 SE MARSHALL ST
BOONE 50036
(42.035137539000061, -93.872970476999967)",8
4081,Harlan's Food Mart,306 WASHINGTON,STORY CITY,50248,"306 WASHINGTON
STORY CITY 50248
(42.18578225400006, -93.599570874999984)",85
2667,Hy-Vee Mainstreet,2611 PIERCE ST,SIOUX CITY,51104,"2611 PIERCE ST
SIOUX CITY 51104
(42.517629047000071, -96.405207708999967)",97
4059,Belle Plaine Country Food,1206 7TH AVE,BELLE PLAINE,52208,"1206 7TH AVE
BELLE PLAINE 52208
(41.896819934000064, -92.278297712999972)",6
3798,Old Calliope Liquor,2021 AVE E,HAWARDEN,51023,"2021 AVE E
HAWARDEN 51023
(43.009299631000033, -96.487987634999968)",84
4337,Grand Falls Casino Resort,1415 GRAND FALLS BLVD,LARCHWOOD,51241,"1415 GRAND FALLS BLVD
LARCHWOOD 51241
(43.45311580200007, -96.440665723999984)",60
3889,Wal-Mart 1005 / Waverly,700  29 ST SW,WAVERLY,50677,"700 29 ST SW
WAVERLY 50677
(42.70029562700006, -92.473871910999947)",9
4487,Casey's General Store #2787 / Cedar,1661 32ND ST NE,CEDAR RAPIDS,52402,"1661 32ND ST NE
CEDAR RAPIDS 52402
(42.010462576000066, -91.662340859999972)",57
4513,Casey's General Store #1144 / Polk C,1100 S 3RD ST,POLK CITY,50226,"1100 S 3RD ST
POLK CITY 50226
(41.763998714000024, -93.71714740699997)",77
4545,FILL R UP,14151 WABASH AVE,COUNCIL BLUFFS,51503,"14151 WABASH AVE
COUNCIL BLUFFS 51503
(41.216031956000052, -95.810781017999943)",78
4716,Walgreens #11153 / Spencer,800 GRAND AVE,SPENCER,51301,"800 GRAND AVE
SPENCER 51301
(43.146322071000043, -95.144862600999943)",21
4730,Walgreens #05944 / Johnston,6200 MERLE HAY RD,JOHNSTON,50131,"6200 MERLE HAY RD
JOHNSTON 50131
(41.673261130000071, -93.697756807999951)",77
4734,Walgreens #04973 / Urbandale,7000 DOUGLAS AVE,URBANDALE,50322,"7000 DOUGLAS AVE
URBANDALE 50322
(41.629353432000073, -93.713081003999946)",77
4744,Walgreens #03875 / Cedar Rapids,2821 1ST AVE SE,CEDAR RAPIDS,52402,"2821 1ST AVE SE
CEDAR RAPIDS 52402
(42.00549163200003, -91.634773669999959)",57
4774,Casey's General Store #3034 / Esther,"1615, CENTRAL AVE",ESTHERVILLE,51334,"1615, CENTRAL AVE
ESTHERVILLE 51334
(43.402196618000062, -94.822040479999941)",32
4786,Casey's General Store #1706 / Winter,1021 N 1st ST,WINTERSET,50273,"1021 N 1st ST
WINTERSET 50273
(41.343456950000075, -94.013442533999978)",61
4775,Casey's General Store #37 / Dakota C,"502, MAIN",DAKOTA CITY,50529,"502, MAIN
DAKOTA CITY 50529
(42.721360956000069, -94.201017080999975)",46
4441,SPEEDE SHOP,204 N Main St,Garnavillo,52049,"204 N Main St
Garnavillo 52049
(42.86647199500004, -91.234790148999991)",22
4519,Casey's General Store #2923 / WDM,1850 22ND ST,WEST DES MOINES,50266,"1850 22ND ST
WEST DES MOINES 50266
(41.599889586000074, -93.736166969999942)",77
4721,Walgreens #05044 / Burlington,3245 AGENCY ST,BURLINGTON,52601,"3245 AGENCY ST
BURLINGTON 52601
(40.814793037000072, -91.140068156999973)",29
4893,Casey's General Store #3098 / WDM,125 GRAND AVE,WEST DES MOINES,50265,"125 GRAND AVE
WEST DES MOINES 50265
(41.582737871000063, -93.704650909999941)",77
4927,Kum & Go #576 / West Des Moines,3501 EP TRUE PKWY,WEST DES MOINES,50265,"3501 EP TRUE PKWY
WEST DES MOINES 50265
(41.570188370000039, -93.752551264999965)",77
4454,Kum & Go #248 / Sioux City,2026 RIVERSIDE BLVD,SIOUX CITY,51109,"2026 RIVERSIDE BLVD
SIOUX CITY 51109
(42.514937316000044, -96.474504784999965)",97
4535,Casey's General Store #2421 / Dubuqu,4003 PERU RD,DUBUQUE,52001,"4003 PERU RD
DUBUQUE 52001
(42.539441741000076, -90.676136270999962)",31
4610,Casey's General Store #2992 / Fonda,"101, HWY 7",FONDA,50540,"101, HWY 7
FONDA 50540
(42.58892187500004, -94.846610584999951)",76
4750,Walgreens #04041 / Davenport,1525 E KIMBERLY,DAVENPORT,52807,"1525 E KIMBERLY
DAVENPORT 52807
(41.556752764000066, -90.552200295999967)",82
4924,Abby Lea's,"2757, CHARLES CITY RD",NASHUA,50658,"2757, CHARLES CITY RD
NASHUA 50658
(42.958718113000032, -92.54722774399994)",19
3845,Otho Convenience and Food,210 NORTH HWY,OTHO,50569,"210 NORTH HWY
OTHO 50569
(42.419947359000048, -94.146928629999991)",94
4951,New Star Mart (Amoco),4141 CENTER POINT RD NE,CEDAR RAPIDS,52402,"4141 CENTER POINT RD NE
CEDAR RAPIDS 52402
(42.021328594000067, -91.665403624999954)",57
4225,T P Plaza,1701 IOWA AVE,MARSHALLTOWN,50158,"1701 IOWA AVE
MARSHALLTOWN 50158
(42.007568044000038, -92.94184034899996)",64
4338,Randhawa's Travel Center,1659D MARSHALLTOWN BLVD,MELBOURNE,50162,"1659D MARSHALLTOWN BLVD
MELBOURNE 50162
(41.953260614000044, -93.10099046199997)",64
4364,Kum and Go #22 / Grinnell,715 LANG CREEK AVE,GRINNELL,50112,"715 LANG CREEK AVE
GRINNELL 50112
(41.699542374000032, -92.725528244999964)",79
4528,Casey's General Store #1303 / Marsha,111 N 3RD AVE,MARSHALLTOWN,50158,"111 N 3RD AVE
MARSHALLTOWN 50158
(42.05134092600008, -92.907993222999949)",64
4573,Casey's General Store #1330 / Hambur,1211 WASHINGTON ST,HAMBURG,51640,"1211 WASHINGTON ST
HAMBURG 51640
(40.605131609000068, -95.654624009999964)",36
4880,Casey's General Store #1567 / Anita,"912, MAIN ST",ANITA,50020,"912, MAIN ST
ANITA 50020
(41.443554903000063, -94.767787594999959)",15
4591,Casey's General Store #3052 / Clario,"222, CENTRAL AVE",CLARION,50525,"222, CENTRAL AVE
CLARION 50525
(42.731591648000062, -93.735029667999981)",99
4912,Casey's General Store #2531 / Eldrid,"840, E LE CLAIRE RD",ELDRIDGE,52748,"840, E LE CLAIRE RD
ELDRIDGE 52748
(41.654738200000054, -90.572770830999957)",82
4783,Casey's General Store #1684 / Emmets,"2406, MAIN ST",EMMETSBURG,50536,"2406, MAIN ST
EMMETSBURG 50536
(43.111932220000028, -94.68241042599999)",74
4824,Casey's General Store #3224 / Cresto,301 W TAYLOR ST,CRESTON,50801,"301 W TAYLOR ST
CRESTON 50801
(41.04920936700006, -94.36392546999997)",88
4848,Kum & Go #246 / Winterset,111 E JEFFERSON ST,WINTERSET,50273,"111 E JEFFERSON ST
WINTERSET 50273
(41.335480045000054, -94.013156116999937)",61
4923,Casey's General Store #2270 / Aureli,"100, PEARL ST",AURELIA,51005,"100, PEARL ST
AURELIA 51005
(42.712160719000053, -95.437562922999973)",18
4505,Casey's General Store #2816 / Johnst,6417 NORTHGLEN DR,JOHNSTON,50131,"6417 NORTHGLEN DR
JOHNSTON 50131
(41.685492906000036, -93.705082558999948)",77
4946,Byron Supermarket,306 BYRON AVE,WATERLOO,50702,"306 BYRON AVE
WATERLOO 50702
(42.480242111000052, -92.353320477999944)",7
3882,Kwik Shop #579 / Davenport,2805 TELEGRAPH RD,DAVENPORT,52802,"2805 TELEGRAPH RD
DAVENPORT 52802
(41.519000176000077, -90.621653556999945)",82
4266,Wal-Mart 1683 / Shenandoah,705 S FREMONT,SHENANDOAH,51601,"705 S FREMONT
SHENANDOAH 51601
(40.759802120000074, -95.385073477999981)",73
4560,Casey's General Store #2914 / Harlan,"1006, CHATBURN AVE",HARLAN,51537,"1006, CHATBURN AVE
HARLAN 51537
(41.645442312000057, -95.323232096999959)",83
9018,Paradise Distilling Company,245 Railroad Ave,Dubuque,52001,"245 Railroad Ave
Dubuque 52001
(42.487388463000059, -90.661778089999984)",31
3652,Discount Liquors Of Ida Grove,604 W 2ND,IDA GROVE,51445,"604 W 2ND
IDA GROVE 51445
(42.345120610000038, -95.47276242199996)",47
4150,Fareway Stores #951 / Waterloo,40  W SAN MARNAN,WATERLOO,50701,"40 W SAN MARNAN
WATERLOO 50701
(42.457473991000029, -92.357421301999977)",7
4095,City Liquor And Tobacco /,200 BROADWAY ST,WATERLOO,50703,"200 BROADWAY ST
WATERLOO 50703
(42.507445180000047, -92.34428774099996)",7
4555,Casey's General Store #2614 / Donnel,201 MADISON AVE,DONNELLSON,52625,"201 MADISON AVE
DONNELLSON 52625
(40.639053725000053, -91.560828201999982)",56
3866,Target Store T-1170 / Ames,320 S DUFF,AMES,50010,"320 S DUFF
AMES 50010
(42.019340908000061, -93.610333186999981)",85
3529,A To Z Liquor and Smoke Shop,114 S SECOND,CHEROKEE,51012,"114 S SECOND
CHEROKEE 51012
(42.748998017000076, -95.551263178999989)",18
4430,Kum & Go #87 / Fort Dodge,1601 FIFTH AVENUE S,FORT DODGE,50501,"1601 FIFTH AVENUE S
FORT DODGE 50501
(42.501031579000028, -94.175650710999946)",94
4451,Kum & Go #96 / WEBSTER CITY,1803 SUPERIOR ST,WEBSTER CITY,50595,"1803 SUPERIOR ST
WEBSTER CITY 50595
(42.45964910400005, -93.815895011999942)",40
3813,Cgi Foods,104 NORTH FILLMORE,MOUNT AYR,50854,"104 NORTH FILLMORE
MOUNT AYR 50854
(40.714893179000057, -94.238747003999947)",80
4459,Kum & Go #544 / Eagle Grove,1120 S COMMERCIAL,EAGLE GROVE,50533,"1120 S COMMERCIAL
EAGLE GROVE 50533
(42.653939376000039, -93.904352871999947)",99
2607,Hy-vee Wine and Spirits / S,520 SO FREMONT,SHENANDOAH,51601,"520 SO FREMONT
SHENANDOAH 51601
(40.761756287000026, -95.385132542999941)",73
2602,Hy-vee Food Store/webster,823  2ND ST,WEBSTER CITY,50595,"823 2ND ST
WEBSTER CITY 50595
(42.469477313000027, -93.824364560999982)",40
2512,Hy-vee Wine and Spirits / I,1720 WATERFRONT DR,IOWA CITY,52240,"1720 WATERFRONT DR
IOWA CITY 52240
(41.642926159000069, -91.530648875999987)",52
2613,Hy-vee Food Store #1 / Council Bluff,2323 W BROADWAY,COUNCIL BLUFFS,51501,"2323 W BROADWAY
COUNCIL BLUFFS 51501
(41.261903436000068, -95.879540201999987)",78
2603,Hy-vee Wine and Spirits / B,2890 DEVILS GLEN ROAD,BETTENDORF,52722,"2890 DEVILS GLEN ROAD
BETTENDORF 52722
(41.551827948000039, -90.483739020999963)",82
2590,Hy-vee Food Store #5/ceda,3235 OAKLAND ROAD NE,CEDAR RAPIDS,52402,"3235 OAKLAND ROAD NE
CEDAR RAPIDS 52402
(42.010814022000034, -91.658242193999968)",57
2599,Hy-vee Wine and Spirits / C,LANTERN PARK PLAZA,CORALVILLE,52241,"LANTERN PARK PLAZA
CORALVILLE 52241
(41.68834836800005, -91.58600845899997)",52
2643,Hy-vee Wine and Spirits / W,2126 KIMBALL AVE,WATERLOO,50701,"2126 KIMBALL AVE
WATERLOO 50701
(42.470915062000074, -92.357030391999956)",7
2630,Hy-vee Drugstore #2 / Wdm,1010  60TH ST,WEST DES MOINES,50266,"1010 60TH ST
WEST DES MOINES 50266
(41.585180708000053, -93.790586935999954)",77
3747,T-n-t Liquor,110 SOUTH MAIN,SIGOURNEY,52591,"110 SOUTH MAIN
SIGOURNEY 52591
(41.333550830000036, -92.205221340999969)",54
2545,Hy-vee Drugstore / Iowa City,310 N 1ST ST,IOWA CITY,52245,"310 N 1ST ST
IOWA CITY 52245
(41.66583006500008, -91.502064220999955)",52
2627,Hy-vee Wine and Spirits #1,3424 MARTIN LUTHER KING JR PKW,DES MOINES,50310,"3424 MARTIN LUTHER KING JR PKW
DES MOINES 50310
(41.626530437000042, -93.651166734999947)",77
2551,Hy-vee Food Store/charito,2001 WEST COURT,CHARITON,50049,"2001 WEST COURT
CHARITON 50049
(41.030305975000033, -93.303445747999945)",59
4141,Fareway Stores #975 / Se,3000 SE 22ND ST,DES MOINES,50320,"3000 SE 22ND ST
DES MOINES 50320
(41.556311440000059, -93.577497763999986)",77
2625,Hy-vee Wine and Spirits #2,3301 W KIMBERLY RD,DAVENPORT,52804,"3301 W KIMBERLY RD
DAVENPORT 52804
(41.560124034000069, -90.62359906599994)",82
4370,Kum and Go #240 / North Av,530 NORTH AVE,NORWALK,50211,"530 NORTH AVE
NORWALK 50211
(41.475333683000031, -93.681861080999965)",91
4997,Downtown Pantry,"218, 6th AVE #101",DES MOINES,50309,"218, 6th AVE #101
DES MOINES 50309
(41.585226416000069, -93.624397382999973)",77
2614,Hy-vee #3 Food and Drugstor,1823 E KIMBERLY RD,DAVENPORT,52807,"1823 E KIMBERLY RD
DAVENPORT 52807
(41.556752764000066, -90.550731135999968)",82
2500,Hy-vee Food Store #1 / Ames,3800 W LINCOLN WAY,AMES,50010,"3800 W LINCOLN WAY
AMES 50010
(42.022836606000055, -93.669051489999958)",85
2572,Hy-Vee Food Store / Cedar Falls,6301 UNIVERSITY,CEDAR FALLS,50613,"6301 UNIVERSITY
CEDAR FALLS 50613
(42.512742219000074, -92.432420014999991)",7
3573,Quik Shop Foods/four M In,405 S MADISON,OTTUMWA,52501,"405 S MADISON
OTTUMWA 52501
(40.999011492000079, -92.410456371999942)",90
4998,Lake City Food Center,820 E MAIN ST,LAKE CITY,51449,"820 E MAIN ST
LAKE CITY 51449
(42.267440692000037, -94.724975926999946)",13
3855,Dyno's Wine and Spirits / Storm Lake,1201 1/2 LAKESHORE DR,STORM LAKE,50588,"1201 1/2 LAKESHORE DR
STORM LAKE 50588
(42.634998443000029, -95.186059864999947)",11
4464,Perfect Value Liquor Mart,5B  LINCOLN AVE,ELDRIDGE,52748,"5B LINCOLN AVE
ELDRIDGE 52748
(41.695056667000074, -90.54790604599998)",82
4456,Kum & Go #53 / Iowa City,955 MORMAN TREK BLVD,IOWA CITY,52246,"955 MORMAN TREK BLVD
IOWA CITY 52246
(41.64995162200006, -91.574126772999989)",52
4444,Kum & Go #4127 / SLOAN,1864 HWY 141,SLOAN,51055,"1864 HWY 141
SLOAN 51055
(42.228460138000059, -96.234490167999979)",97
4438,Kum & Go #214  Ames,111 DUFF AVE,AMES,50010,"111 DUFF AVE
AMES 50010
(42.023421137000071, -93.610417303999952)",85
4436,Kum & Go #216  Ames,203 WELCH AVE,AMES,50010,"203 WELCH AVE
AMES 50010
(42.021331401000054, -93.65016137899994)",85
4433,Kum & Go #24  Pleasant Hill,5970 MORNING STAR CT,PLEASANT HILL,50317,"5970 MORNING STAR CT
PLEASANT HILL 50317
(41.597617348000028, -93.491937077999978)",77
4432,Kum & Go #201 Coralville,822 1ST AVE,CORALVILLE,52241,"822 1ST AVE
CORALVILLE 52241
(41.68112314900003, -91.565847628999961)",52
3959,Hartig Drug Company #8 / University,1600 UNIVERSITY AVE,DUBUQUE,52001,"1600 UNIVERSITY AVE
DUBUQUE 52001
(42.498292605000074, -90.687956377999967)",31
4638,GD Xpress / Davenport,4607 N PINE ST,DAVENPORT,52804,"4607 N PINE ST
DAVENPORT 52804
(41.567484855000032, -90.610173778999979)",82
2556,Hy-vee Wine and Spirits / E,2608 E. CENTRAL AVENUE,ESTHERVILLE,51334,"2608 E. CENTRAL AVENUE
ESTHERVILLE 51334
(43.399189315000058, -94.809359477999976)",32
2644,Hy-vee Fort Dodge Wine and,1511 2ND AVE NORTH,FORT DODGE,50501,"1511 2ND AVE NORTH
FORT DODGE 50501
(42.508267614000033, -94.177530704999981)",94
2233,Forbes Liquor Locker/remi,2508 ENTERPRISE AVE,SPIRIT LAKE,51360,"2508 ENTERPRISE AVE
SPIRIT LAKE 51360
(43.41706203800004, -95.126825457999985)",30
5005,Laurens Food Pride,410 W MAIN ST,LAURENS,50554,"410 W MAIN ST
LAURENS 50554
(42.846736865000025, -94.853230443999962)",76
4355,Kum and Go #124 / Story Cit,1554 BROAD ST,STORY CITY,50248,"1554 BROAD ST
STORY CITY 50248
(42.187701956000069, -93.575749752999968)",85
4365,Kum and Go #222 / West St G,1002 WEST ST,GRINNELL,50112,"1002 WEST ST
GRINNELL 50112
(41.74538014500007, -92.727333870999985)",79
4362,Kum and Go #135 / Polk City,303 W BROADWAY ST,POLK CITY,50226,"303 W BROADWAY ST
POLK CITY 50226
(41.771897024000054, -93.713889060999975)",77
4375,Kum and Go #237 / Grimes,801 N 1ST ST,GRIMES,50111,"801 N 1ST ST
GRIMES 50111
(41.688407875000053, -93.783700899999985)",77
4995,Durant Street C-Store,618 DURANT ST,HARLAN,51537,"618 DURANT ST
HARLAN 51537
(41.656818069000053, -95.318600195999977)",83
2961,Dahl's / Ep True/wdm,5003 E P TRUE PARKWAY,WEST DES MOINES,50265,"5003 E P TRUE PARKWAY
WEST DES MOINES 50265
(41.571678270000064, -93.771450991999984)",77
2514,Hy-vee Drugstore / Marion,2790 7TH AVENUE,MARION,50129,"2790 7TH AVENUE
MARION 50129
(42.03329769000004, -91.582624859999953)",57
4222,Station Mart Liquor and Tobbacco,3594 LAFAYETTE ST,EVANSDALE,50707,"3594 LAFAYETTE ST
EVANSDALE 50707
(42.477202391000048, -92.28804947399999)",7
4654,KUM & GO #510/STUART,629 S DIVISION ST,STUART,50250,"629 S DIVISION ST
STUART 50250
(41.49658422400006, -94.318436737999946)",1
2659,Hy-vee Food Store / Corydon,303 E JEFFERSON ST,CORYDON,50060,"303 E JEFFERSON ST
CORYDON 50060
(40.75716754900003, -93.315616639999973)",93
4359,Kum and Go #75 / Waukee,350 SE UNIVERSITY AVE,WAUKEE,50263,"350 SE UNIVERSITY AVE
WAUKEE 50263
(41.600361932000055, -93.868036324999991)",25
2845,Cvs Pharmacy #4816 / Council Bluffs,545 W WASHINGTON ST,COUNCIL BLUFFS,51503,"545 W WASHINGTON ST
COUNCIL BLUFFS 51503
(41.263173251000069, -95.851094972999988)",78
5000,Casey's General Store #3319 / Nevada,1800 SOUTH B AVE,NEVADA,50201,"1800 SOUTH B AVE
NEVADA 50201
(42.009743552000032, -93.435881176999942)",85
3776,Wal-Mart 5115 / Davenport,3101 WEST KIMBERLY RD,DAVENPORT,52806,"3101 WEST KIMBERLY RD
DAVENPORT 52806
(41.560123188000034, -90.623450488999936)",82
5004,Ida Grove Food Pride,200 SUSAN LAWRENCE DR,IDA GROVE,51445,"200 SUSAN LAWRENCE DR
IDA GROVE 51445
(42.339729867000074, -95.470026254999937)",47
4209,Wal-Mart 5748 / Grimes,2150 EAST 1ST ST,GRIMES,50111,"2150 EAST 1ST ST
GRIMES 50111
(41.688303665000035, -93.771171587999959)",77
3626,Wal-Mart 2714 / Spencer,500  11TH ST,SPENCER,51301,"500 11TH ST
SPENCER 51301
(43.148602436000033, -95.152070123999977)",21
3645,Wal-Mart 1764 / Windsor Heights,1001  73RD ST,WINDSOR HEIGHTS,50311,"1001 73RD ST
WINDSOR HEIGHTS 50311
(41.596511219000035, -93.718551834999971)",77
3981,Wal-Mart 1152 / Sioux Center,255 16TH ST SW,SIOUX CENTER,51250,"255 16TH ST SW
SIOUX CENTER 51250
(43.060829671000079, -96.179653618999964)",84
5018,Super Saver Liquor LLC,1610 ROCKINGHAM RD,DAVENPORT,52802,"1610 ROCKINGHAM RD
DAVENPORT 52802
(41.520367161000024, -90.599171911999974)",82
3563,Wal-Mart 0559 / Muscatine,3003 NORTH HWY 61,MUSCATINE,52761,"3003 NORTH HWY 61
MUSCATINE 52761
(41.456936352000071, -91.022562884999957)",70
3385,Sam's Club 8162 / Cedar Rapids,2605 BLAIRS FERRY RD NE,CEDAR RAPIDS,52402,"2605 BLAIRS FERRY RD NE
CEDAR RAPIDS 52402
(42.03468354000006, -91.68021044599999)",57
3651,Wal-Mart 1491 / Indianola,1500 NORTH JEFFERSON,INDIANOLA,50125,"1500 NORTH JEFFERSON
INDIANOLA 50125
(41.372940769000024, -93.558353753999938)",91
5026,Forrest Hometown Market,119 N MAIN ST,NORTH ENGLISH,52316,"119 N MAIN ST
NORTH ENGLISH 52316
(41.51522751300007, -92.076381386999969)",48
4001,Wal-Mart 1787 / Carroll,2014 KITTY HAWK AVE,CARROLL,51401,"2014 KITTY HAWK AVE
CARROLL 51401
(42.07889446400003, -94.894966711999984)",14
5038,Jim's Food,437 SULLIVAN AVE,WATERLOO,50701,"437 SULLIVAN AVE
WATERLOO 50701
(42.48712929900006, -92.355883152999979)",7
5043,West Side Liquor / Waterloo,"919, W 5TH ST",WATERLOO,50702,"919, W 5TH ST
WATERLOO 50702
(42.488554672000078, -92.346305385999983)",7
3997,Wal-Mart 4606 / Osceola,2400 COLLEGE DR,OSCEOLA,50213,"2400 COLLEGE DR
OSCEOLA 50213
(41.024663590000046, -93.799692266999955)",20
4013,Wal-Mart 0841 / Tipton,1126 HIGHWAY 38 NORTH,TIPTON,52772,"1126 HIGHWAY 38 NORTH
TIPTON 52772
(41.787927529000058, -91.12744416299995)",16
2852,CVS Pharmacy #10329 / Merle Hay,"2303, MERLE HAY RD",DES MOINES,50310,"2303, MERLE HAY RD
DES MOINES 50310
(41.615449999000077, -93.697744132999958)",77
3660,Wal-Mart 2935 / Knoxville,814 W BELL AVE,KNOXVILLE,50138,"814 W BELL AVE
KNOXVILLE 50138
(41.306123403000072, -93.106681175999938)",63
4999,Casey's General Store #2680 / Clarks,213 S MAIN ST,CLARKSVILLE,50619,"213 S MAIN ST
CLARKSVILLE 50619
(42.783029508000027, -92.667752834999987)",12
5019,Riverside Quick Shop,"802, S RIVERVIEW",BELLEVUE,52031,"802, S RIVERVIEW
BELLEVUE 52031
(42.252843797000025, -90.420641350999972)",49
4498,Speede Shop / Winthrop,744 220th St,Winthrop,50682,"744 220th St
Winthrop 50682
(42.468381674000057, -91.740059963999954)",10
5012,Bluejay Market,"2810, WILLIS AVE",PERRY,50220,"2810, WILLIS AVE
PERRY 50220
(41.838498343000026, -94.081120967999937)",8
4410,Kum & Go #203 / Perry,1219 1ST ST,PERRY,50220,"1219 1ST ST
PERRY 50220
(41.84043071900004, -94.106627877999983)",8
5030,New Star,315 FLETCHER AVE,WATERLOO,50701,"315 FLETCHER AVE
WATERLOO 50701
(42.488963596000076, -92.367098108999983)",7
5029,The Liquor Stop LLC,"211, W 53RD ST",DAVENPORT,52806,"211, W 53RD ST
DAVENPORT 52806
(41.574523254000042, -90.575940757999945)",82
5023,Hawkeye Convenience Stores / 16th Av,250 16th AVE SW,CEDAR RAPIDS,52404,"250 16th AVE SW
CEDAR RAPIDS 52404
(41.961698010000077, -91.667849918999991)",57
4778,Casey's General Store #3030 / Storm,825 FUNDT DR,STORM LAKE,50588,"825 FUNDT DR
STORM LAKE 50588
(42.645387969000069, -95.195278521999967)",11
4502,Neighborhood Mart / Waterloo,"2100, LAFAYETTE ST",WATERLOO,50703,"2100, LAFAYETTE ST
WATERLOO 50703
(42.490125446000036, -92.31445998099997)",7
4604,Pit Stop Liquors / Newton,"1324, 1st AVE E",NEWTON,50208,"1324, 1st AVE E
NEWTON 50208
(41.699218583000061, -93.036010579999981)",50
4882,Casey's General Store #3026 / St Cha,"209, E MAIN ST",ST CHARLES,50240,"209, E MAIN ST
ST CHARLES 50240
(41.288457771000026, -93.803721795999991)",61
5101,New Star  /  Fletcher Ave,315 FLETCHER AVE,WATERLOO,50701,"315 FLETCHER AVE
WATERLOO 50701
(42.488963596000076, -92.367098108999983)",7
2669,Hy-Vee / Corydon,"103, E JACKSON ST",CORYDON,50060,"103, E JACKSON ST
CORYDON 50060
(40.758414106000032, -93.317878943999972)",93
2670,Hy-Vee Food Store / Coralville,2004 8TH  ST,CORALVILLE,52241,"2004 8TH ST
CORALVILLE 52241
(41.682346433000077, -91.591982236999968)",52
4073,"Uptown Liquor, Llc",306 HWY 69 SOUTH,FOREST CITY,50436,"306 HWY 69 SOUTH
FOREST CITY 50436
(43.261930452000058, -93.633173252999939)",95
4452,Select Mart    Gordon Dr,2825 GORDON DR,SIOUX CITY,51105,"2825 GORDON DR
SIOUX CITY 51105
(42.489806332000057, -96.372571461999939)",97
4481,THE LIQUOR HOUSE,"425, GILBERT ST",IOWA CITY,52240,"425, GILBERT ST
IOWA CITY 52240
(41.656200446000071, -91.530307800999935)",52
4640,Mart Stop #1 / Davenport,"3527, SPRING ST",DAVENPORT,52807,"3527, SPRING ST
DAVENPORT 52807
(41.556549962000076, -90.547674132999987)",82
4670,Guppy's On The Go / Tripoli,"600, 7TH AVE SW",TRIPOLI,50676,"600, 7TH AVE SW
TRIPOLI 50676
(42.802376320000064, -92.264480701999958)",9
4905,South Side Grocery,"319, COURT ST",ROCKWELL CITY,50579,"319, COURT ST
ROCKWELL CITY 50579
(42.394572262000054, -94.632090278999954)",13
5010,Sac City Food Pride,"106, S 16TH ST",SAC CITY,50583,"106, S 16TH ST
SAC CITY 50583
(42.422469005000039, -95.002667567999936)",81
5050,Fareway Stores #147 / Carlisle,"1115, BLUESTEM DR",CARLISLE,50047,"1115, BLUESTEM DR
CARLISLE 50047
(41.497957584000062, -93.499381122999978)",91
5051,Oasis,630 SW  9TH ST,DES MOINES,50309,"630 SW 9TH ST
DES MOINES 50309
(41.575688211000056, -93.624773582999978)",77
5096,Walgreens #11710 / North Liberty,625 PACHA PARKWAY,NORTH LIBERTY,52317,"625 PACHA PARKWAY
NORTH LIBERTY 52317
(41.752901088000044, -91.606277740999985)",52
3891,"Wild Rose Emmetsburg, Llc",777 MAIN ST,EMMETSBURG,50536,"777 MAIN ST
EMMETSBURG 50536
(43.112056666000058, -94.660860451999952)",74
4559,Osage Payless Foods,"633, CHASE ST",OSAGE,50461,"633, CHASE ST
OSAGE 50461
(43.28512709000006, -92.811670528999969)",66
4831,L & M Gas & Grocery / Boone,"320, W MAMIE EISENHOWER AVE",BOONE,50036,"320, W MAMIE EISENHOWER AVE
BOONE 50036
(42.059292823000078, -93.896880323999937)",8
4929,Casey's General Store #1680 / Adel,"816, GREENE ST",ADEL,50003,"816, GREENE ST
ADEL 50003
(41.614408337000043, -94.018440293999959)",25
5080,C's Liquor Store,719 2ND AVE W,SPENCER,51301,"719 2ND AVE W
SPENCER 51301
(43.145338022000033, -95.147798614999942)",21
5092,Kum & Go #2035 / West Des Moines,7265 VISTA DR,WEST DES MOINES,50265,"7265 VISTA DR
WEST DES MOINES 50265
(41.589134599000033, -93.807153372999949)",77
5099,Casey's General Store #2164 / Ankeny,3505 N  ANKENY BLVD,ANKENY,50023,"3505 N ANKENY BLVD
ANKENY 50023
(41.750071861000038, -93.60017073299997)",77
2475,"Private Cellar, Inc.",206 2ND AVE NE,WEST BEND,50597,"206 2ND AVE NE
WEST BEND 50597
(42.963128851000079, -94.442962807999947)",55
2662,Hy-Vee Wine & Spirits / Muscatine,"522 MULBERRY, SUITE A",MUSCATINE,52761,"522 MULBERRY, SUITE A
MUSCATINE 52761
(41.426588705000029, -91.044362903999968)",70
4482,Indy 66 West #929 / Indianola,"2001, WEST 2ND AVE",INDIANOLA,50125,"2001, WEST 2ND AVE
INDIANOLA 50125
(41.356142804000058, -93.587430433999941)",91
4495,Casey's General Store #3055 / Grundy,"504, G AVE",GRUNDY CENTER,50638,"504, G AVE
GRUNDY CENTER 50638
(42.36145222600004, -92.770421144999943)",38
4845,3rd St Convenience,"216, 3RD ST SE",CEDAR RAPIDS,52401,"216, 3RD ST SE
CEDAR RAPIDS 52401
(41.977902549000078, -91.666047750999951)",57
4970,Jeff's Market / West Liberty,"200, E 3RD ST",WEST LIBERTY,52776,"200, E 3RD ST
WEST LIBERTY 52776
(41.569942934000039, -91.261531153999954)",70
5040,Wilton Express,1300 NICOLAUS ST,WILTON,52778,"1300 NICOLAUS ST
WILTON 52778
(41.589953460000061, -91.034831228999963)",70
5062,Casey's General Store #2318 / Montro,"111, MAIN ST",MONTROSE,52639,"111, MAIN ST
MONTROSE 52639
(40.532305873000041, -91.414950698999974)",56
5100,Sam's Food,648 N  MARQUETTE ST,DAVENPORT,52802,"648 N MARQUETTE ST
DAVENPORT 52802
(41.526520346000041, -90.590907745999971)",82
4911,Casey's General Store #1061 / Prince,"500, HWY 67 N",PRINCETON,52768,"500, HWY 67 N
PRINCETON 52768
(41.673743459000036, -90.340984897999988)",82
4780,Casey's General Store #3043 / Britt,"576, N MAIN AVE",BRITT,50423,"576, N MAIN AVE
BRITT 50423
(43.091034234000062, -93.802248142999986)",41
4817,Casey's General Store #3217 / Knoxvi,"1201, E MAIN ST",KNOXVILLE,50138,"1201, E MAIN ST
KNOXVILLE 50138
(41.319008143000076, -93.08647648699997)",63
5028,Midtown Liquor,"1100, E 5TH ST",STORM LAKE,50588,"1100, E 5TH ST
STORM LAKE 50588
(42.644502188000047, -95.187030353999944)",11
5059,Casey's General Store #1125 / Humest,"207, FRONT ST",HUMESTON,50123,"207, FRONT ST
HUMESTON 50123
(40.860839699000053, -93.499485480999965)",93
4608,Casey's General Store #3050 / Counci,"510, 23rd AVE",COUNCIL BLUFFS,51503,"510, 23rd AVE
COUNCIL BLUFFS 51503
(41.239355934000059, -95.852670734999947)",78
4779,Casey's General Store #25 / Mount Ay,"300, W SOUTH ST",MOUNT AYR,50854,"300, W SOUTH ST
MOUNT AYR 50854
(40.71093847700007, -94.24013794199999)",80
4473,Casey's General Store #92 / Panora,"113, NE 3RD ST",PANORA,50216,"113, NE 3RD ST
PANORA 50216
(41.69184729300008, -94.361290174999965)",39
4813,USA Food and Gas / Grand Mound,"2293, HWY 30",GRAND MOUND,52751,"2293, HWY 30
GRAND MOUND 52751
(41.828332909000039, -90.64683267099997)",23
4177,"Good Luck, Inc.",806 W MAIN ST,LE GRAND,50142,"806 W MAIN ST
LE GRAND 50142
(42.006698071000073, -92.784550423999974)",64
5058,Kum & Go # 542 / Urbandale,11989 Hickman Rd,Urbandale,50323,"11989 Hickman Rd
Urbandale 50323
(41.614979323000057, -93.775550764999991)",77
5072,Pep Stop,"901, E WASHINGTON ST",MOUNT PLEASANT,52641,"901, E WASHINGTON ST
MOUNT PLEASANT 52641
(40.96427826200005, -91.541147315999979)",44
9013,Iowa Distilling Company,4349 Cumming Ave.,Cumming,50061,"4349 Cumming Ave.
Cumming 50061
(41.483227966000072, -93.762440147999939)",91
4781,Casey's General Store #3079 / Early,"2245, US HWY 71",EARLY,50535,"2245, US HWY 71
EARLY 50535
(42.467220174000033, -95.148038288999942)",81
4844,Iowa City Fast Break,"2580, NAPLES AVE",IOWA CITY,52240,"2580, NAPLES AVE
IOWA CITY 52240
(41.632911678000028, -91.570996023999953)",52
4811,Casey's General Store #1327 / Lovili,"1807, HWY 5 S",LOVILIA,50150,"1807, HWY 5 S
LOVILIA 50150
(41.135271698000054, -92.906543897999939)",68
4843,Stewart Road Fast Break,"2418, STEWART RD",MUSCATINE,52761,"2418, STEWART RD
MUSCATINE 52761
(41.390702041000054, -91.072873812999944)",70
5044,Casey's General Store #3202 / Cresce,"111, MORMON BRIDGE RD",CRESCENT,51526,"111, MORMON BRIDGE RD
CRESCENT 51526
(41.362283314000081, -95.859130985999968)",78
5088,Kum & Go #768 / Hospers,"107, IA HIGHWAY 60",HOSPERS,51238,"107, IA HIGHWAY 60
HOSPERS 51238
(43.077361819000032, -95.89908393799999)",84
5076,Cubby's Sioux City,4200 S YORK ST,SIOUX CITY,51106,"4200 S YORK ST
SIOUX CITY 51106
(42.433987214000069, -96.371571450999966)",97
5063,Logan Convenience Store,"735, LOGAN AVE",WATERLOO,50703,"735, LOGAN AVE
WATERLOO 50703
(42.510419219000028, -92.337777347999975)",7
5065,Circle S Gordon Drive,"2520, GORDON DR",SIOUX CITY,51106,"2520, GORDON DR
SIOUX CITY 51106
(42.489801441000054, -96.376580419999982)",97
5067,One Stop Liquor,"1101, N  LAKE AVE",STORM LAKE,50588,"1101, N LAKE AVE
STORM LAKE 50588
(42.651179661000072, -95.20077361899996)",11
4992,Old 34 Gas & Grill,305 US 34 BUSINESS,DANVILLE,52623,"305 US 34 BUSINESS
DANVILLE 52623
(40.854047080000043, -91.297533954999949)",29
5047,The Fresh Market,"180, COLLINS RD NE",CEDAR RAPIDS,52402,"180, COLLINS RD NE
CEDAR RAPIDS 52402
(42.02826510500006, -91.628358931999969)",57
5053,Cork & Bottle / Iowa City,"610, EASTBURY DR",IOWA CITY,52245,"610, EASTBURY DR
IOWA CITY 52245
(41.668741881000074, -91.481106518999979)",52
5049,Gas N Go  /  Waverly,1069 230TH ST,WAVERLY,50677,"1069 230TH ST
WAVERLY 50677
(42.715107104000026, -92.54070108999997)",9
5056,Council Bluffs Sinclair,1305 N 25TH ST,COUNCIL BLUFFS,51501,"1305 N 25TH ST
COUNCIL BLUFFS 51501
(41.273680909000063, -95.881714557999942)",78
3692,Wilkie Liquors,724  1ST ST E,MT VERNON,52314,"724 1ST ST E
MT VERNON 52314
(41.918305381000039, -91.410441684999967)",57
2616,Hy-vee Food and Drug / Clin,901 SOUTH 4TH ST,CLINTON,52732,"901 SOUTH 4TH ST
CLINTON 52732
(41.836452419000068, -90.193182778999983)",23
2633,Hy-vee #3 / Bdi / Des Moines,3221 SE 14TH ST,DES MOINES,50320,"3221 SE 14TH ST
DES MOINES 50320
(41.554070252000031, -93.596763915999986)",77
2956,Dahl's / Fleur Dr,4121 FLEUR DRIVE,DES MOINES,50300,"4121 FLEUR DRIVE
DES MOINES 50300
(41.546720984000046, -93.644891730999973)",77
3437,Scott's Foods,1120 SUNSET DRIVE,NORWALK,50211,"1120 SUNSET DRIVE
NORWALK 50211
(41.480039602000033, -93.677988260999939)",91
4567,SHOP N SAVE / NW 2nd Ave,4685 NW 2nd AVE,DES MOINES,50313,"4685 NW 2nd AVE
DES MOINES 50313
(41.645890980000047, -93.619853338999974)",77
3698,Ingersoll Wine Merchants,1300  50TH ST,WEST DES MOINES,50266,"1300 50TH ST
WEST DES MOINES 50266
(41.590790016000028, -93.771157159999973)",77
3920,Smokin' Joe's #11 Tobacco and Liquor,1606 CAMANCHE AVE,CLINTON,52732,"1606 CAMANCHE AVE
CLINTON 52732
(41.828291739000065, -90.204118727999969)",23
3773,Benz Distributing,501 7TH AVE SE,CEDAR RAPIDS,52401,"501 7TH AVE SE
CEDAR RAPIDS 52401
(41.975795025000025, -91.65975629199994)",57
3829,Gary's Foods / Mt Vernon,715  1ST AVE S,MOUNT VERNON,52314,"715 1ST AVE S
MOUNT VERNON 52314
(41.916732516000025, -91.422371257999941)",57
3896,Smokin' Joe's #18 Tobacco and Liquor,1901 BROADWAY ST,IOWA CITY,52240,"1901 BROADWAY ST
IOWA CITY 52240
(41.641616015000068, -91.520280643999968)",52
3926,Liquor Downtown / Iowa City,315 S GILBERT ST,IOWA CITY,52240,"315 S GILBERT ST
IOWA CITY 52240
(41.657440301000065, -91.530317018999938)",52
4057,Tequila's Liquor Store,1434 DES MOINES ST STE 5,DES MOINES,50316,"1434 DES MOINES ST STE 5
DES MOINES 50316
(41.594748104000075, -93.597106143999952)",77
4083,Fareway Stores #909 / Ankeny,109 SE ORALABOR RD,ANKENY,50021,"109 SE ORALABOR RD
ANKENY 50021
(41.702792961000057, -93.599069631999953)",77
4138,Fareway Stores #657 / Indianola,1309 W 2ND,INDIANOLA,50125,"1309 W 2ND
INDIANOLA 50125
(41.356603717000041, -93.579197379999982)",91
4165,I-35 Spirits / Ankeny,113 SE DELAWARE AVE STE 101,ANKENY,50023,"113 SE DELAWARE AVE STE 101
ANKENY 50023
(41.731364314000075, -93.581051547999948)",77
4160,Fareway Stores #034 / Iowa City,2765 COMMERCE DR,IOWA CITY,52240,"2765 COMMERCE DR
IOWA CITY 52240
(41.629112605000046, -91.480507332999991)",52
4158,Fareway Stores #409 / Carroll,709 MONTEREY DR,CARROLL,51401,"709 MONTEREY DR
CARROLL 51401
(42.064594471000078, -94.850656245999971)",14
4214,New Star Liquor / Lafayet / Waterloo,1309 LAFAYETTE ST,WATERLOO,50703,"1309 LAFAYETTE ST
WATERLOO 50703
(42.49410636600004, -92.327274299999942)",7
4190,Fareway Stores #888 / Jefferson,1207 N ELM ST,JEFFERSON,50129,"1207 N ELM ST
JEFFERSON 50129
(42.026652136000052, -94.37762381999994)",37
4253,Fareway Stores #683 / Winterset,719 W HWY 92,WINTERSET,50273,"719 W HWY 92
WINTERSET 50273
(41.344837615000074, -94.01965792499999)",61
4265,Kwik Stop 3 / Waterloo,1104 WASHINGTON ST,WATERLOO,50702,"1104 WASHINGTON ST
WATERLOO 50702
(42.489044392000039, -92.336937334999959)",7
4320,Fareway Stores #470 / Perry,1315 WILLIS AVE,PERRY,50220,"1315 WILLIS AVE
PERRY 50220
(41.838453404000063, -94.103620422999938)",8
4447,QUIK TRIP #567 / URBANDALE,"9915, DOUGLAS AVE",URBANDALE,50322,"9915, DOUGLAS AVE
URBANDALE 50322
(41.62945828900007, -93.755390487999989)",77
4457,KUM & GO #422 / IOWA CITY,513 S RIVERSIDE DR,IOWA CITY,52240,"513 S RIVERSIDE DR
IOWA CITY 52240
(41.65313554100004, -91.540451337999968)",52
4478,U S Gas,"3000, SW 9th ST",DES MOINES,50315,"3000, SW 9th ST
DES MOINES 50315
(41.557878543000072, -93.625736889999985)",77
4504,JIFFY EXPRESS #921 / INDIANOLA,311 NORTH JEFFERSON,INDIANOLA,50125,"311 NORTH JEFFERSON
INDIANOLA 50125
(41.363160201000028, -93.55836758199996)",91
4521,Casey's General Store #1002 / Grand,504 16TH ST N,GRAND JUNCTION,50107,"504 16TH ST N
GRAND JUNCTION 50107
(42.035600756000065, -94.232047992999981)",37
4541,Casey's General Store #1045 / Delmar,502 MARKET,DELMAR,52037,"502 MARKET
DELMAR 52037
(42.00367187300003, -90.606968674999962)",23
2509,Hy-vee/drugtown #1/cedar,1520 6TH ST SW,CEDAR RAPIDS,52404,"1520 6TH ST SW
CEDAR RAPIDS 52404
(41.962322547000042, -91.677117721999991)",57
4800,Walgreens #07968 / Des Moines,6200 SE 14TH ST,DES MOINES,50320,"6200 SE 14TH ST
DES MOINES 50320
(41.528561037000031, -93.596827291999944)",77
4613,Sparky's One Stop / Carroll,402 E 6th ST,CARROLL,51401,"402 E 6th ST
CARROLL 51401
(42.064463111000066, -94.862678002999985)",14
4598,Quik Trip #501 / E Euclid DM,2221 E EUCLID AVE,DES MOINES,50317,"2221 E EUCLID AVE
DES MOINES 50317
(41.627737125000067, -93.57950036699998)",77
4609,Kum & Go #579 / Ankeny,165 SW MAGAZINE RD,ANKENY,50023,"165 SW MAGAZINE RD
ANKENY 50023
(41.717266460000076, -93.601682456999981)",77
4642,Liquor and Tobacco Outlet / Univ Ave,2844 UNIVERSITY AVE,WATERLOO,50701,"2844 UNIVERSITY AVE
WATERLOO 50701
(42.498286414000063, -92.382844871999964)",7
4665,Casey's General Store #2896 / Ankeny,2601 SE CREEKVIEW DR,ANKENY,50021,"2601 SE CREEKVIEW DR
ANKENY 50021
(41.704176851000057, -93.571122188999936)",77
4697,Southside Liquor & Tobacco / Iowa Ci,601 HOLLYWOOD BLVD,IOWA CITY,52240,"601 HOLLYWOOD BLVD
IOWA CITY 52240
(41.643813416000057, -91.527527344999953)",52
4773,Vine Stop,2704 VINE ST,WEST DES MOINES,50265,"2704 VINE ST
WEST DES MOINES 50265
(41.580254704000026, -93.741641460999972)",77
4889,Fast Trip / Des Moines,1516 SE  1st ST,DES MOINES,50315,"1516 SE 1st ST
DES MOINES 50315
(41.575814962000038, -93.613581468999939)",77
4803,Walgreens #07453 / Des Moines,104 E EUCLID AVE,DES MOINES,50313,"104 E EUCLID AVE
DES MOINES 50313
(41.627727562000075, -93.617180045999987)",77
4856,Brothers Market / Lisbon,930 COMMERCIAL ST,LISBON,52253,"930 COMMERCIAL ST
LISBON 52253
(41.918623411000056, -91.400860460999979)",57
4849,C Fresh Market,"801, UNIVERSITY AVE",DES MOINES,50314,"801, UNIVERSITY AVE
DES MOINES 50314
(41.600837914000067, -93.62848969199996)",77
4900,Kwik Stop 4 / Waterloo,515 BROADWAY ST,WATERLOO,50703,"515 BROADWAY ST
WATERLOO 50703
(42.510998817000029, -92.345138124999949)",7
4902,Broadway Liquor,821 BROADWAY ST,WATERLOO,50703,"821 BROADWAY ST
WATERLOO 50703
(42.513859933000049, -92.345177301999968)",7
4959,Bani's,2128 COLLEGE ST,CEDAR FALLS,50613,"2128 COLLEGE ST
CEDAR FALLS 50613
(42.518099177000067, -92.45575372199994)",7
4969,Lake Liquors Wine and Spirits,910 N 8TH ST W,CLEAR LAKE,50428,"910 N 8TH ST W
CLEAR LAKE 50428
(43.14276036800004, -93.396612564999941)",17
2190,"Central City Liquor, Inc.",1460 2ND AVE,DES MOINES,50314,"1460 2ND AVE
DES MOINES 50314
(41.605570335000039, -93.619826836999948)",77
2248,Ingersoll Liquor and Beverage,3500 INGERSOLL AVE,DES MOINES,50312,"3500 INGERSOLL AVE
DES MOINES 50312
(41.586306757000045, -93.664299089999986)",77
2564,Hy-vee Food Store #4/wate,4000 UNIVERSITY,WATERLOO,50701,"4000 UNIVERSITY
WATERLOO 50701
(42.505186707000064, -92.403714370999978)",7
2561,Hy-vee Food Store/fleur,4605 FLEUR DRIVE,DES MOINES,50321,"4605 FLEUR DRIVE
DES MOINES 50321
(41.543277398000043, -93.644913874999986)",77
2552,Hy-vee Food Store #3/ceda,20 WILSON AVENUE WEST,CEDAR RAPIDS,52404,"20 WILSON AVENUE WEST
CEDAR RAPIDS 52404
(41.955888205000065, -91.658209929999941)",57
2549,Hy-vee Food Store/indiano,910 N JEFFERSON,INDIANOLA,50125,"910 N JEFFERSON
INDIANOLA 50125
(41.368640453000069, -93.558323794999978)",91
3987,Wine and Spirits Shoppe Of,111 S PHILLIPS ST,ALGONA,50511,"111 S PHILLIPS ST
ALGONA 50511
(43.069309316000044, -94.226898444999961)",55
4005,Lansing Liquor and More,417 MAIN ST,LANSING,52151,"417 MAIN ST
LANSING 52151
(43.361781486000041, -91.219220517999986)",3
3723,J D Spirits Liquor,1023  9TH ST,ONAWA,51040,"1023 9TH ST
ONAWA 51040
(42.025860518000059, -96.095853457999965)",67
3990,Cork and Bottle / Oskaloosa,309 A AVE WEST,OSKALOOSA,52577,"309 A AVE WEST
OSKALOOSA 52577
(41.296257566000065, -92.648150216999966)",62
4404,KUM & GO #292 / ANKENY,1825 N ANKENY BLVD,ANKENY,50021,"1825 N ANKENY BLVD
ANKENY 50021
(41.746673994000048, -93.600196389999951)",77
4012,Fast Mart,1401 BUCHANAN ST,DES MOINES,50316,"1401 BUCHANAN ST
DES MOINES 50316
(41.598422443000061, -93.60120144199999)",77
4008,Sioux Valley Spirits,116 E MAIN ST,ANTHON,51004,"116 E MAIN ST
ANTHON 51004
(42.388232408000079, -95.867320252999946)",97
4011,Jim and Charlies Affiliated,121 NORTH CLINTON,ALBIA,52531,"121 NORTH CLINTON
ALBIA 52531
(41.028960449000067, -92.808426855999983)",68
4023,Wal-Mart 1389 / Boone,1515 SE MARSHALL ST,BOONE,50036,"1515 SE MARSHALL ST
BOONE 50036
(42.035117950000028, -93.870260309999935)",8
4129,Cyclone Liquors,626 LINCOLN WAY,AMES,50010,"626 LINCOLN WAY
AMES 50010
(42.022782773000074, -93.602920557999937)",85
4180,Smokin' Joe's #10 Tobacco and Liquor,480 7TH AVE,MARION,52302,"480 7TH AVE
MARION 52302
(42.033307715000035, -91.605310975999942)",57
4210,Sichanh Liquor Store,812 FLINDT DR,STORM LAKE,50588,"812 FLINDT DR
STORM LAKE 50588
(42.645774307000067, -95.189255409999987)",11
4295,Nat Food Mart #1 / Hubbel,3804 HUBBELL,DES MOINES,50317,"3804 HUBBELL
DES MOINES 50317
(41.630856007000034, -93.54142442999995)",77
4268,Fareway Stores #531 / Algona,1905 HIGHWAY 18 E,ALGONA,50511,"1905 HIGHWAY 18 E
ALGONA 50511
(43.082827653000038, -94.214091078999957)",55
4300,Fareway Stores #625 / Oskaloosa,311  3RD AVE W,OSKALOOSA,52577,"311 3RD AVE W
OSKALOOSA 52577
(41.292638249000049, -92.647890952999944)",62
4403,Kum & Go #4098 / Windsor Heights,7229 Universty Ave,Windsor Heights,50311,"7229 Universty Ave
Windsor Heights 50311
(41.600372120000031, -93.716587705999984)",77
4326,Stratford Food Center,829 SHAKESPEARE AVE,STRATFORD,50249,"829 SHAKESPEARE AVE
STRATFORD 50249
(42.270687052000028, -93.927162369999962)",40
4366,Kum and Go #137 / Tiffin,101 VILLAGE DR,TIFFIN,52340,"101 VILLAGE DR
TIFFIN 52340
(41.697276929000054, -91.664376293999965)",52
4408,KUM & GO #2217 / BOONE,315 STORY ST,BOONE,50036,"315 STORY ST
BOONE 50036
(42.058790428000066, -93.88003742099994)",8
4554,Kum & Go #229 / Sioux City,1821 HAMILTON BLVD,SIOUX CITY,51103,"1821 HAMILTON BLVD
SIOUX CITY 51103
(42.510247529000026, -96.416857277999952)",97
4428,Kum & Go #200 / Ames,4510 MORTENSEN RD,AMES,50014,"4510 MORTENSEN RD
AMES 50014
(42.012063096000077, -93.679162436999945)",85
4439,CENTER POINT FOODS,800 FORD LANE,CENTER POINT,52213,"800 FORD LANE
CENTER POINT 52213
(42.177692084000057, -91.77609066399998)",57
4437,Kum & Go #215  Ames,4506 LINCOLN WAY,AMES,50010,"4506 LINCOLN WAY
AMES 50010
(42.022932739000055, -93.678895218999969)",85
4453,SID'S GAS and GROCERIES,"1116, HWY 69 SOUTH",FOREST CITY,50436,"1116, HWY 69 SOUTH
FOREST CITY 50436
(43.274391281000078, -93.636548750999964)",95
4548,Casey's General Store #2594 / Walker,401 GRANT ST,WALKER,52352,"401 GRANT ST
WALKER 52352
(42.283881767000025, -91.781970757999943)",57
4529,Casey's General Store #3262 / Buffal,101 1st ST NE,BUFFALO CENTER,50424,"101 1st ST NE
BUFFALO CENTER 50424
(43.385887222000065, -93.945060683999941)",95
4583,Kum & Go #5100 / Manson,208 MAIN ST,MANSON,50563,"208 MAIN ST
MANSON 50563
(42.517850285000065, -94.53456805999997)",13
4618,Hawkeye Convenience Stores East,1581 1st AVE SE,CEDAR RAPIDS,52403,"1581 1st AVE SE
CEDAR RAPIDS 52403
(41.989467586000046, -91.649908879999941)",57
4762,Huber's Store Inc.,"101, MAIN ST",FORT ATKINSON,52144,"101, MAIN ST
FORT ATKINSON 52144
(43.143415653000034, -91.93268433999998)",96
4861,The Station / Cedar Rapids,"3645, STONE CREEK CIRCLE SW",CEDAR RAPIDS,52404,"3645, STONE CREEK CIRCLE SW
CEDAR RAPIDS 52404
(41.946559010000044, -91.695068096999989)",57
4846,Casey's General Store #2697 / Onawa,"706, 10TH ST",ONAWA,51040,"706, 10TH ST
ONAWA 51040
(42.030400508000071, -96.097237347999965)",67
4841,Cozy Mart,"2920, W LOCUST ST",DAVENPORT,52804,"2920, W LOCUST ST
DAVENPORT 52804
(41.538197570000079, -90.619951008999976)",82
4847,Slagle Foods LeClaire,1301 EAGLE RIDGE RD,LECLAIRE,52753,"1301 EAGLE RIDGE RD
LECLAIRE 52753
(41.587367739000058, -90.359822236999946)",82
4862,Pronto Market / Kingsley,101 MAIN ST,KINGSLEY,51028,"101 MAIN ST
KINGSLEY 51028
(42.586991888000057, -95.967291011999976)",75
4901,Fareway Stores #137 / Polk City,1101 S 5TH ST,POLK CITY,50226,"1101 S 5TH ST
POLK CITY 50226
(41.763889247000066, -93.719273366999971)",77
9010,Broadbent Distillery,6175 50TH AVE,NORWALK,50211,"6175 50TH AVE
NORWALK 50211
(41.436484502000042, -93.712224858999946)",91
4965,Pronto,6087 HWY 110 S,STORM LAKE,50588,"6087 HWY 110 S
STORM LAKE 50588
(42.634231900000032, -95.239573251999957)",11
2560,Hy-vee Food Store/marion,3600 BUSINESS HWY 151 EAST,MARION,52302,"3600 BUSINESS HWY 151 EAST
MARION 52302
(42.040537134000033, -91.587246784999991)",57
2413,Beecher Beverage,1691 ASBURY ROAD,DUBUQUE,52001,"1691 ASBURY ROAD
DUBUQUE 52001
(42.50079106000004, -90.696941880999987)",31
2523,Hy-vee Food Store / Centerville,414 N 18TH ST,CENTERVILLE,52544,"414 N 18TH ST
CENTERVILLE 52544
(40.73515915400003, -92.867975239999964)",4
2508,Hy-vee Food Store #1/ceda,"1843 JOHNSON AVENUE, N.W.",CEDAR RAPIDS,52405,"1843 JOHNSON AVENUE, N.W.
CEDAR RAPIDS 52405
(41.974462988000028, -91.698380777999944)",57
2623,Hy-vee Food Store #4 / Sioux City,2827 HAMILTON BLVD,SIOUX CITY,51104,"2827 HAMILTON BLVD
SIOUX CITY 51104
(42.51978381400005, -96.41783671799999)",97
2958,Dahl's / E 33rd,3400 E 33 ST,DES MOINES,50317,"3400 E 33 ST
DES MOINES 50317
(41.626627547000055, -93.551564668999958)",77
3417,Big G Food Store,PO BOX 261  310 W DILLON,MARENGO,52301,"PO BOX 261 310 W DILLON
MARENGO 52301
(41.793206386000065, -92.076277153999968)",48
3635,Clark's Food Mart / Ogden,302 WEST WALNUT ST,OGDEN,50212,"302 WEST WALNUT ST
OGDEN 50212
(42.039012663000051, -94.03094024699999)",8
3584,L and M Beverage,1011 S FREDERICK M/A PO BX 572,OELWEIN,50662,"1011 S FREDERICK M/A PO BX 572
OELWEIN 50662
(42.663707539000029, -91.913530071999958)",33
3632,Wal-Mart 2004 / Dubuque,4200 DODGE ST,DUBUQUE,52003,"4200 DODGE ST
DUBUQUE 52003
(42.489005527000074, -90.736967026999992)",31
3650,"Spirits, Stogies and Stuff",118 South Main St.,HOLSTEIN,51025,"118 South Main St.
HOLSTEIN 51025
(42.48868948900008, -95.544722826999987)",47
3648,Fairbank Food Center,102  4TH ST NORTH BOX 434,FAIRBANK,50629,"102 4TH ST NORTH BOX 434
FAIRBANK 50629
(42.639630341000043, -92.047378132999938)",10
3682,Jumbo's,110 E MAIN ST,WESLEY,50483,"110 E MAIN ST
WESLEY 50483
(43.088293915000065, -93.991450842999939)",55
3717,The Liquor Stop / Sumner,201 W 1st ST,SUMNER,50674,"201 W 1st ST
SUMNER 50674
(42.847431691000054, -92.099340281999957)",9
3726,Wal-Mart 1285 / Ottumwa,1940 VENTURE DR,OTTUMWA,52501,"1940 VENTURE DR
OTTUMWA 52501
(41.014593799000068, -92.456483115999958)",90
3735,C B Liquor,1202 A AVE EAST,OSKALOOSA,52577,"1202 A AVE EAST
OSKALOOSA 52577
(41.296242586000062, -92.631542378999939)",10
3731,Wal-Mart 1241 / Davenport,5811 ELMORE AVE,DAVENPORT,52807,"5811 ELMORE AVE
DAVENPORT 52807
(41.581880573000035, -90.529014080999957)",82
3738,Hartig Drug Company #4 / Dubuque,2225 CENTRAL AVE,DUBUQUE,52001,"2225 CENTRAL AVE
DUBUQUE 52001
(42.514091541000028, -90.671698833999983)",31
3789,Wal-Mart 1393 / Oskaloosa,2203 A AVENUE WEST,OSKALOOSA,52577,"2203 A AVENUE WEST
OSKALOOSA 52577
(41.296208018000073, -92.66992027699996)",62
3853,Ram Liquor Mart,3108 WEST CENTRAL PARK AVE #2,DAVENPORT,52804,"3108 WEST CENTRAL PARK AVE #2
DAVENPORT 52804
(41.545447727000067, -90.620160724999948)",82
3858,Harolds Jack N Jill / Davenport,6723 NW BLVD UNIT 2,DAVENPORT,52806,"6723 NW BLVD UNIT 2
DAVENPORT 52806
(41.589401517000056, -90.609814385999982)",82
3870,Target Store T-1939 / Altoona,3414 8TH ST SW,ALTOONA,50009,"3414 8TH ST SW
ALTOONA 50009
(41.644046990000049, -93.503333803999965)",77
3879,Target Store T-1800 / Sioux City,5775 SUNNYBROOK DR,SIOUX CITY,51106,"5775 SUNNYBROOK DR
SIOUX CITY 51106
(42.45158993900003, -96.332530936999945)",97
3916,Smokin' Joe's #5 Tobacco and Liquor,1115 ALBIA RD,OTTUMWA,52501,"1115 ALBIA RD
OTTUMWA 52501
(41.009377420000078, -92.437235400999953)",90
3968,Monroe Liquor,105 W SHERMAN PO BX 1023,MONROE,50170,"105 W SHERMAN PO BX 1023
MONROE 50170
(41.517307853000034, -93.103507791999959)",50
2353,Cresco Liquor Store,708 2ND AVE SE,CRESCO,52136,"708 2ND AVE SE
CRESCO 52136
(43.371136862000071, -92.106470600999955)",45
3994,Great Spirits Wine And Li,72 NORTH HWY 71,ARNOLDS PARK,51331,"72 NORTH HWY 71
ARNOLDS PARK 51331
(43.368798586000025, -95.12750850499998)",30
3778,Family Pantry,4538 LOWER BEAVER RD,DES MOINES,50310,"4538 LOWER BEAVER RD
DES MOINES 50310
(41.638669630000038, -93.665897367999946)",77
3761,Cheese's Food Center,200 N WALNUT ST,LENOX,50851,"200 N WALNUT ST
LENOX 50851
(40.882723933000079, -94.560401166999952)",87
3766,Kolby's Liquor Store,419 W MILWAUKEE,NEW HAMPTON,50659,"419 W MILWAUKEE
NEW HAMPTON 50659
(43.066776600000026, -92.322999333999974)",19
4071,Kellogg Country Store,103 BLAIR ST,KELLOG,50136,"103 BLAIR ST
KELLOG 50136
(41.714407192000067, -92.903035693999982)",50
3881,7 Rayos Liquor Store,120 E MAIN ST,MARSHALLTOWN,50158,"120 E MAIN ST
MARSHALLTOWN 50158
(42.04916772200005, -92.910410709999951)",64
3888,Wal-Mart 0647 / Grinnell,415 INDUSTRIAL AVE,GRINNELL,50112,"415 INDUSTRIAL AVE
GRINNELL 50112
(41.720937943000081, -92.730380503999982)",79
4099,Chubbys Liquor,68 MONROE PO BOX 249,FLOYD,50435,"68 MONROE PO BOX 249
FLOYD 50435
(43.122497905000046, -92.736994118999974)",34
4093,Hiway 20 Liquors / Ft Dod,1724  5TH AVE SOUTH,FORT DODGE,50501,"1724 5TH AVE SOUTH
FORT DODGE 50501
(42.501106478000054, -94.173900394999976)",94
4084,Fareway Stores #061 / Ankeny,3205 NORTH ANKENY BLVD,ANKENY,50023,"3205 NORTH ANKENY BLVD
ANKENY 50023
(41.749385189000066, -93.600168118999989)",77
4234,Fareway Stores #788 / Spencer,104 E EIGHTH ST,SPENCER,51301,"104 E EIGHTH ST
SPENCER 51301
(43.145762062000074, -95.142699767999943)",21
4248,Fareway Stores #021 / Sheldon,2603 PARK ST,SHELDON,51201,"2603 PARK ST
SHELDON 51201
(43.186080656000058, -95.820877646999975)",71
4340,Dahl's Foods / Ames,3121 GRAND AVE,AMES,50010,"3121 GRAND AVE
AMES 50010
(42.05345882000006, -93.620687590999978)",85
4297,Discount Liquor / Cedar Rapids,2933  1ST AVE SE,CEDAR RAPIDS,52402,"2933 1ST AVE SE
CEDAR RAPIDS 52402
(42.007051822000051, -91.634813999999949)",57
4393,KUM & GO #206 / CLIVE,1725 NW 86TH ST,CLIVE,50325,"1725 NW 86TH ST
CLIVE 50325
(41.607251514000041, -93.736293720999981)",77
4272,Fareway Stores #407 / Esterville,1108 CENTRAL AVE,ESTHERVILLE,51334,"1108 CENTRAL AVE
ESTHERVILLE 51334
(43.402007682000033, -94.830353362999972)",32
4322,Hometown Foods / Baxter,103 N MAIN ST,BAXTER,50028,"103 N MAIN ST
BAXTER 50028
(41.826119379000033, -93.151373578999937)",50
4360,Kum and Go #333 / Newton,405 1ST AVE E,NEWTON,50208,"405 1ST AVE E
NEWTON 50208
(41.699545473000057, -93.049595008999972)",50
4373,Kum and Go #74 / West Des M,141 S JORDAN CREEK PKWY,WEST DES MOINES,50266,"141 S JORDAN CREEK PKWY
WEST DES MOINES 50266
(41.566735942000037, -93.809175535999941)",77
4379,Kum and Go #2091 / Ashworth,5969 ASHWORTH RD,WEST DES MOINES,50266,"5969 ASHWORTH RD
WEST DES MOINES 50266
(41.584400684000059, -93.789975058999971)",77
4384,Kum and Go #2093 / Adel,409 NILE KINNICK DR,ADEL,50003,"409 NILE KINNICK DR
ADEL 50003
(41.614180185000066, -94.017473529999961)",25
4517,Casey's General Store #2767 / Cedar,3434 1ST AVE NE,CEDAR RAPIDS,52402,"3434 1ST AVE NE
CEDAR RAPIDS 52402
(42.013098997000043, -91.63502717199998)",57
4429,Kum & Go #32 / Colfax,1200 N WALNUT ST,COLFAX,50054,"1200 N WALNUT ST
COLFAX 50054
(41.686861513000053, -93.247196181999982)",50
4446,QUIK TRIP #513 / URBANDALE,4600 MERLE HAY RD,URBANDALE,50322,"4600 MERLE HAY RD
URBANDALE 50322
(41.644152187000032, -93.698073685999987)",77
4490,Casey's General Store #2766 / Cedar,380 33RD AVE SW,CEDAR RAPIDS,52404,"380 33RD AVE SW
CEDAR RAPIDS 52404
(41.94500720800005, -91.672179041999982)",57
4492,Casey's General Store #2773 / Cedar,3625 EDGEWOOD RD SW,CEDAR RAPIDS,52404,"3625 EDGEWOOD RD SW
CEDAR RAPIDS 52404
(41.94231086800005, -91.715954227999987)",57
4531,Casey's General Store #2626 / Afton,501 N DOUGLAS ST,AFTON,50830,"501 N DOUGLAS ST
AFTON 50830
(41.03114269100007, -94.197564485999976)",88
4576,THE BOONEDOCKS,228 N HWY 71,ARNOLDS PARK,51331,"228 N HWY 71
ARNOLDS PARK 51331
(43.371144678000064, -95.125732897999967)",30
4556,Casey's General Store #2552 / Goldfi,319 E HWY 3,GOLDFIELD,50542,"319 E HWY 3
GOLDFIELD 50542
(42.731561688000056, -93.917060235999941)",99
4569,Car-Go-Express / Sutherland,202 WEST SOUTHERN ST,SUTHERLAND,51058,"202 WEST SOUTHERN ST
SUTHERLAND 51058
(42.96806076300004, -95.498511701999973)",71
4700,J & C Grocery / Allison,"306, N MAIN",ALLISON,50602,"306, N MAIN
ALLISON 50602
(42.75329948500007, -92.795073061999972)",12
4636,Kwik Shop #561 / Cedar Rapids,2904 CENTER POINT RD NE,CEDAR RAPIDS,52402,"2904 CENTER POINT RD NE
CEDAR RAPIDS 52402
(42.007182030000081, -91.662813295999968)",57
4651,Casey's General Store #2300 / Jewell,"301, MAIN ST",JEWELL,50130,"301, MAIN ST
JEWELL 50130
(42.302739980000069, -93.640035428999965)",40
4661,Quik Trip #531 / Grimes,"1900, SE 37th ST",GRIMES,50111,"1900, SE 37th ST
GRIMES 50111
(41.658493487000044, -93.773370692999947)",77
4675,Kum & Go #113 / Ames,2801 E 13TH ST,AMES,50010,"2801 E 13TH ST
AMES 50010
(42.034538352000027, -93.57572094599999)",85
4679,Walgreens #12393 / Cedar Rapids,5750 C AVE NE,CEDAR RAPIDS,52402,"5750 C AVE NE
CEDAR RAPIDS 52402
(42.036000598000044, -91.638473646999955)",57
4708,No Frills Supermarkets #803 / Glenwo,423 SHARP ST,GLENWOOD,51534,"423 SHARP ST
GLENWOOD 51534
(41.046282701000052, -95.742990197999973)",65
4702,Walgreens #05361 / Fort Dodge,2503 5th AVE S,FORT DODGE,50501,"2503 5th AVE S
FORT DODGE 50501
(42.501172158000031, -94.162439799999959)",94
4757,EZ Mart / Bondurant,1111 SE LINCOLN ST,BONDURANT,50035,"1111 SE LINCOLN ST
BONDURANT 50035
(41.692717979000065, -93.457410032999974)",77
4754,Walgreens #12148 / Waverly,320 W BREMER AVE,WAVERLY,50677,"320 W BREMER AVE
WAVERLY 50677
(42.725772875000075, -92.474775042999966)",9
4764,New Star / Fort Dodge,1923 5TH AVE S,FORT DODGE,50501,"1923 5TH AVE S
FORT DODGE 50501
(42.501071909000075, -94.171140679999951)",94
4805,Liquor Tobacco & Grocery / Fort Dodg,902 1ST AVE N,FORT DODGE,50501,"902 1ST AVE N
FORT DODGE 50501
(42.506317096000032, -94.186134170999992)",94
4812,Liquor Beer & Tobacco Outlet / Charl,1908 CLARK ST,CHARLES CITY,50616,"1908 CLARK ST
CHARLES CITY 50616
(43.059103556000025, -92.661903851999966)",34
4820,Lil' Chubs Corner Stop,712 S OAK ST,INWOOD,51240,"712 S OAK ST
INWOOD 51240
(43.302139379000039, -96.430812562999961)",60
4865,Rolfe Area Market,412 GARFIELD ST,ROLFE,50581,"412 GARFIELD ST
ROLFE 50581
(42.814378487000056, -94.527907870999968)",76
4878,Shortee's Pit Stop,"215, S RERICK AVE",PRIMGHAR,51245,"215, S RERICK AVE
PRIMGHAR 51245
(43.086165712000025, -95.624271839999949)",71
4895,Big Discount Liquor,5427 CENTER POINT RD NE,CEDAR RAPIDS,52402,"5427 CENTER POINT RD NE
CEDAR RAPIDS 52402
(42.03341948700006, -91.668117248999977)",57
4904,Larchwood Quick Stop,832 BROADWAY ST,LARCHWOOD,51241,"832 BROADWAY ST
LARCHWOOD 51241
(43.453558265000026, -96.434089467999968)",60
2228,Rodgers Spirits and More,53 GREEN ST,WINTERSET,50273,"53 GREEN ST
WINTERSET 50273
(41.336418044000027, -94.014310515999966)",61
2205,Ding's Honk And Holler,900 E WASHINGTON,CLARINDA,51632,"900 E WASHINGTON
CLARINDA 51632
(40.739251978000027, -95.02742809199998)",73
2367,Spencer's Grocery,101 SOUTH BURNETT,SHENANDOAH,51601,"101 SOUTH BURNETT
SHENANDOAH 51601
(40.765802103000055, -95.381872838999982)",73
2522,Hy-vee Wine and Spirits / S,HWY 9 & 71,SPIRIT LAKE,51360,"HWY 9 &amp; 71
SPIRIT LAKE 51360
(43.430311949000043, -94.993766446999985)",30
2532,Hy-vee Food Store #2/des,2540 E EUCLID,DES MOINES,50317,"2540 E EUCLID
DES MOINES 50317
(41.627778263000039, -93.568530706999979)",77
2661,Hy-Vee Food Store / Sheldon,1989 PARK ST,SHELDON,51201,"1989 PARK ST
SHELDON 51201
(43.186058514000081, -95.831460334999974)",71
2657,Hy-vee Food Store / Bedford,1604 BENT,BEDFORD,50833,"1604 BENT
BEDFORD 50833
(40.672664076000046, -94.725603360999969)",87
2848,CVS Pharmacy #10114 / Ankeny,104 E FIRST ST,ANKENY,50023,"104 E FIRST ST
ANKENY 50023
(41.731969627000069, -93.600173136999956)",77
2964,Dahl's / Ankeny,1802 N ANKENY BLVD,ANKENY,50023,"1802 N ANKENY BLVD
ANKENY 50023
(41.747351699000035, -93.600437390999957)",77
3420,Sam's Club 6344 / Windsor Heights,1101  73RD STREET,WINDSOR HEIGHTS,50311,"1101 73RD STREET
WINDSOR HEIGHTS 50311
(41.597748839000076, -93.718363184999987)",77
3676,T and M Foods,107 E TRAER,GREENE,50636,"107 E TRAER
GREENE 50636
(42.895924319000073, -92.801816214999974)",12
3624,Wal-Mart 0748 / Newton,300 IOWA SPEEDWAY DR,NEWTON,50208,"300 IOWA SPEEDWAY DR
NEWTON 50208
(41.696951137000042, -93.014451018999978)",50
3622,Wal-Mart 1415 / Spirit Lake,2600 HWY 71,SPIRIT LAKE,51360,"2600 HWY 71
SPIRIT LAKE 51360
(43.415692726000032, -95.126458432999982)",30
3656,Target Store T-1767 / Ankeny,2135 SE DELAWARE AVE,ANKENY,50021,"2135 SE DELAWARE AVE
ANKENY 50021
(41.708469101000048, -93.581043335999937)",77
3695,Mrs. B's Liquor,623 S MARION ST,REMSEN,51050,"623 S MARION ST
REMSEN 51050
(42.809837634000075, -95.976972653999951)",75
3704,Celtics Beverage Company,1122 BROADWAY,EMMETSBURG,50536,"1122 BROADWAY
EMMETSBURG 50536
(43.10936954500005, -94.678842961999976)",74
4114,After 5 Somewhere,704 W 7TH ST PO BOX 372,ATLANTIC,50022,"704 W 7TH ST PO BOX 372
ATLANTIC 50022
(41.404098387000033, -95.02333510699998)",15
4153,Fareway Stores #067 / Evansdale,215 S EVANS RD,EVANSDALE,50707,"215 S EVANS RD
EVANSDALE 50707
(42.475840394000045, -92.287793667999949)",7
4276,Wj's Liquor,107 N MILL ST,LAKE MILLS,50450,"107 N MILL ST
LAKE MILLS 50450
(43.419681343000036, -93.535038483999983)",95
4306,Northside One Stop / Hampton,1208  4TH ST NE,HAMPTON,50441,"1208 4TH ST NE
HAMPTON 50441
(42.753029851000065, -93.202478428999939)",35
4307,Crossroads Wine and Liquor,117 IOWA AVE,DUNLAP,712-2,"117 IOWA AVE
DUNLAP 712-2
(41.637522592000039, -85.923739203999958)",43
4351,Kum & Go #301 / Clear Lake,2325 7th Ave North N,CLEAR LAKE,50248,"2325 7th Ave North N
CLEAR LAKE 50248
(43.144957384000065, -93.361874958999977)",17
4376,Kum and Go #6 / Mason City,1920 S FEDERAL AVE,MASON CITY,50401,"1920 S FEDERAL AVE
MASON CITY 50401
(43.133189515000026, -93.201148695999962)",17
4417,KUM & GO #76 / ADAIR,109 S 5TH ST,ADAIR,50002,"109 S 5TH ST
ADAIR 50002
(41.49807185700007, -94.643468852999945)",1
4455,Kum & Go #1959 / Eldora,2359 EDGINGTON AVE,ELDORA,50627,"2359 EDGINGTON AVE
ELDORA 50627
(42.360541924000074, -93.113780383999938)",42
4491,Casey's General Store #2772 / Cedar,3349 MT VERNON RD SE,CEDAR RAPIDS,52403,"3349 MT VERNON RD SE
CEDAR RAPIDS 52403
(41.976822861000073, -91.619050784999956)",57
4501,Kum & Go #134 / Fairfield,1601 W BURLINGTON AVE,FAIRFIELD,52556,"1601 W BURLINGTON AVE
FAIRFIELD 52556
(41.006489281000029, -91.982978534999972)",51
4523,Casey's General Store #2563 / Exira,312 W WASHINGTON ST,EXIRA,50076,"312 W WASHINGTON ST
EXIRA 50076
(41.591157594000038, -94.879700661999948)",5
4553,Casey's General Store #1892 / Sheffi,702 E GILMAN ST,SHEFFIELD,50475,"702 E GILMAN ST
SHEFFIELD 50475
(42.893171517000042, -93.203200909999964)",35
4594,Quik Trip #554 / SW 63rd DM,901 SW 63rd ST,DES MOINES,50312,"901 SW 63rd ST
DES MOINES 50312
(41.569891081000037, -93.703083806999985)",77
4605,Kum & Go #509 / Marion,1203 BLAIRS FERRY RD,MARION,52302,"1203 BLAIRS FERRY RD
MARION 52302
(42.032343256000047, -91.624684289999948)",57
4620,Nodaway Valley Market,304 4th ST,FONTANELLE,50846,"304 4th ST
FONTANELLE 50846
(41.290992004000032, -94.562651570999947)",1
4668,Clear Lake Payless Foods,"20, SOUTH 4TH ST",CLEAR LAKE,50428,"20, SOUTH 4TH ST
CLEAR LAKE 50428
(43.135782149000079, -93.380160284999988)",17
4621,Casey's General Store #23 / Maxwell,"100, MAIN ST",MAXWELL,50161,"100, MAIN ST
MAXWELL 50161
(41.887850573000037, -93.399707593999949)",85
4630,EZ Stop / Davenport,2923 BRADY ST,DAVENPORT,52803,"2923 BRADY ST
DAVENPORT 52803
(41.549947387000032, -90.570558448999975)",82
4652,Brady Mart Food & Liquor,"3107, BRADY ST",DAVENPORT,52803,"3107, BRADY ST
DAVENPORT 52803
(41.552238124000041, -90.569648146999953)",82
4657,Casey's General Store #2526 / Wellsb,308 N WASHINGTON,WELLSBURG,50680,"308 N WASHINGTON
WELLSBURG 50680
(42.436500341000055, -92.925223292999988)",38
4691,Railroad Street Tobacco and Spirits,701 RAILROAD ST,IOWA FALLS,50126,"701 RAILROAD ST
IOWA FALLS 50126
(42.518671862000076, -93.265780182999947)",42
4692,Walgreens #05886 / Keokuk,1215 MAIN ST,KEOKUK,52632,"1215 MAIN ST
KEOKUK 52632
(40.401412793000077, -91.389119861999973)",56
4739,Walgreens #05306 / Council Bluffs,301 W BENNETT AVE,COUNCIL BLUFFS,51503,"301 W BENNETT AVE
COUNCIL BLUFFS 51503
(41.244733285000052, -95.828188762999957)",78
4741,Walgreens #03700 / Council Bluffs,535 E BROADWAY,COUNCIL BLUFFS,51503,"535 E BROADWAY
COUNCIL BLUFFS 51503
(41.266088524000054, -95.839718494999943)",78
4743,No Frills Supermarkets #791 / Counci,1801 VALLEY VIEW DR,COUNCIL BLUFFS,51503,"1801 VALLEY VIEW DR
COUNCIL BLUFFS 51503
(41.245862974000033, -95.817779272999985)",78
4772,Kum & Go #97 / West Des Moines,196 S 50TH ST,WEST DES MOINES,50265,"196 S 50TH ST
WEST DES MOINES 50265
(41.571102129000053, -93.77093707399996)",77
4760,Walgreens #07455 / Waterloo,111 W RIDGEWAY AVE,WATERLOO,50701,"111 W RIDGEWAY AVE
WATERLOO 50701
(42.469381855000051, -92.357480214999953)",7
4892,Sara Mini Mart,1026 W RIVER DR,DAVENPORT,52802,"1026 W RIVER DR
DAVENPORT 52802
(41.520187405000058, -90.588375030999941)",82
4874,Z's Quickbreak,"201, E WASHINGTON ST",MOUNT PLEASANT,52641,"201, E WASHINGTON ST
MOUNT PLEASANT 52641
(40.965308402000062, -91.551588140999968)",44
4885,SNK Gas & Food LLC,"18820, BELLEVUE CASCADE RD",ZWINGLE,52079,"18820, BELLEVUE CASCADE RD
ZWINGLE 52079
(42.240442304000055, -90.680616404999967)",49
4876,Quick Mart / Hiawatha,"655, ROBBINS RD",HIAWATHA,52233,"655, ROBBINS RD
HIAWATHA 52233
(42.044226043000037, -91.68022990299994)",57
4949,River Drive Smoke Shop,"828, W RIVER DR",DAVENPORT,52802,"828, W RIVER DR
DAVENPORT 52802
(41.520287653000025, -90.585490869999944)",82
2460,"Liquor Barn, Inc.",721 CENTRAL AVENUE WEST,HAMPTON,50441,"721 CENTRAL AVENUE WEST
HAMPTON 50441
(42.741766296000037, -93.216930347999948)",35
2507,Hy-vee Food Store #1/burl,939 ANGULAR,BURLINGTON,52601,"939 ANGULAR
BURLINGTON 52601
(40.801833028000033, -91.110965945999965)",29
2521,Hy-vee Food and Drug / Gran,1990 GRAND AVENUE,WEST DES MOINES,50265,"1990 GRAND AVENUE
WEST DES MOINES 50265
(41.571454727000059, -93.73139076199999)",77
2555,Hy-vee Food Store/keokuk,3111 MAIN,KEOKUK,52632,"3111 MAIN
KEOKUK 52632
(40.415092683000069, -91.403379349999966)",56
2648,Hy-vee #4 / Wdm,555 S 51ST ST,WEST DES MOINES,50265,"555 S 51ST ST
WEST DES MOINES 50265
(41.560375538000073, -93.772927064999976)",77
2650,Hy-vee Wine and Spirits / H,1808 23RD ST,HARLAN,51537,"1808 23RD ST
HARLAN 51537
(41.650563483000042, -95.339854033999984)",83
2841,Cvs Pharmacy #8532 / Cedar Rapids,2711 MT VERNON RD,CEDAR RAPIDS,52403,"2711 MT VERNON RD
CEDAR RAPIDS 52403
(41.976903521000054, -91.627260791999959)",57
2960,Dahl's / Wdm,1208 PROSPECT,WEST DES MOINES,50265,"1208 PROSPECT
WEST DES MOINES 50265
(41.580946457000039, -93.719998987999986)",77
3352,Cork 'n' Bottle,900 EAST MAIN ST.,MANCHESTER,52057,"900 EAST MAIN ST.
MANCHESTER 52057
(42.484096493000038, -91.444909890999952)",28
3494,Sam's Club 6514 / Waterloo,210 EAST TOWER PARK DR,WATERLOO,50702,"210 EAST TOWER PARK DR
WATERLOO 50702
(42.456342190000044, -92.353463882999961)",7
3488,Bender's Foods,400 S SECOND,BELLEVUE,52031,"400 S SECOND
BELLEVUE 52031
(42.255435385000055, -90.423003001999973)",49
3525,Wines and Spirits,106 W 2ND ST,WASHINGTON,52353,"106 W 2ND ST
WASHINGTON 52353
(41.300438045000078, -91.692220679999991)",92
3612,B and C Liquor / Maquoketa,509 E PLATT,MAQUOKETA,52060,"509 E PLATT
MAQUOKETA 52060
(42.069193228000074, -90.659690904999991)",49
3611,Logan Super Foods,403 E 6TH,LOGAN,51546,"403 E 6TH
LOGAN 51546
(41.644087659000036, -95.786070557999949)",43
3628,Wal-Mart 1528 / Cedar Rapids,2645 BLAIRS FERRY RD NE,CEDAR RAPIDS,52402,"2645 BLAIRS FERRY RD NE
CEDAR RAPIDS 52402
(42.034703129000036, -91.681911213999967)",57
3679,FRANKLIN STREET FLORAL & GIFT,103 FRANKLIN ST,MONONA,52159,"103 FRANKLIN ST
MONONA 52159
(43.055096079000066, -91.390040157999977)",22
3664,Shade Tree Liquors,90 10th ST S,NORTHWOOD,50459,"90 10th ST S
NORTHWOOD 50459
(43.443225246000054, -93.218301077999968)",98
3700,Avoca Liquor,158 SOUTH ELM,AVOCA,51521,"158 SOUTH ELM
AVOCA 51521
(41.476280859000042, -95.339466866999942)",78
3728,Brewski's Beverage,726 CREEK TOP,COUNCIL BLUFFS,51503,"726 CREEK TOP
COUNCIL BLUFFS 51503
(41.262337846000037, -95.854790340999955)",78
3710,New York Dollar Store,219 MAIN ST,COLUMBUS JUNCTION,52738,"219 MAIN ST
COLUMBUS JUNCTION 52738
(41.279550632000053, -91.360484506999967)",58
3784,Hartig Drug #14 / Independence,200  1ST ST EAST,INDEPENDENCE,50644,"200 1ST ST EAST
INDEPENDENCE 50644
(42.46872735900007, -91.895760891999942)",10
3811,Wal-Mart 1431 / Keokuk,300 NORTH PARK DR,KEOKUK,52632,"300 NORTH PARK DR
KEOKUK 52632
(40.417110401000059, -91.407841461999965)",56
3910,Riverside Casino And Resort,3184 HIGHWAY 22,RIVERSIDE,52327,"3184 HIGHWAY 22
RIVERSIDE 52327
(41.496358040000075, -91.527957421999986)",92
3969,"R 'n D's Liquor, Llc",205 NE 6TH ST,GREENFIELD,50849,"205 NE 6TH ST
GREENFIELD 50849
(41.306212838000079, -94.453242068999941)",1
3972,Hometown Foods / Hubbard,210 MAPLE ST BOX 295,HUBBARD,50122,"210 MAPLE ST BOX 295
HUBBARD 50122
(42.305596517000026, -93.302480358999958)",42
4369,Kum and Go #28 / Norwalk,2992 SUNSET DR,NORWALK,50211,"2992 SUNSET DR
NORWALK 50211
(41.496859470000061, -93.674029359999963)",91
4380,Kum and Go #254 / West Bran,620 S DOWNEY ST,WEST BRANCH,52358,"620 S DOWNEY ST
WEST BRANCH 52358
(41.661509008000053, -91.346787332999952)",16
4470,Kum & Go #211 / WATERLOO,1976 FRANKLIN ST,WATERLOO,50703,"1976 FRANKLIN ST
WATERLOO 50703
(42.495351982000045, -92.315141923999988)",7
4768,Kum & Go #777 / Urbandale,8228 DOUGLAS AVE,URBANDALE,50322,"8228 DOUGLAS AVE
URBANDALE 50322
(41.628649960000075, -93.730988137999987)",77
4653,Casey's General Store #1617 / Jeffer,"508, N ELM",JEFFERSON,50129,"508, N ELM
JEFFERSON 50129
(42.020230469000069, -94.377477479999982)",37
4728,Walgreens #05077 / Iowa City,2214 MUSCATINE AVE,IOWA CITY,52240,"2214 MUSCATINE AVE
IOWA CITY 52240
(41.64957828200005, -91.503149669999971)",52
4896,Barrys Mini Mart,"403, CHESTNUT ST",HARPERS FERRY,52146,"403, CHESTNUT ST
HARPERS FERRY 52146
(43.200594544000069, -91.152716572999964)",3
4956,The Cooler,"4920, JOHNSON AVE NW",CEDAR RAPIDS,52405,"4920, JOHNSON AVE NW
CEDAR RAPIDS 52405
(41.968047083000044, -91.734390736999956)",57
3461,Hometown Foods / Stuart,611 S DIVISION ST,STUART,50250,"611 S DIVISION ST
STUART 50250
(41.497812777000036, -94.318394857999976)",1
2517,Hy-vee Food Store #1/newt,1501 FIRST AVENUE EAST,NEWTON,50208,"1501 FIRST AVENUE EAST
NEWTON 50208
(41.699152903000027, -93.03364148899999)",50
4258,Fareway Stores #009 / Burlington,920 LAWRENCE DR,BURLINGTON,52601,"920 LAWRENCE DR
BURLINGTON 52601
(40.799149364000073, -91.139994228999967)",29
2601,Hy-vee Food Store / Fairfield,1300 WEST BURLINGTON AVE,FAIRFIELD,52556,"1300 WEST BURLINGTON AVE
FAIRFIELD 52556
(41.006435350000061, -91.979625432999967)",51
3962,Durant Street Country Stop,618 DURANT ST,HARLAN,51537,"618 DURANT ST
HARLAN 51537
(41.656818069000053, -95.318600195999977)",83
4401,KUM & GO #503 / MARION,3215 7TH AVE,MARION,52302,"3215 7TH AVE
MARION 52302
(42.035045356000069, -91.57726443699994)",57
4749,Walgreens #05239 / Davenport,1660 W LOCUST ST,DAVENPORT,52804,"1660 W LOCUST ST
DAVENPORT 52804
(41.538257488000056, -90.600510862999954)",82
4425,Quik Trip #575 / Council Bluffs,1749 W BROADWAY ST,COUNCIL BLUFFS,51501,"1749 W BROADWAY ST
COUNCIL BLUFFS 51501
(41.261852736000037, -95.870141038999975)",78
4785,Casey's General Store #2835 / Avoca,1019 N CHESTNUT ST,AVOCA,51521,"1019 N CHESTNUT ST
AVOCA 51521
(41.485575164000068, -95.336435213999948)",78
4950,Kum & Go #514 / Cedar Rapids,1420 MT VERNON RD,CEDAR RAPIDS,52403,"1420 MT VERNON RD
CEDAR RAPIDS 52403
(41.977647895000075, -91.651383811999949)",57
4991,Fasttrak,24687 HWY 13 N,ELKADER,52043,"24687 HWY 13 N
ELKADER 52043
(42.871466205000047, -91.383472815999937)",22
2837,Cvs Pharmacy #8544 / Waterloo,1825 E San Marnan,WATERLOO,50702,"1825 E San Marnan
WATERLOO 50702
(42.467094575000033, -92.321386139999959)",7
2550,Hy-vee Food Store/osceola,510 WEST MCLANE,OSCEOLA,50213,"510 WEST MCLANE
OSCEOLA 50213
(41.030601258000047, -93.772367245999988)",20
4092,Fareway Stores #077 / Norwalk,1711 SUNSET DR,NORWALK,50211,"1711 SUNSET DR
NORWALK 50211
(41.484389466000039, -93.674667384999964)",91
2844,Cvs Pharmacy #8547/iowa C,2425 MUSCATINE AVE,IOWA CITY,52240,"2425 MUSCATINE AVE
IOWA CITY 52240
(41.649542562000079, -91.500130691999971)",52
3670,Wal-Mart 2827 / Coralville,2801 COMMERCE DR,CORALVILLE,52241,"2801 COMMERCE DR
CORALVILLE 52241
(41.695717951000063, -91.612172813999962)",52
4140,Fareway Stores #900 / Euclid,100 EUCLID AVE,DES MOINES,50313,"100 EUCLID AVE
DES MOINES 50313
(41.627727562000075, -93.61816063699996)",77
4544,Casey's General Store #1898 / Osceol,114 N MAIN ST,OSCEOLA,50213,"114 N MAIN ST
OSCEOLA 50213
(41.035780805000059, -93.765706866999949)",20
4119,Target Store T-2526 / Cedar Falls,214 VIKING PLAZA DR,CEDAR FALLS,50613,"214 VIKING PLAZA DR
CEDAR FALLS 50613
(42.48333253100003, -92.444300040999963)",7
3696,Wal-Mart 1723 / Des Moines,5101 SE 14TH ST,DES MOINES,50315,"5101 SE 14TH ST
DES MOINES 50315
(41.538090853000028, -93.635374637999973)",77
3964,Sioux Food Center of Sioux Rapids,621 HWY 71,SIOUX RAPIDS,50585,"621 HWY 71
SIOUX RAPIDS 50585
(42.888852765000081, -95.152643959999978)",11
3973,Mmdg Spirits / Ames,126A WELCH AVE,AMES,50014,"126A WELCH AVE
AMES 50014
(42.022380929000064, -93.650090425999963)",85
4107,Fareway Stores #384 / Boone,1711 HAWKEYE DR,BOONE,50036,"1711 HAWKEYE DR
BOONE 50036
(42.037338397000042, -93.867290878999938)",8
4135,Fareway Stores #925 / Altoona,620 SE 8TH ST,ALTOONA,50009,"620 SE 8TH ST
ALTOONA 50009
(41.644025327000065, -93.470789692999972)",77
4271,Fareway Stores #827 / Centerville,305 S 18TH ST,CENTERVILLE,52544,"305 S 18TH ST
CENTERVILLE 52544
(40.730567111000028, -92.867881888999989)",4
4299,Hometown Market / Central City,9 WATERHOUSE AVE,CENTRAL CITY,52214,"9 WATERHOUSE AVE
CENTRAL CITY 52214
(42.197939303000055, -91.514976308999962)",57
4703,Walgreens #00910 / Sioux City,100 PIERCE ST,SIOUX CITY,51101,"100 PIERCE ST
SIOUX CITY 51101
(42.49079931700004, -96.404843587999949)",97
4907,Prime Mart,2323 MAIN ST,CEDAR FALLS,50613,"2323 MAIN ST
CEDAR FALLS 50613
(42.516279725000061, -92.445898255999964)",7
4975,Walgreens #15647 / Sioux City,1900 HAMILTON BLVD,SIOUX CITY,51104,"1900 HAMILTON BLVD
SIOUX CITY 51104
(42.51065102900003, -96.416645727999992)",97
2543,Hy-vee Food Store #1/ottu,1025 NORTH QUINCY AVE,OTTUWMA,52501,"1025 NORTH QUINCY AVE
OTTUWMA 52501
(41.015810609000027, -92.438486778999959)",90
4986,218 Fuel Express & Chubby's Liquor,68 MONROE ST,FLOYD,50435,"68 MONROE ST
FLOYD 50435
(43.122497905000046, -92.736994118999974)",34
3742,Wal-Mart 1625 / Lemars,1111 HOLTON DR,LEMARS,51031,"1111 HOLTON DR
LEMARS 51031
(42.780880502000059, -96.185344272999941)",75
3901,Target Store T-878 / Fort Dodge,2910  1 AVE S,FORT DODGE,50501,"2910 1 AVE S
FORT DODGE 50501
(42.50533650400007, -94.157001029999947)",94
3989,Liquor On The Corner / Gr,300 E MAIN ST,CHEROKEE,51012,"300 E MAIN ST
CHEROKEE 51012
(42.749608394000063, -95.546522032999974)",18
4185,Fareway Stores #737 / Grinnell,727 WEST ST,GRINNELL,50112,"727 WEST ST
GRINNELL 50112
(41.740940403000025, -92.727386875999969)",79
4137,Fareway Stores #989 / Waukee,200 SE LAUREL ST,WAUKEE,50263,"200 SE LAUREL ST
WAUKEE 50263
(41.613572932000068, -93.877501248999977)",25
4343,Best Food Mart / Des Moines,4028 NE 14TH ST,DES MOINES,50313,"4028 NE 14TH ST
DES MOINES 50313
(41.634320919000061, -93.636957810999945)",77
4291,Fareway Stores #597 / Creston,105 E ADAMS ST,CRESTON,50801,"105 E ADAMS ST
CRESTON 50801
(41.057339943000045, -94.36131056499994)",88
4319,Fareway Stores #703 / Humbolt,710 FIRST AVE N,HUMBOLDT,50548,"710 FIRST AVE N
HUMBOLDT 50548
(42.722101455000029, -94.218710330999954)",46
4398,KUM & GO #4786 / BELMOND,112 RIVER AVE S,BELMOND,50421,"112 RIVER AVE S
BELMOND 50421
(42.845711608000045, -93.616833531999987)",99
2537,Hy-vee Drugstore / Fort Dodge,215 S 25TH ST,FORT DODGE,50501,"215 S 25TH ST
FORT DODGE 50501
(42.508855573000062, -94.164801977999957)",94
2553,Hy-vee Food Store/creston,600 SHELDON,CRESTON,50801,"600 SHELDON
CRESTON 50801
(41.05197099600008, -94.371748733999937)",88
4497,Casey's General Store #20 / Alden,"1008, Grand",ALDEN,50006,"1008, Grand
ALDEN 50006
(42.514236729000061, -93.380399959999977)",42
4574,ThuLords,413 BROAD ST,WHITTEMORE,50598,"413 BROAD ST
WHITTEMORE 50598
(43.063542145000042, -94.42297532799995)",55
4016,Hometown Foods / Conrad,119 N MAIN ST PO BOX 296,CONRAD,50621,"119 N MAIN ST PO BOX 296
CONRAD 50621
(42.224270019000073, -92.874585648999982)",38
4440,Kum & Go #219  Council Bluffs,154 BENNETT AVE,COUNCIL BLUFFS,51503,"154 BENNETT AVE
COUNCIL BLUFFS 51503
(41.252799258000039, -95.820477692999987)",78
4477,Bucky's Express #17 / Council Bluffs,1759 MADISON AVE,COUNCIL BLUFFS,51503,"1759 MADISON AVE
COUNCIL BLUFFS 51503
(41.242586584000037, -95.824790683999936)",78
4580,Smokin' Joe's #9 Tobacco and Liquor,304 W. MADISON,WASHINGTON,52353,"304 W. MADISON
WASHINGTON 52353
(41.296498393000036, -91.69466005999999)",92
4908,Zapf's Pronto Market,107 1st ST SW,ELKADER,52043,"107 1st ST SW
ELKADER 52043
(42.85350191100008, -91.404868097999952)",22
4204,Fareway Stores #025 / Clinton,1350 11TH ST NW,CLINTON,52733,"1350 11TH ST NW
CLINTON 52733
(41.860539807000066, -90.211398590999977)",23
4887,Kum & Go #66 / West Des Moines,5308 UNIVERSITY AVE,WEST DES MOINES,50266,"5308 UNIVERSITY AVE
WEST DES MOINES 50266
(41.600433463000059, -93.779270375999943)",77
2609,Hy-vee Drugstore #2 / Ames,500 MAIN ST,AMES,50010,"500 MAIN ST
AMES 50010
(42.025013591000061, -93.617329841999947)",85
4007,Brockmans,109 E MAIN ST,OSSIAN,52161,"109 E MAIN ST
OSSIAN 52161
(43.145515473000046, -91.764310886999965)",96
4420,KUM & GO #38 / OTTUMWA,534 CHURCH ST,OTTUMWA,52501,"534 CHURCH ST
OTTUMWA 52501
(41.008635350000077, -92.419565158999944)",90
4585,Casey's General Store #2561 / Farley,"306, 1st ST SW",FARLEY,52046,"306, 1st ST SW
FARLEY 52046
(42.440038998000034, -91.006198177999977)",31
4586,Kum & Go #545 / Rockwell City,730 HIGH ST,ROCKWELL CITY,50579,"730 HIGH ST
ROCKWELL CITY 50579
(42.398836857000049, -94.638831127999936)",13
4884,Tobacco Hut #11 / Sioux City,"4523, MORNINGSIDE AVE",SIOUX CITY,51106,"4523, MORNINGSIDE AVE
SIOUX CITY 51106
(42.470506482000076, -96.348719397999957)",97
4143,Bucky's,603  E HWY 24,LAWLER,52154,"603 E HWY 24
LAWLER 52154
(43.082731353000042, -92.110389422999958)",19
3534,A. V. Liquor,207 S HILLTOP AVE,ALTA VISTA,50603,"207 S HILLTOP AVE
ALTA VISTA 50603
(43.19635990900008, -92.411897875999955)",19
4325,Villisca Foods Inc.,509 S 3RD AVE,VILLISCA,50864,"509 S 3RD AVE
VILLISCA 50864
(40.927072234000036, -94.977264362999961)",69
4488,Casey's General Store #2762 / Cedar,20 MILLER AVE SW,CEDAR RAPIDS,52404,"20 MILLER AVE SW
CEDAR RAPIDS 52404
(41.924508114000048, -91.657320367999944)",57
4522,Casey's General Store #2523 / Monroe,201 RALPH ST,MONROE,50170,"201 RALPH ST
MONROE 50170
(41.508908017000067, -93.099814526999978)",50
4542,Casey's General Store #2994 / Lauren,520 W MAIN ST,LAURENS,50554,"520 W MAIN ST
LAURENS 50554
(42.846796783000059, -94.855573032999985)",76
4533,Casey's General Store #1985 / St. An,110 N HWY 218,ST ANSGAR,50472,"110 N HWY 218
ST ANSGAR 50472
(43.37844251100006, -92.889393280999968)",66
4792,Casey's General Store #2899 / De Sot,1100 GREENE ST,DE SOTO,50069,"1100 GREENE ST
DE SOTO 50069
(41.529516692000072, -94.01236815499999)",25
4852,Kum & Go #520 / Cedar Rapids,2604 16th AVE,CEDAR RAPIDS,52404,"2604 16th AVE
CEDAR RAPIDS 52404
(41.963087662000078, -91.707319027999972)",57
4418,KUM & GO #46 / WALNUT,1709 ANTIQUE CITY DR,WALNUT,51577,"1709 ANTIQUE CITY DR
WALNUT 51577
(41.494100897000067, -95.222083918999942)",78
4625,Kwik Shop #532 / Council Bluffs,1602 AVENUE G,COUNCIL BLUFFS,51501,"1602 AVENUE G
COUNCIL BLUFFS 51501
(41.268048555000064, -95.867850302999955)",78
4635,Kwik Shop #563 / Cedar Rapids,"1001, 1st AVE SW",CEDAR RAPIDS,52405,"1001, 1st AVE SW
CEDAR RAPIDS 52405
(41.972444190000033, -91.684700888999942)",57
4658,Casey's General Store #3027 / Iowa F,904 WASHINGTON AVE,IOWA FALLS,50126,"904 WASHINGTON AVE
IOWA FALLS 50126
(42.519657063000068, -93.268420060999972)",42
4770,Casey's General Store #3080 / Hudson,"354, E ELDORA RD",HUDSON,50643,"354, E ELDORA RD
HUDSON 50643
(42.409714398000062, -92.449175344999958)",7
4980,Pronto BP,7305 LAPORTE RD,WASHBURN,50702,"7305 LAPORTE RD
WASHBURN 50702
(42.43437096200006, -92.289341039999954)",7
4116,Lake View Foods,223 MAIN ST,LAKE VIEW,51450,"223 MAIN ST
LAKE VIEW 51450
(42.305194379000056, -95.051715802999979)",81
4506,Casey's General Store #2667 / Tiffin,403 STEPHENS ST,TIFFIN,52340,"403 STEPHENS ST
TIFFIN 52340
(41.707073688000037, -91.660257534999971)",52
4751,Walgreens #03595 / Davenport,1720 W KIMBERLY RD,DAVENPORT,52806,"1720 W KIMBERLY RD
DAVENPORT 52806
(41.560118579000061, -90.601310546999969)",82
4458,QUIK TRIP #568 / JOHNSTON,5169 MERLE HAY RD,JOHNSTON,50131,"5169 MERLE HAY RD
JOHNSTON 50131
(41.654202389000034, -93.697504458999958)",77
4507,Casey's General Store #2902 / Spence,411 W 18TH,SPENCER,51301,"411 W 18TH
SPENCER 51301
(43.155616376000069, -95.151000805999956)",21
4515,Casey's General Store #1588 / Dows,2721 DOWS WILLIAMS RD,DOWS,50071,"2721 DOWS WILLIAMS RD
DOWS 50071
(42.65668872100008, -93.509028026999943)",99
3688,Fredericksburg Food Center,100 W MAIN ST,FREDERICKSBURG,50630,"100 W MAIN ST
FREDERICKSBURG 50630
(42.965081969000039, -92.199580732999948)",19
4858,Hwy 34 Truckstop,4305 W MT PLEASANT,WEST BURLINGTON,52655,"4305 W MT PLEASANT
WEST BURLINGTON 52655
(40.826542559000075, -91.207830211999976)",29
4503,Casey's General Store #38 / Treynor,102 W MAIN ST,TREYNOR,51575,"102 W MAIN ST
TREYNOR 51575
(41.232413088000044, -95.608719406999967)",78
4664,Casey's General Store #24 / Boone,1127 STORY,BOONE,50036,"1127 STORY
BOONE 50036
(42.067729830000076, -93.88012729899998)",8
4270,Kum and Go Liquors #37 / Ot,2508 N COURT ST,OTTUMWA,52501,"2508 N COURT ST
OTTUMWA 52501
(41.051730690000056, -92.409045978999984)",90
4985,Casey's General Store #2519 / Merril,101 FIRST ST,MERRILL,51038,"101 FIRST ST
MERRILL 51038
(42.715191382000057, -96.249015221999969)",75
4486,Kum & Go #608 / Okoboji,1001 SANBORN AVE,OKOBOJI,51355,"1001 SANBORN AVE
OKOBOJI 51355
(43.382151524000051, -95.129180044999941)",30
4790,Mediapolis Fast Break,"109, WAPELLO ST",MEDIAPOLIS,52405,"109, WAPELLO ST
MEDIAPOLIS 52405
(41.980106797000076, -91.713147664999951)",29
4855,Casey's General Store #3200 / Strawb,"308, W MISSION",STRAWBERRY POINT,52076,"308, W MISSION
STRAWBERRY POINT 52076
(42.684481758000061, -91.539885566999942)",22
4121,Newport Bp / Wapello,13410 STATE HWY 78,WAPELLO,52653,"13410 STATE HWY 78
WAPELLO 52653
(41.087828222000041, -91.184540291999951)",58
4796,Walgreens #04714 / Des Moines,4555 FLEUR DR,DES MOINES,50321,"4555 FLEUR DR
DES MOINES 50321
(41.542920773000048, -93.644914316999973)",77
4632,Nat Food Mart / 2nd Ave DM,1443 2nd AVE,DES MOINES,50314,"1443 2nd AVE
DES MOINES 50314
(41.605430909000063, -93.619754242999988)",77
4500,Casey's General Store #2788 / North,595 N KANSAS AVE,NORTH LIBERTY,52317,"595 N KANSAS AVE
NORTH LIBERTY 52317
(41.75210140400003, -91.63698720299999)",52
4906,smoke.n.pipe,3221 FIRST AVE SE,CEDAR RAPIDS,52404,"3221 FIRST AVE SE
CEDAR RAPIDS 52404
(42.010085445000072, -91.63486999099996)",57
4246,Fareway Stores #938 / Shenandoah,1007 S FREMONT ST,SHENANDOAH,51601,"1007 S FREMONT ST
SHENANDOAH 51601
(40.756332444000066, -95.385092303999954)",73
4480,Circle K #6602 / Clinton,1530 NORTH 2ND ST,CLINTON,52732,"1530 NORTH 2ND ST
CLINTON 52732
(41.861475508000069, -90.183928886999979)",23
4707,Walgreens #05119 / Clinton,806 S  4TH ST,CLINTON,52732,"806 S 4TH ST
CLINTON 52732
(41.837683967000032, -90.193255431999944)",23
4162,Fareway Stores #963 / Cedar Rapids,4220  16TH AVE SW,CEDAR RAPIDS,52404,"4220 16TH AVE SW
CEDAR RAPIDS 52404
(41.963788249000061, -91.726730367999949)",57
4672,The Pit Stop/River City Liquor,"402, S HWY 52",GUTTENBERG,52052,"402, S HWY 52
GUTTENBERG 52052
(42.782790221000027, -91.100534652999954)",22
4983,River Mart,"14562, WASHINGTON RD",WEST BURLINGTON,52655,"14562, WASHINGTON RD
WEST BURLINGTON 52655
(40.839537994000068, -91.209635836999951)",29
4875,Bani's,307 MAIN ST,CEDAR FALLS,50613,"307 MAIN ST
CEDAR FALLS 50613
(42.53561962200007, -92.445485738999992)",7
4979,Sam Liquor,1500 1st AVE NE,CEDAR RAPIDS,52402,"1500 1st AVE NE
CEDAR RAPIDS 52402
(41.988245430000063, -91.652154688999985)",57
4711,Walgreens #06154 / Dubuque,2260 JOHN F KENNEDY RD,DUBUQUE,52002,"2260 JOHN F KENNEDY RD
DUBUQUE 52002
(42.511330247000046, -90.720447791999959)",31
4816,Casey's General Store #3232 / Shenan,1303 W SHERIDAN AVE,SHENANDOAH,51601,"1303 W SHERIDAN AVE
SHENANDOAH 51601
(40.765899384000079, -95.383723387999964)",73
4532,Casey's General Store #2274 / Sioux,720 HWY 71,SIOUX RAPIDS,50585,"720 HWY 71
SIOUX RAPIDS 50585
(42.887366322000048, -95.152996557999984)",11
4948,Wheatland Day Break,"102, W HWY 30",WHEATLAND,52777,"102, W HWY 30
WHEATLAND 52777
(41.829544992000081, -90.842375886999946)",23
4737,Walgreens #11330 / Storm Lake,800 LAKE AVE,STORM LAKE,50588,"800 LAKE AVE
STORM LAKE 50588
(42.64708790800006, -95.200838146999956)",11
4753,Casey's General Store #2521 / Adair,110 S 5TH ST,ADAIR,50002,"110 S 5TH ST
ADAIR 50002
(41.498071787000072, -94.643396801999984)",1
4344,Spirits / Grimes,109 EAST 1ST ST STE B,GRIMES,50111,"109 EAST 1ST ST STE B
GRIMES 50111
(41.688407875000053, -93.793820238999956)",77
4434,todd's,209 S UNION ST,ROCK RAPIDS,51246,"209 S UNION ST
ROCK RAPIDS 51246
(43.430080686000053, -96.175538353999968)",60
3871,Target Store T-0069 / Wdm,1800  35TH ST,WEST DES MOINES,50266,"1800 35TH ST
WEST DES MOINES 50266
(41.61620197600007, -93.664552821999962)",77
2591,Hy-vee Wine and Spirits / A,1602 E. 7TH ST.,ATLANTIC,50022,"1602 E. 7TH ST.
ATLANTIC 50022
(41.40389742800005, -94.990586569999948)",15
2628,Hy-vee Food Store / Eldora,1616 EDGINGTON,ELDORA,50627,"1616 EDGINGTON
ELDORA 50627
(42.360616822000054, -93.103740552999966)",42
2839,Cvs Pharmacy #8659 / Davenport,1777 DIVISION ST,DAVENPORT,52804,"1777 DIVISION ST
DAVENPORT 52804
(41.53790489000005, -90.601065110999969)",82
4000,Foodland Super Markets / Woodbine,5TH AND LINCOLN WAY,WOODBINE,51579,"5TH AND LINCOLN WAY
WOODBINE 51579
(41.737044185000059, -95.703137072999937)",43
2528,Hy-vee Food Store #3/des,3221 SE 14TH ST,DES MOINES,50315,"3221 SE 14TH ST
DES MOINES 50315
(41.554700550000064, -93.63530428599995)",77
4988,Happy's Wine & Spirits,5925 UNIVERSITY AVE,CEDAR FALLS,50613,"5925 UNIVERSITY AVE
CEDAR FALLS 50613
(42.51276180800005, -92.429380295999977)",7
4978,Prime Mart / Waterloo,3535 MARIGOLD DR,WATERLOO,50702,"3535 MARIGOLD DR
WATERLOO 50702
(42.435485180000057, -92.291255121999939)",7
2567,Hy-vee Drugstore / Davenport,2200 WEST KIMBERLY,DAVENPORT,52806,"2200 WEST KIMBERLY
DAVENPORT 52806
(41.560178498000028, -90.608939803999988)",82
2502,Hy-vee Wine and Spirits/ Ankeny,410 NORTH ANKENY BLVD,ANKENY,50021,"410 NORTH ANKENY BLVD
ANKENY 50021
(41.734592751000037, -93.600481536999951)",77
2838,Cvs Pharmacy #8658 / Davenport,1655 W KIMBERLY RD,DAVENPORT,52806,"1655 W KIMBERLY RD
DAVENPORT 52806
(41.559952650000071, -90.600070690999985)",82
4381,Kum and Go #443 / Williamsb,2177 M AVE,WILLIAMSBURG,52361,"2177 M AVE
WILLIAMSBURG 52361
(41.690296588000081, -92.162690510999937)",48
5008,Emmetsburg Food Pride,1307 S BROADWAY ST,EMMETSBURG,50536,"1307 S BROADWAY ST
EMMETSBURG 50536
(43.107612086000074, -94.678902999999991)",74
2851,CVS/Pharmacy #10282 / Fort Dodge,2029 5TH AVE SOUTH,FORT DODGE,50501,"2029 5TH AVE SOUTH
FORT DODGE 50501
(42.501093276000063, -94.170303715999978)",94
4990,Main Lil' Market,524 MAIN ST,GRISWOLD,51535,"524 MAIN ST
GRISWOLD 51535
(41.234702672000026, -95.141620079999939)",15
3805,Washington Street Mini Mart,1609 WASHINGTON ST,DAVENPORT,52084,"1609 WASHINGTON ST
DAVENPORT 52084
(41.53600153900004, -90.59623258299996)",82
4987,Almost Always Open,419 LINCOLN WAY,AMES,50010,"419 LINCOLN WAY
AMES 50010
(42.022947550000026, -93.616510569999946)",85
4996,Kwik Stop 16th St #300,1215 E 16TH ST,DUBUQUE,52001,"1215 E 16TH ST
DUBUQUE 52001
(42.511785825000061, -90.655738577999955)",32
4385,Kum and Go #43 / New Virgin,1453 CO HWY G76,NEW VIRGINIA,50210,"1453 CO HWY G76
NEW VIRGINIA 50210
(41.18392798900004, -93.702656162999972)",91
4431,Kum & Go #89 / Fort Dodge,115 N 22ND ST,FORT DODGE,50501,"115 N 22ND ST
FORT DODGE 50501
(42.507772428000067, -94.16795346899994)",94
4367,Kum and Go #109 / Mason Cit,1224 N FEDERAL AVE,MASON CITY,50401,"1224 N FEDERAL AVE
MASON CITY 50401
(43.163320532000057, -93.201127954999947)",17
3003,Super Valu/mark's,820 E. MAIN STREET,LAKE CITY,51449,"820 E. MAIN STREET
LAKE CITY 51449
(42.267440692000037, -94.724975926999946)",13
5014,New Pioneer Food Co-op / Iowa City,22 S VAN BUREN ST,IOWA CITY,52240,"22 S VAN BUREN ST
IOWA CITY 52240
(41.660291046000054, -91.528643905999957)",52
3980,Wal-Mart 1721 / Iowa City,919 HWY 1 WEST,IOWA CITY,52246,"919 HWY 1 WEST
IOWA CITY 52246
(41.646389701000032, -91.552769935999947)",52
3524,Sam's Club 6568 / Ames,305 AIRPORT RD,AMES,50010,"305 AIRPORT RD
AMES 50010
(42.001097982000033, -93.613560727999982)",85
5017,Lansing IGA,417 MAIN ST,LANSING,52151,"417 MAIN ST
LANSING 52151
(43.361781486000041, -91.219220517999986)",3
5007,Brother's Market / Denver,"1022, SKYLAR ST",DENVER,50622,"1022, SKYLAR ST
DENVER 50622
(42.671749118000037, -92.335226446999968)",9
5036,Point Liquor & Tobacco,4107 CENTER POINT RD NE,CEDAR RAPIDS,52402,"4107 CENTER POINT RD NE
CEDAR RAPIDS 52402
(42.020999041000039, -91.665283787999954)",57
3719,Wal-Mart 0581 / Marshalltown,2802 S CENTER ST,MARSHALLTOWN,50158,"2802 S CENTER ST
MARSHALLTOWN 50158
(42.01281576000008, -92.912413354999956)",64
5037,Uncorked Wine & Spirits,111 E HARRISON ST,JEFFERSON,50129,"111 E HARRISON ST
JEFFERSON 50129
(42.01427317200006, -94.374150842999939)",37
4968,Casey's General Store #3042 / Brookl,"106, W 2ND ST",BROOKLYN,52211,"106, W 2ND ST
BROOKLYN 52211
(41.73011702000008, -92.445824509999966)",79
5025,Hawkeye Convenience Stores / 1st Ave,1581 1ST AVE SE,CEDAR RAPIDS,52403,"1581 1ST AVE SE
CEDAR RAPIDS 52403
(41.989467586000046, -91.649908879999941)",57
5022,Kum & Go #97 / West Des Moines,196 S 50TH ST,WEST DES MOINES,50265,"196 S 50TH ST
WEST DES MOINES 50265
(41.571102129000053, -93.77093707399996)",77
5035,Casey's General Store #3205 / Counci,19900 VIRGINIA HILLS RD,COUNCIL BLUFFS,51503,"19900 VIRGINIA HILLS RD
COUNCIL BLUFFS 51503
(41.232023616000049, -95.805794165999941)",78
5011,Kum & Go #443 / Williamsburg,2177 M AVE,WILLIAMSBURG,52361,"2177 M AVE
WILLIAMSBURG 52361
(41.690296588000081, -92.162690510999937)",48
5021,Kum & Go #608 / Okoboji,1001 SANBORN AVE,OKOBOJI,51355,"1001 SANBORN AVE
OKOBOJI 51355
(43.382151524000051, -95.129180044999941)",30
5034,Liquor Tobacco & Groceries,"18, N MONROE AVE",MASON CITY,50401,"18, N MONROE AVE
MASON CITY 50401
(43.152189490000069, -93.208677705999946)",17
4871,Donahue's One Stop,125 W JEFFERSON AVE,HARPERS FERRY,52146,"125 W JEFFERSON AVE
HARPERS FERRY 52146
(43.203883251000036, -91.154442195999991)",3
4645,Kwik Shop #589 / Eldridge,"1, GROVE RD",ELDRIDGE,52748,"1, GROVE RD
ELDRIDGE 52748
(41.694892917000061, -90.54850262299999)",82
4958,Five Corners Liquor & Wine,"809, E 18TH ST",CEDAR FALLS,50613,"809, E 18TH ST
CEDAR FALLS 50613
(42.521362440000075, -92.437063710999951)",7
5069,Casey's General Store #1705 / Lake M,"101, N LAKE ST",LAKE MILLS,50450,"101, N LAKE ST
LAKE MILLS 50450
(43.419570724000039, -93.53253803299998)",95
5093,Cody Mart,"1220, N CODY RD",LE CLAIRE,52753,"1220, N CODY RD
LE CLAIRE 52753
(41.611276435000036, -90.344432361999964)",82
4681,Spirits & Such,"100, E ELM ST",WEST UNION,52175,"100, E ELM ST
WEST UNION 52175
(42.961262154000053, -91.807879814999978)",33
4818,Decorah Mart,"303, COLLEGE DR",DECORAH,52101,"303, COLLEGE DR
DECORAH 52101
(43.30757008300003, -91.797008035999966)",96
5003,Famous Liquors,"2604, W LOCUST ST",DAVENPORT,52804,"2604, W LOCUST ST
DAVENPORT 52804
(41.538218311000037, -90.615260069999977)",82
5009,New Pioneer Food Co-op,"1101, 2ND ST",CORALVILLE,52241,"1101, 2ND ST
CORALVILLE 52241
(41.673936368000057, -91.580476998999984)",52
5045,Central Mart / Hamilton Blvd,"800, HAMILTON BLVD",SIOUX CITY,51103,"800, HAMILTON BLVD
SIOUX CITY 51103
(42.504388176000077, -96.417375804999949)",97
3621,"Jensen Liquors, Ltd.",615  2ND AVE,SHELDON,51201,"615 2ND AVE
SHELDON 51201
(43.184541988000035, -95.854754837999963)",71
4592,Dyno's #29 / Emmetsburg,"2401, MAIN",EMMETSBURG,50536,"2401, MAIN
EMMETSBURG 50536
(43.111986377000051, -94.681910335999987)",74
4909,Pump N Pak Rock Valley,"1004, MAIN ST",ROCK VALLEY,51247,"1004, MAIN ST
ROCK VALLEY 51247
(43.200158982000062, -96.294822567999972)",84
5085,New Star Hudson Mart,230 WATERLOO RD,HUDSON,50643,"230 WATERLOO RD
HUDSON 50643
(42.408206061000044, -92.452339510999991)",7
2847,CVS Pharmacy #10032 / Marion,"3499, 7th AVE",MARION,52302,"3499, 7th AVE
MARION 52302
(42.03590265400004, -91.574728264999976)",57
4130,"Boyd Grocery, Inc.",20611 HWY 1 N,KEOSAUQUA,52565,"20611 HWY 1 N
KEOSAUQUA 52565
(40.74593578200006, -91.95803269399994)",89
4622,Quik Trip #544 / SE 14th DM,"3941, SE 14th ST",DES MOINES,50320,"3941, SE 14th ST
DES MOINES 50320
(41.548520863000078, -93.596783504999962)",77
4967,Jeff's Market / Blue Grass,"102, W MAYNE ST",BLUE GRASS,52726,"102, W MAYNE ST
BLUE GRASS 52726
(41.509148545000073, -90.766111043999956)",82
5013,State Food Mart,3715 STATE ST,BETTENDORF,52722,"3715 STATE ST
BETTENDORF 52722
(41.528904417000035, -90.482027484999946)",82
4512,Metro Mart #4 / Waterloo,"2332, FALLS AVE",WATERLOO,50701,"2332, FALLS AVE
WATERLOO 50701
(42.500216916000056, -92.376187509999966)",7
4577,Casey's General Store #2551 / Woodwa,"906, S MAIN ST",WOODWARD,50276,"906, S MAIN ST
WOODWARD 50276
(41.848830854000028, -93.922237437999968)",25
4627,Casey's General Store #1388 / Sully,"807, 1st ST",SULLY,50251,"807, 1st ST
SULLY 50251
(41.581117763000066, -92.844300845999953)",50
4650,Loofts on 9 Liquor Here or Liquor Th,"202, W 4th AVE",SWEA CITY,50590,"202, W 4th AVE
SWEA CITY 50590
(43.399746099000026, -94.309935856999971)",55
5060,L&M Mighty Shop,"504, E BURLINGTON ST",IOWA CITY,52240,"504, E BURLINGTON ST
IOWA CITY 52240
(41.657878168000025, -91.528529829999968)",52
5084,Ismoke,"3221, 1ST AVE SE",CEDAR RAPIDS,52402,"3221, 1ST AVE SE
CEDAR RAPIDS 52402
(42.010431465000067, -91.634883136999974)",57
4934,Casey's General Store #2811 / Spring,"605, 6th ST S",SPRINGVILLE,52336,"605, 6th ST S
SPRINGVILLE 52336
(42.050972196000032, -91.443848638999953)",57
5081,Casey's General Store #3035 / Atlant,701 POPLAR ST,ATLANTIC,50022,"701 POPLAR ST
ATLANTIC 50022
(41.403620272000069, -95.014487674999941)",15
5082,Casey's General Store #2365 / Atlant,911 SW 7TH ST,ATLANTIC,50022,"911 SW 7TH ST
ATLANTIC 50022
(41.401482789000056, -95.028332340999953)",15
4942,East Village Pantry,"333, E GRAND AVE",DES MOINES,50309,"333, E GRAND AVE
DES MOINES 50309
(41.590213875000074, -93.613274961999991)",77
9023,Iowa Legendary Rye,"314, Prairie View Dr.",Carroll,51401,"314, Prairie View Dr.
Carroll 51401
(42.056430555000077, -94.874717042999976)",14
5073,"Williams Boulevard Service, Inc.","2601, WILLIAMS BLVD SW",CEDAR RAPIDS,52404,"2601, WILLIAMS BLVD SW
CEDAR RAPIDS 52404
(41.964595999000039, -91.706823546999942)",57
4568,Select Mart   Floyd Blvd,4103 FLOYD BLVD,SIOUX CITY,51108,"4103 FLOYD BLVD
SIOUX CITY 51108
(42.542004416000054, -96.35855642699994)",97
5033,Kwik Stop,"4335, TEXAS ST",WATERLOO,50702,"4335, TEXAS ST
WATERLOO 50702
(42.452785540000036, -92.306860474999951)",7
5052,Casey's General Store #3220 / Greenf,"302, SE 6TH ST",GREENFIELD,50849,"302, SE 6TH ST
GREENFIELD 50849
(41.30308661600003, -94.453291755999942)",1
5089,Mos Mini Mart,"614, E ERIE ST",MISSOURI VALLEY,51555,"614, E ERIE ST
MISSOURI VALLEY 51555
(41.556373663000045, -95.886820317999991)",43
5091,Kum & Go #436 / Muscatine,501 CEDAR ST,MUSCATINE,52761,"501 CEDAR ST
MUSCATINE 52761
(41.425061932000062, -91.046057910999991)",70
5020,Petromart Stanwood,"1118, HIGHWAY 30",STANWOOD,52337,"1118, HIGHWAY 30
STANWOOD 52337
(41.888442846000032, -91.148579880999989)",16
4838,Casey's General Store #2448 / Ogden,"102, W VETERANS DR",OGDEN,50212,"102, W VETERANS DR
OGDEN 50212
(42.03195263200007, -94.028390247999937)",8
4776,The Market on 30 / Carroll,"420, WEST HWY 30",CARROLL,51401,"420, WEST HWY 30
CARROLL 51401
(42.067404887000066, -94.872833061999984)",14
5074,New Pioneer Food Co-op  / Center Poi,3338 CENTER POINT RD NE,CEDAR RAPIDS,52402,"3338 CENTER POINT RD NE
CEDAR RAPIDS 52402
(42.012392648000059, -91.664096937999943)",57
5046,West K Mart,"707, PALEAN ST",KEOKUK,52632,"707, PALEAN ST
KEOKUK 52632
(40.393692505000047, -91.391259648999949)",56
2571,Hy-vee Food Store #2/wate,2181 LOGAN AVE,WATERLOO,50703,"2181 LOGAN AVE
WATERLOO 50703
(42.530359456000042, -92.337597591999952)",7
2587,Hy-vee Food Store/johnsto,5750 MERLE HAY ROAD,JOHNSTON,50131,"5750 MERLE HAY ROAD
JOHNSTON 50131
(41.664847767000026, -93.697799030999988)",77
2622,Hy-vee Food Store / Iowa,1201 N DODGE,IOWA CITY,52240,"1201 N DODGE
IOWA CITY 52240
(41.648509012000034, -91.517948292999961)",52
2954,Dahl's / Ingersoll,3425 INGERSOLL,DES MOINES,50300,"3425 INGERSOLL
DES MOINES 50300
(41.589761958000054, -93.615646302999949)",77
2846,CVS Pharmacy #8443 / Cedar Rapids,3419 16th AVE SW,CEDAR RAPIDS,52404,"3419 16th AVE SW
CEDAR RAPIDS 52404
(41.963593513000035, -91.716590287999963)",57
3678,"Smoke Shop, The",1918 SE 14TH ST,DES MOINES,50320,"1918 SE 14TH ST
DES MOINES 50320
(41.571289880000052, -93.596947428999954)",77
3772,Shop N Save #1 / Mlk Pkwy,2127 M L KING JR PKWY,DES MOINES,50314,"2127 M L KING JR PKWY
DES MOINES 50314
(41.613649647000045, -93.64584868999998)",77
3785,Southside Tobacco and Liquor,2424 SW 9TH ST,DES MOINES,50315,"2424 SW 9TH ST
DES MOINES 50315
(41.563981625000054, -93.624521983999955)",77
3826,Terribles Lakeside Casino,777 CASINO DR,OSCEOLA,50213,"777 CASINO DR
OSCEOLA 50213
(41.039289708000069, -93.798865525999986)",20
3925,Johncy's Liquor Store Inc,585 HWY 965 S  STE E,NORTH LIBERTY,52317,"585 HWY 965 S STE E
NORTH LIBERTY 52317
(41.738120769000034, -91.60767776299997)",48
4050,Five Star Snacks and Liquor,437 SULLIVAN,WATERLOO,50701,"437 SULLIVAN
WATERLOO 50701
(42.48712929900006, -92.355883152999979)",7
4036,Five Star Snacks and More,315 FLETCHER AVE,WATERLOO,50701,"315 FLETCHER AVE
WATERLOO 50701
(42.488963596000076, -92.367098108999983)",7
4068,Sa Petro Mart,136  1ST ST,WEST DES MOINES,50265,"136 1ST ST
WEST DES MOINES 50265
(41.570610105000071, -93.703367267999965)",77
4108,Oasis Grocery and Liquor /,2917 PAYNE,DES MOINES,50310,"2917 PAYNE
DES MOINES 50310
(41.620098304000066, -93.658310744999937)",77
4132,Camanche Food Pride,908 7TH AVE,CAMANCHE,52730,"908 7TH AVE
CAMANCHE 52730
(41.788591211000039, -90.257360477999953)",23
4134,Pleasantville Grocery,105 W MONROE ST,PLEASANTVILLE,50225,"105 W MONROE ST
PLEASANTVILLE 50225
(41.386663293000026, -93.269710616999987)",63
4161,Fareway Stores #950 / Iowa City,2530 WESTWINDS DR,IOWA CITY,52246,"2530 WESTWINDS DR
IOWA CITY 52246
(41.650957564000066, -91.57518687299995)",52
4170,Dewey's Jack and Jill,115 E MAIN ST  PO BOX 359,WEST BRANCH,52358,"115 E MAIN ST PO BOX 359
WEST BRANCH 52358
(41.671438221000074, -91.345700730999965)",16
4288,Uptown Liquor and Tobacco,2000 WILEY BLVD SW STE 106,CEDAR RAPIDS,52404,"2000 WILEY BLVD SW STE 106
CEDAR RAPIDS 52404
(41.959750653000071, -91.72587767899995)",57
4349,Southside Food Mart,1101 ARMY POST RD,DES MOINES,50315,"1101 ARMY POST RD
DES MOINES 50315
(41.526263387000029, -93.603360729999963)",77
4412,Kum and  Go #267 / Tipton,2050 IA HIGHWAY 38,TIPTON,52772,"2050 IA HIGHWAY 38
TIPTON 52772
(41.649713101000032, -91.118032238999945)",16
4597,Quik Trip #523 / Army Post DM,850 ARMY POST RD,DES MOINES,50315,"850 ARMY POST RD
DES MOINES 50315
(41.526443143000051, -93.624961404999965)",77
4641,Kum & Go #573 / SE 14th DM,5830 SE 14th ST,DES MOINES,50315,"5830 SE 14th ST
DES MOINES 50315
(41.531769838000059, -93.63541982299995)",77
4677,Costco Wholesale #1111 / Coralville,2900 HEARTLAND DR,CORALVILLE,52241,"2900 HEARTLAND DR
CORALVILLE 52241
(41.69794646400004, -91.615260929999977)",52
4648,Prime Mart / Broadway Waterloo,508 BROADWAY ST,WATERLOO,50703,"508 BROADWAY ST
WATERLOO 50703
(42.51043074200004, -92.345043637999936)",7
4683,New Star 3 / Waterloo,1459 ANSBOROUGH AVE,WATERLOO,50701,"1459 ANSBOROUGH AVE
WATERLOO 50701
(42.493069312000046, -92.376933036999958)",7
4686,Sunny's Mart / Clinton,630 N 3rd ST,CLINTON,52732,"630 N 3rd ST
CLINTON 52732
(41.850745360000076, -90.189913136999962)",23
4759,Walgreens #10855 / Waterloo,1850 LOGAN AVE,WATERLOO,50703,"1850 LOGAN AVE
WATERLOO 50703
(42.526839235000068, -92.337592982999979)",7
4804,Walgreens #07833 / Des Moines,3501 INGERSOLL AVE,DES MOINES,50312,"3501 INGERSOLL AVE
DES MOINES 50312
(41.586367559000053, -93.664559568999948)",77
4802,Walgreens #07452 / Des Moines,4415 DOUGLAS AVE,DES MOINES,50310,"4415 DOUGLAS AVE
DES MOINES 50310
(41.629518208000036, -93.679350258999989)",77
4819,Super Stop 2 / Altoona,2635 ADVENTURELAND DR,ALTOONA,50009,"2635 ADVENTURELAND DR
ALTOONA 50009
(41.65855801400005, -93.494640635999986)",77
4827,Sauce,108 E COLLEGE ST,IOWA CITY,52240,"108 E COLLEGE ST
IOWA CITY 52240
(41.658995572000038, -91.534418835999986)",52
4881,Sperry One Stop Shop LLC,516 HWY 141,COON RAPIDS,50058,"516 HWY 141
COON RAPIDS 50058
(41.876919549000036, -94.707920256999955)",14
4939,Urban Liquor,6401 DOUGLAS AVE   STE 1,URBANDALE,50322,"6401 DOUGLAS AVE STE 1
URBANDALE 50322
(41.629428330000053, -93.705500141999948)",77
2106,Hillstreet News and Tobacco,2217 COLLEGE,CEDAR FALLS,50613,"2217 COLLEGE
CEDAR FALLS 50613
(42.517169286000069, -92.455837838999969)",7
2130,Sycamore Convenience,617 SYCAMORE,WATERLOO,50703,"617 SYCAMORE
WATERLOO 50703
(42.497833997000043, -92.335314921999952)",7
2487,Anamosa Family Foods,402 EAST MAIN,ANAMOSA,52205,"402 EAST MAIN
ANAMOSA 52205
(42.108299529000078, -91.281794926999964)",53
2448,Bottle Boutique,705 E. SECOND,INDIANOLA,50125,"705 E. SECOND
INDIANOLA 50125
(41.358162754000034, -93.552640740999948)",91
4163,Fareway Stores #461 / Storm Lake,731 SENECA ST,STORM LAKE,50588,"731 SENECA ST
STORM LAKE 50588
(42.645892728000035, -95.196873147999952)",11
3930,Kuennen's Liquor Store,106 W MAINS ST PO BOX 142,ST LUCAS,52166,"106 W MAINS ST PO BOX 142
ST LUCAS 52166
(43.066634821000036, -91.933522204999974)",33
4046,J and K Market,113 W VANBUREN,CENTERVILLE,52544,"113 W VANBUREN
CENTERVILLE 52544
(40.734902997000063, -92.874339633999966)",4
4112,Corridor Ventures,618 MEADE DR,NORTH LIBERTY,52317,"618 MEADE DR
NORTH LIBERTY 52317
(41.752368734000072, -91.608694075999949)",52
4133,Mccoy's 1447,1447  2ND ST,WEBSTER CITY,50595,"1447 2ND ST
WEBSTER CITY 50595
(42.469597990000068, -93.839034044999948)",40
4202,Fareway Stores #829 / Sioux City,4267 SERGEANT RD,SIOUX CITY,51106,"4267 SERGEANT RD
SIOUX CITY 51106
(42.450393815000041, -96.354995910999946)",97
4196,Fareway Stores #987 / Davenport,1635 WEST 53RD ST,DAVENPORT,52806,"1635 WEST 53RD ST
DAVENPORT 52806
(41.574482924000051, -90.598530090999986)",82
4251,Aj's Liquor / Ames,4518 MORTENSON RD STE 109,AMES,50014,"4518 MORTENSON RD STE 109
AMES 50014
(42.012071182000057, -93.67933605799999)",85
4324,Dayton Community Grocery,22 NORTH MAIN,DAYTON,50530,"22 NORTH MAIN
DAYTON 50530
(42.261680753000064, -94.068433192999976)",94
4346,Roy's Foodland,105 PEARL ST,SHELLSBURG,52332,"105 PEARL ST
SHELLSBURG 52332
(42.094112475000031, -91.86922384199994)",6
4463,Casey's General Store #3031 / Garner,145 US HWY 18 W,GARNER,50438,"145 US HWY 18 W
GARNER 50438
(43.105859040000041, -93.603284576999954)",41
4509,A J'S LIQUOR II,2515 CHAMBERLAIN,AMES,50010,"2515 CHAMBERLAIN
AMES 50010
(42.032116513000062, -93.616286143999957)",85
4466,THE PUMPER,515 W WATER ST,FAYETTE,52142,"515 W WATER ST
FAYETTE 52142
(42.844466870000076, -91.808879994999984)",33
4465,HOME TOWN FOOD ON 4,714 S EAST ST,POMEROY,50575,"714 S EAST ST
POMEROY 50575
(42.543149784000036, -94.67812739499999)",13
4494,SELECT MART / SIOUX CITY,800 HAMILTON BLVD,SIOUX CITY,51103,"800 HAMILTON BLVD
SIOUX CITY 51103
(42.504388176000077, -96.417375804999949)",97
4599,Quik Trip #500 / Hubbell DM,3700 HUBBELL AVE,DES MOINES,50317,"3700 HUBBELL AVE
DES MOINES 50317
(41.629256640000051, -93.544473367999956)",77
4663,Casey's General Store #3077 / Peosta,236 PEOSTA ST,PEOSTA,52068,"236 PEOSTA ST
PEOSTA 52068
(42.444328294000059, -90.850342231999946)",31
4685,Kwik Stop Food Mart,2360 Central,Dubuque,52001,"2360 Central
Dubuque 52001
(42.515846467000074, -90.67270247099998)",31
4695,Walgreens #09791 / Altoona,101 8th ST SE,ALTOONA,50009,"101 8th ST SE
ALTOONA 50009
(41.644068071000049, -93.463670757999978)",77
4705,Walgreens #05977 / Coralville,102 SECOND ST,CORALVILLE,52241,"102 SECOND ST
CORALVILLE 52241
(41.669084109000039, -91.565900633999945)",52
4765,Kwik Stop C-Stores / Dubuque,2335 UNIVERSITY AVE,DUBUQUE,52001,"2335 UNIVERSITY AVE
DUBUQUE 52001
(42.499565877000066, -90.696952241999952)",31
4767,Casey's General Store #3075 / Ankeny,"6981, NE 14TH ST",ANKENY,50023,"6981, NE 14TH ST
ANKENY 50023
(41.687894124000024, -93.600613752999948)",77
4879,Sam's Mini Mart / Morningside Ave Si,4218 MORNINGSIDE AVE,SIOUX CITY,51106,"4218 MORNINGSIDE AVE
SIOUX CITY 51106
(42.470621710000046, -96.352831890999937)",97
4914,Prime Mart / Center St,2728 CENTER ST,CEDAR FALLS,50613,"2728 CENTER ST
CEDAR FALLS 50613
(42.561050482000041, -92.456017594999992)",7
4919,Kum & Go #4084 / Altoona,101 8TH ST SW,ALTOONA,50009,"101 8TH ST SW
ALTOONA 50009
(41.644068071000049, -93.464970530999949)",77
4957,Kimmes Wall Lake Country Store,129 CENTER ST,WALL LAKE,51466,"129 CENTER ST
WALL LAKE 51466
(42.271328809000067, -95.090647740999941)",81
9001,Cedar Ridge Vineyards,1441 MARAK RD NW,SWISHER,52338,"1441 MARAK RD NW
SWISHER 52338
(41.83247306100003, -91.680054887999972)",52
2465,Sid's Beverage Shop,2727 DODGE ST,DUBUQUE,52003,"2727 DODGE ST
DUBUQUE 52003
(42.49202676200008, -90.706940876999965)",31
2290,Al's Liquors Unlimited,215 WEST MILWAUKEE,STORM LAKE,50588,"215 WEST MILWAUKEE
STORM LAKE 50588
(42.647486598000057, -95.202631096999937)",11
2536,Hy-vee/pleasant Hill,4815 MAPLE DRIVE,PLEASANT HILL,50317,"4815 MAPLE DRIVE
PLEASANT HILL 50317
(41.598099178000041, -93.519591337999941)",77
2559,Hy-vee Food Store / Albia,HWY. 34 WEST,ALBIA,52531,"HWY. 34 WEST
ALBIA 52531
(41.015451125000027, -92.811938220999991)",68
2637,Hy-vee #5 / Davenport,2351 W LOCUST,DAVENPORT,52804,"2351 W LOCUST
DAVENPORT 52804
(41.538175398000078, -90.611934177999956)",82
2585,Hy-vee Wine and Spirits / A,1516 HIGHWAY 169 NORTH,ALGONA,50511,"1516 HIGHWAY 169 NORTH
ALGONA 50511
(43.081537758000024, -94.23601221499996)",55
2624,Hy-vee #2 / Dubuque,2395 NW ARTERIAL RD,DUBUQUE,52002,"2395 NW ARTERIAL RD
DUBUQUE 52002
(42.51622670900008, -90.741060214999948)",31
2849,CVS Pharmacy #10162 / Des Moines,3151 SE 14TH ST,DES MOINES,50320,"3151 SE 14TH ST
DES MOINES 50320
(41.555946751000079, -93.596792268999991)",77
3400,Last Stop Beverage Shop,2839 E. UNIVERSITY,DES MOINES,50317,"2839 E. UNIVERSITY
DES MOINES 50317
(41.600423092000028, -93.561460305999958)",77
3540,Super Target T-533 / Davenport,5225 ELMORE AVE,DAVENPORT,52807,"5225 ELMORE AVE
DAVENPORT 52807
(41.571408636000058, -90.527903280999965)",82
3614,Ida Grove Food Pride,200 OAK GROVE DR,IDA GROVE,51445,"200 OAK GROVE DR
IDA GROVE 51445
(42.349483943000052, -95.472146240999962)",47
3655,M and M Liquor Store,2763 FLOYD BLVD,SIOUX CITY,51104,"2763 FLOYD BLVD
SIOUX CITY 51104
(42.518742151000026, -96.381051272999969)",97
3715,Kimberly Mart / Davenport,1714 E KIMBERLY RD,DAVENPORT,52807,"1714 E KIMBERLY RD
DAVENPORT 52807
(41.55700857000005, -90.550660846999961)",82
3744,Payless Foods / Dyersville,733 16TH AVE SE,DYERSVILLE,52040,"733 16TH AVE SE
DYERSVILLE 52040
(42.470182690000058, -91.115817051999954)",31
3869,Bootleggin' Barzini's Fin,412  1ST AVE,CORALVILLE,52241,"412 1ST AVE
CORALVILLE 52241
(41.672718709000037, -91.565581863999967)",52
3986,Siouxland Beverage,1203 5 ST,SIOUX CITY,51101,"1203 5 ST
SIOUX CITY 51101
(42.495377332000032, -96.39465050299998)",97
3857,Quillins Food Ranch / Waukon,9TH ST SW B,WAUKON,52172,"9TH ST SW B
WAUKON 52172
(43.269138066000039, -91.476574337999978)",3
3890,Smokin' Joe's #7 Tobacco and Liquor,904  1ST AVE NW,CEDAR RAPIDS,52405,"904 1ST AVE NW
CEDAR RAPIDS 52405
(41.97280715900007, -91.683870092999939)",57
3918,Smokin' Joe's #1 Tobacco and Liquor,3120 ROCKINGHAM RD,DAVENPORT,52802,"3120 ROCKINGHAM RD
DAVENPORT 52802
(41.510046173000035, -90.621654081999964)",82
3947,Seaton's Flag Foods,122 A EAST FRONT ST,BROOKLYN,52211,"122 A EAST FRONT ST
BROOKLYN 52211
(41.728605681000033, -92.445078290999959)",79
3952,Lot-a-spirits,3780 STATE ST,BETTENDORF,52722,"3780 STATE ST
BETTENDORF 52722
(41.529565827000056, -90.48082335099997)",82
3783,Dyno's Wine and Spirits / Pocahontas,14 1/2 E ELM,POCAHONTAS,50574,"14 1/2 E ELM
POCAHONTAS 50574
(42.732610205000071, -94.663906873999963)",76
3912,Smokin' Joe's #14 Tobacco and Liquor,225 EDGEWOOD RD,CEDAR RAPIDS,52405,"225 EDGEWOOD RD
CEDAR RAPIDS 52405
(41.973809644000028, -91.715973816999963)",57
3942,Twin Town Liquor,104 HIGHWAY 30 WEST,TOLEDO,52342,"104 HIGHWAY 30 WEST
TOLEDO 52342
(41.985976588000028, -92.579418910999948)",86
4101,Lucky Stop Inc.,301 WATER ST  PO BOX 166,CAMBRIDGE,50046,"301 WATER ST PO BOX 166
CAMBRIDGE 50046
(41.89946096400007, -93.529285140999946)",85
4070,Grieder Beverage Depot,708  13TH ST,BELLE PLAINE,52208,"708 13TH ST
BELLE PLAINE 52208
(41.897097634000033, -92.277061314999969)",6
4010,Newman's Thriftway,900 S LOCUST ST,GLENWOOD,51534,"900 S LOCUST ST
GLENWOOD 51534
(41.038121784000055, -95.746144519999973)",65
4176,Todds On The Go,235 EDGEWOOD RD NE,CEDAR RAPIDS,52405,"235 EDGEWOOD RD NE
CEDAR RAPIDS 52405
(41.974221009000075, -91.715973816999963)",57
4136,Fareway Stores #983 / Grimes,351 GATEWAY DR,GRIMES,50111,"351 GATEWAY DR
GRIMES 50111
(41.686487021000062, -93.780060841999955)",77
4172,Shamrock Spirits,1204 WATER ST PO BOX 177,ALDEN,50006,"1204 WATER ST PO BOX 177
ALDEN 50006
(42.52045084100007, -93.37634559199995)",42
4194,Fareway Stores #848 / Newton,120 N 3RD AVE E,NEWTON,50208,"120 N 3RD AVE E
NEWTON 50208
(41.701451260000056, -93.05326088999999)",50
4195,Fareway Stores #792 / Toledo,1005 S COUNTY LINE RD,TOLEDO,52342,"1005 S COUNTY LINE RD
TOLEDO 52342
(41.986449157000038, -92.581633662999991)",86
4277,Cork It!,769 PROSPECT ST SW,LE MARS,51031,"769 PROSPECT ST SW
LE MARS 51031
(42.776286355000025, -96.178210495999963)",75
4298,Terry's Food Center,305 CRISMAN ST,DYSART,52224,"305 CRISMAN ST
DYSART 52224
(42.17149050300003, -92.307717772999979)",86
4332,Fast Mart / University Ave,1621 UNIVERSITY AVE,DES MOINES,50314,"1621 UNIVERSITY AVE
DES MOINES 50314
(41.600448442000072, -93.639951438999958)",77
4336,Last Call 2,120 N MAIN ST,GEORGE,51237,"120 N MAIN ST
GEORGE 51237
(43.344279477000043, -96.002388422999957)",60
4386,KUM & GO #701 / MARSHALLTOWN,613 N. 3RD AVE N,MARSHALLTOWN,50158,"613 N. 3RD AVE N
MARSHALLTOWN 50158
(42.056641496000054, -92.908053095999946)",64
4388,QUIK TRIP #566 / CLIVE,11925 UNIVERSITY AVE,CLIVE,50325,"11925 UNIVERSITY AVE
CLIVE 50325
(41.600497991000054, -93.78225017699998)",77
4616,C's Spencer Liquor,719 2ND AVE W,SPENCER,51301,"719 2ND AVE W
SPENCER 51301
(43.145338022000033, -95.147798614999942)",21
4920,Kum & Go #129 / Johnston,5225 NW 86TH ST,JOHNSTON,50131,"5225 NW 86TH ST
JOHNSTON 50131
(41.655680767000035, -93.736393969999938)",77
4411,KUM & GO #95 / DE SOTO,1203 GUTHRIE ST,DE SOTO,50069,"1203 GUTHRIE ST
DE SOTO 50069
(41.53787032200006, -94.012614356999961)",25
4443,palo mini mart,1204 1ST ST,PALO,52324,"1204 1ST ST
PALO 52324
(42.070200322000062, -91.795733611999935)",57
4461,QUIK TRIP #503 / WINDSOR HEIGHTS,7220 HICKMAN RD,WINDSOR HEIGHTS,50324,"7220 HICKMAN RD
WINDSOR HEIGHTS 50324
(41.614630275000025, -93.717092419999972)",77
4489,Casey's General Store #2763,641 EDGEWOOD RD NW,CEDAR RAPIDS,52405,"641 EDGEWOOD RD NW
CEDAR RAPIDS 52405
(41.979740438000078, -91.715933486999973)",57
4485,DYNO'S 51 / SANBORN,101 W 7TH ST,SANBORN,51248,"101 W 7TH ST
SANBORN 51248
(43.185964699000067, -95.655911764999985)",71
4508,Casey's General Store #2877 / Spence,805 GRAND AVE S,SPENCER,51301,"805 GRAND AVE S
SPENCER 51301
(43.129756867000026, -95.143938470999956)",21
4566,Kum & Go #508 / Cedar Rapids,30 FOUR OAKS DR SW,CEDAR RAPIDS,52404,"30 FOUR OAKS DR SW
CEDAR RAPIDS 52404
(41.946559010000044, -91.695068096999989)",57
4563,The Molehill,315 MAIN ST,IRETON,51027,"315 MAIN ST
IRETON 51027
(42.975107973000036, -96.318223106999937)",84
4571,Casey's General Store #2357 / Alliso,"100, CHERRY ST",ALLISON,50602,"100, CHERRY ST
ALLISON 50602
(42.745068736000064, -92.790443192999987)",12
4769,Elma Locker and Grocery,"100, GRANT ST",ELMA,50628,"100, GRANT ST
ELMA 50628
(43.244310755000072, -92.435210315999939)",45
4660,Hill Brothers Jiffy Mart / Cedar Rap,"1904, MT VERNON RD SE",CEDAR RAPIDS,52403,"1904, MT VERNON RD SE
CEDAR RAPIDS 52403
(41.977207723000049, -91.642499718999943)",57
4655,Casey's General Store #2237 / Prairi,1002 W 2ND ST,PRAIRIE CITY,50228,"1002 W 2ND ST
PRAIRIE CITY 50228
(41.596673567000039, -93.247082105999937)",50
4656,Casey's General Store #2301 / Ames,17005 HWY 69,AMES,50010,"17005 HWY 69
AMES 50010
(42.02087245000007, -93.610319689999983)",85
4678,Fareway Stores #124 / Adel,804 NILE KINNICK DR,ADEL,50003,"804 NILE KINNICK DR
ADEL 50003
(41.610323498000071, -94.016910063999944)",25
4709,Walgreens #12108 / Ames,2719 GRAND AVE,AMES,50010,"2719 GRAND AVE
AMES 50010
(42.048960312000077, -93.620677220999937)",85
4726,Walgreens #07454 / Ankeny,901 N ANKENY BLVD,ANKENY,50021,"901 N ANKENY BLVD
ANKENY 50021
(41.738803631000053, -93.600213309999958)",77
4727,Walgreens #07996 / Ankeny,2702 SE DELAWARE AVE,ANKENY,50021,"2702 SE DELAWARE AVE
ANKENY 50021
(41.702429992000077, -93.581397085999981)",77
4733,Walgreens #03773 / Urbandale,4600 86th ST,URBANDALE,50322,"4600 86th ST
URBANDALE 50322
(41.643933624000056, -93.736512576999985)",77
4756,Walgreens #03196 / Marshalltown,5 E ANSON,MARSHALLTOWN,50158,"5 E ANSON
MARSHALLTOWN 50158
(42.038111547000028, -92.912586340999951)",64
4891,Schottsy's Liquor,109 5th ST,SIBLEY,51249,"109 5th ST
SIBLEY 51249
(43.40395359300004, -95.751081979999981)",72
4877,World Liquor & Tobacco,1775 NW 86TH ST,CLIVE,50325,"1775 NW 86TH ST
CLIVE 50325
(41.607881812000073, -93.736314461999939)",77
4945,Osage Liquors,"508, MAIN ST",OSAGE,50461,"508, MAIN ST
OSAGE 50461
(43.284032423000042, -92.813980853999965)",66
4954,Casey's General Store #3244 / Urband,"3750, 111TH ST",URBANDALE,50322,"3750, 111TH ST
URBANDALE 50322
(41.628633256000057, -93.771366874999956)",77
2963,Dahl's / Clive,15500 HICKMAN,CLIVE,50325,"15500 HICKMAN
CLIVE 50325
(41.614713691000077, -93.831740680999985)",77
2606,Hy-vee Wine and Spirits / H,1011  13TH ST NORTH,HUMBOLDT,50548,"1011 13TH ST NORTH
HUMBOLDT 50548
(42.733262456000034, -94.227093180999987)",46
2655,Hy-vee Food Store / Clarinda,1200 S 16TH ST,CLARINDA,51632,"1200 S 16TH ST
CLARINDA 51632
(40.727136293000058, -95.037798041999963)",73
2951,Dahl's / Hickman,8700 HICKMAN,CLIVE,50322,"8700 HICKMAN
CLIVE 50322
(41.614938059000053, -93.764235148999944)",77
3390,Okoboji Avenue Liquor,1610 OKOBOJI AVENUE,MILFORD,51351,"1610 OKOBOJI AVENUE
MILFORD 51351
(43.33156980900003, -95.149953381999978)",30
2660,HY-VEE FOOD STORE / SIOUX CENTER,1951 S MAIN AVE,SIOUX CENTER,51250,"1951 S MAIN AVE
SIOUX CENTER 51250
(43.056282181000029, -96.175343105999957)",84
2959,Dahl's / Merle Hay,4343 MERLE HAY ROAD,DES MOINES,50310,"4343 MERLE HAY ROAD
DES MOINES 50310
(41.637569201000076, -93.697684214999981)",77
3065,Montezuma Super Valu,201 S FRONT ST,MONTEZUMA,50171,"201 S FRONT ST
MONTEZUMA 50171
(41.584180528000047, -92.527204412999936)",79
3484,Jeff's Foods,110 W CEDAR ST,MARCUS,51035,"110 W CEDAR ST
MARCUS 51035
(42.825727310000048, -95.808559641999977)",18
3536,Geno's Liquor,111 S COMMERCIAL AVE,EAGLE GROVE,50533,"111 S COMMERCIAL AVE
EAGLE GROVE 50533
(42.663618543000041, -93.904508429999964)",99
3705,Liquor Locker,507 1ST AVE #100,ROCK RAPIDS,51246,"507 1ST AVE #100
ROCK RAPIDS 51246
(43.431860911000058, -96.171576964999986)",60
3712,Monte Spirits,109 N 4TH ST,MONTEZUMA,50171,"109 N 4TH ST
MONTEZUMA 50171
(41.585519398000031, -92.523638673999983)",79
2647,Hy-vee #7 / Cedar Rapids,5050 EDGEWOOD RD,CEDAR RAPIDS,52411,"5050 EDGEWOOD RD
CEDAR RAPIDS 52411
(42.030572198000073, -91.701375558999985)",57
3838,Schnucks / Bettendorf,858 MIDDLE RD,BETTENDORF,52722,"858 MIDDLE RD
BETTENDORF 52722
(41.539044497000077, -90.520509088999972)",48
4619,Smokin' Joe's #3 Tobacco and Liquor,1737 AVE H,FORT MADISON,52627,"1737 AVE H
FORT MADISON 52627
(40.630239757000027, -91.32906307899998)",56
3894,Smokin' Joe's #6 Tobacco and Liquor,1404  1ST AVE NE,CEDAR RAPIDS,52402,"1404 1ST AVE NE
CEDAR RAPIDS 52402
(41.987315539000065, -91.653785167999956)",57
4312,I-80 Liquor / Council Bluffs,2411 S 24TH ST #1,COUNCIL BLUFFS,51501,"2411 S 24TH ST #1
COUNCIL BLUFFS 51501
(41.238100751000047, -95.879154186999983)",78
4166,Jesup Food Center,1314  7TH ST,JESUP,50648,"1314 7TH ST
JESUP 50648
(42.46945790500007, -92.06228750799994)",10
4279,Keota Eagle Foods,217 E BROADWAY,KEOTA,52248,"217 E BROADWAY
KEOTA 52248
(41.363888443000064, -91.952770034999958)",54
4229,Fareway Stores #790 / Harlan,1910  23RD ST,HARLAN,51537,"1910 23RD ST
HARLAN 51537
(41.649743059000059, -95.339783744999977)",83
4267,Main Street Market Of Anita,735 MAIN ST,ANITA,50020,"735 MAIN ST
ANITA 50020
(41.444896159000052, -94.765364345999956)",15
4296,Circle B Market,111 MAIN ST,KEOSAUQUA,52565,"111 MAIN ST
KEOSAUQUA 52565
(40.729340314000069, -91.962389379999991)",89
4284,Fareway Stores #559 / Iowa Falls,500 IOWA ST,IOWA FALLS,50126,"500 IOWA ST
IOWA FALLS 50126
(42.52235816700005, -93.263098716999991)",42
4283,Guppys On The Go,680 LINDALE DR,MARION,52302,"680 LINDALE DR
MARION 52302
(42.033555456000045, -91.621716011999979)",57
4303,Mepo Foods,111 N WAPELLO,MEDIAPOLIS,52637,"111 N WAPELLO
MEDIAPOLIS 52637
(41.008122636000053, -91.17007549799996)",29
4317,Fareway Stores #941 / Greenfield,212 SW KENT,GREENFIELD,50849,"212 SW KENT
GREENFIELD 50849
(41.303147344000081, -94.462812117999988)",1
4402,KUM & GO #80 / RIVERSIDE,1178 ENTERPRISE DR,RIVERSIDE,52327,"1178 ENTERPRISE DR
RIVERSIDE 52327
(41.487566896000033, -91.554522511999949)",92
4371,Kum and Go #50 / West Des M,745 S 51ST ST,WEST DES MOINES,50265,"745 S 51ST ST
WEST DES MOINES 50265
(41.55884069800004, -93.772837186999936)",77
4382,Kum and Go #8 / 8th St  Wdm,1293 8TH AVE,WEST DES MOINES,50265,"1293 8TH AVE
WEST DES MOINES 50265
(41.590139864000037, -93.713192478999986)",77
4467,Kum & Go #438 / Muscatine,1010 PARK AVE,MUSCATINE,52761,"1010 PARK AVE
MUSCATINE 52761
(41.435922188000063, -91.030846638999947)",70
4562,Casey's General Store #2989 / Mechan,206 SHORT ST,MECHANICSVILLE,52306,"206 SHORT ST
MECHANICSVILLE 52306
(41.903260051000075, -91.258344556999987)",16
4474,Bucky's Express #34 / Council Bluffs,3501 W BROADWAY ST,Council Bluffs,51501,"3501 W BROADWAY ST
COUNCIL BLUFFS 51501
(41.261912654000071, -95.902680324999949)",78
4476,Bucky's Express #16 / Council Bluffs,15 NORTH 16TH ST,COUNCIL BLUFFS,51501,"15 NORTH 16TH ST
COUNCIL BLUFFS 51501
(41.262080086000026, -95.867475610999975)",78
4543,Casey's General Store #2924 / Marion,1100 EAGLE VIEW DR,MARION,52302,"1100 EAGLE VIEW DR
MARION 52302
(42.036550236000039, -91.553447923999954)",57
4547,Fareway Stores #902 / Hampton,309 CENTRAL AVE WEST,HAMPTON,50441,"309 CENTRAL AVE WEST
HAMPTON 50441
(42.741766296000037, -93.211240379999936)",35
4549,Casey's General Store #2913 / colo,702 US HWY 65,COLO,50056,"702 US HWY 65
COLO 50056
(42.082677255000078, -93.309613781999985)",85
4742,No Frills Supermarkets #786 / Counci,"1817, W BROADWAY",COUNCIL BLUFFS,51501,"1817, W BROADWAY
COUNCIL BLUFFS 51501
(41.261858779000079, -95.871165108999946)",78
4859,Circle K #6604 / Burlington,421 N MAIN ST,BURLINGTON,52601,"421 N MAIN ST
BURLINGTON 52601
(40.811150379000026, -91.101074758999971)",29
4644,Kwik Shop #588 / Davenport,"1136, E LOCUST ST",DAVENPORT,52803,"1136, E LOCUST ST
DAVENPORT 52803
(41.538318559000061, -90.558430682999983)",82
4673,Sonny's Super Market / West Point,327 5TH ST,WEST POINT,52656,"327 5TH ST
WEST POINT 52656
(40.718009135000045, -91.452397417999975)",56
4718,Walgreens #06623 / West Des Moines,1660 22ND ST,WEST DES MOINES,50266,"1660 22ND ST
WEST DES MOINES 50266
(41.597459423000032, -93.736107051999966)",77
4736,Walgreens #03876 / Marion,1225 7TH AVE,MARION,52302,"1225 7TH AVE
MARION 52302
(42.033273147000045, -91.59637042199995)",57
4719,Walgreens #06677 / West Des Moines,4900 MILLS CIVIC PKWY,WEST DES MOINES,50265,"4900 MILLS CIVIC PKWY
WEST DES MOINES 50265
(41.559093048000079, -93.770500358999982)",77
4722,Walgreens #09476 / Burlington,201 S CENTRAL AVE,BURLINGTON,56201,"201 S CENTRAL AVE
BURLINGTON 56201
(40.801291942000034, -91.112199991999944)",29
4857,Westland Fast Break,1108 W AGENCY RD,WEST BURLINGTON,52655,"1108 W AGENCY RD
WEST BURLINGTON 52655
(40.811877469000081, -91.16923337999998)",29
4806,Giri's Liquor Store / West Liberty,"1006, N COLUMBUS ST",WEST LIBERTY,52776,"1006, N COLUMBUS ST
WEST LIBERTY 52776
(41.578379941000037, -91.260583977999943)",70
4755,Walgreens #05941 / Mason City,1251 4th ST SW,MASON CITY,50401,"1251 4th ST SW
MASON CITY 50401
(43.148323143000027, -93.220434249999983)",17
4866,Tobacco Hut #18 / Council Bluffs,3134 MANAWA CENTRE DR,COUNCIL BLUFFS,51501,"3134 MANAWA CENTRE DR
COUNCIL BLUFFS 51501
(41.22869006500008, -95.847527507999985)",78
4870,Tobacco 4 Less / Bettendorf,1032 STATE ST,BETTENDORF,52722,"1032 STATE ST
BETTENDORF 52722
(41.525068471000054, -90.518260986999962)",82
4869,Lindsanator's,415 S HWY 52,GUTTENBERG,52052,"415 S HWY 52
GUTTENBERG 52052
(42.782662975000051, -91.100448210999957)",22
4933,River Mart,2107 AGENCY ST,BURLINGTON,52601,"2107 AGENCY ST
BURLINGTON 52601
(40.814533478000044, -91.129486570999973)",29
4943,Eldon Kwik Shop,"205, 4th ST",ELDON,52554,"205, 4th ST
ELDON 52554
(40.917916203000061, -92.222482334999938)",90
2152,Dugans Supermarket,202 4TH NORTH,ROCKWELL,50469,"202 4TH NORTH
ROCKWELL 50469
(42.986499431000027, -93.188112931999967)",17
2515,Hy-vee Food Store #1/maso,2400 4TH ST SW,MASON CITY,50401,"2400 4TH ST SW
MASON CITY 50401
(43.148463097000047, -93.236272961999987)",17
2459,Reinhart Foods,200 STATE PO BOX 98,GUTHRIE CENTER,50115,"200 STATE PO BOX 98
GUTHRIE CENTER 50115
(41.677222675000053, -94.505250553999986)",39
2498,Charley's Quik Shop,910 MAIN ST,ARLINGTON,50606,"910 MAIN ST
ARLINGTON 50606
(42.751044469000078, -91.674825833999989)",33
2538,Hy-vee Food Store #3/wate,1422 FLAMMANG DR,WATERLOO,50702,"1422 FLAMMANG DR
WATERLOO 50702
(42.459951580000052, -92.327540476999957)",7
2666,Hy-Vee #2 / Ankeny,2510 SW STATE ST,ANKENY,50023,"2510 SW STATE ST
ANKENY 50023
(41.704768655000066, -93.621781399999975)",77
3162,Nash Finch/wholesale Food,807 GRANDVIEW,MUSCATINE,52761,"807 GRANDVIEW
MUSCATINE 52761
(41.408163719000072, -91.064509399999963)",70
3443,Super Saver Iv,1141 N BROADWAY,COUNCIL BLUFFS,51503,"1141 N BROADWAY
COUNCIL BLUFFS 51503
(41.270865884000045, -95.836515150999958)",78
3631,Audubon Food Pride,104 MARKET ST PO BOX 206,AUDUBON,50025,"104 MARKET ST PO BOX 206
AUDUBON 50025
(41.723339298000042, -94.936424038999974)",5
3587,County Market #321,2122 MAIN ST,KEOKUK,52632,"2122 MAIN ST
KEOKUK 52632
(40.408798919000048, -91.396892002999948)",56
3663,Wal-Mart 1496 / Waterloo,1334 FLAMMANG DR,WATERLOO,50702,"1334 FLAMMANG DR
WATERLOO 50702
(42.460203930000034, -92.330753037999955)",7
3782,Bender Foods / Guttenburg,619 S HWY 52,GUTTENBURG,52052,"619 S HWY 52
GUTTENBURG 52052
(42.779719002000036, -91.100473266999984)",22
3934,Wal-Mart 1509 / Maquoketa,103 E CARLISLE,MAQUOKETA,52060,"103 E CARLISLE
MAQUOKETA 52060
(42.049872919000052, -90.664720614999965)",49
3907,Smokin' Joe's #16 Tobacco and Liquor,1504 PARK AVE,MUSCATINE,52761,"1504 PARK AVE
MUSCATINE 52761
(41.442582377000065, -91.030617334999988)",70
3917,Smokin' Joe's #2 Tobacco and Liquor,1606 W LOCUST ST,DAVENPORT,52804,"1606 W LOCUST ST
DAVENPORT 52804
(41.53826785900003, -90.599040550999973)",82
3957,Karl's Grocery Store,101 WEST MADISON,EDGEWOOD,52042,"101 WEST MADISON
EDGEWOOD 52042
(42.645376770000041, -91.401570266999954)",22
4067,Freeman Foods,268 8TH AVE,WELLMAN,52356,"268 8TH AVE
WELLMAN 52356
(41.464688084000045, -91.837857908999979)",90
4706,Walgreens #05144 / Clinton,1905 N  2ND ST,CLINTON,52732,"1905 N 2ND ST
CLINTON 52732
(41.866335062000076, -90.182079120999958)",23
4745,Walgreens #05042 / Cedar Rapids,3325 16TH AVE SW,CEDAR RAPIDS,52404,"3325 16TH AVE SW
CEDAR RAPIDS 52404
(41.963553183000045, -91.715402284999982)",57
4761,Walgreens #03590 / Waterloo,3910 UNIVERSITY AVE,WATERLOO,50701,"3910 UNIVERSITY AVE
WATERLOO 50701
(42.505006952000031, -92.402865138999971)",7
4798,Walgreens #05721 / Des Moines,3140 SE 14TH ST,DES MOINES,50320,"3140 SE 14TH ST
DES MOINES 50320
(41.556000324000081, -93.596867621999991)",77
3465,Hometown Foods / Panora,601 E MAIN,PANORA,50216,"601 E MAIN
PANORA 50216
(41.69178751700008, -94.357190406999962)",39
4984,Fast Ave One Stop,2111 PARK AVE,MUSCATINE,52761,"2111 PARK AVE
MUSCATINE 52761
(41.446949525000036, -91.030263583999954)",70
4475,Bucky's Express #27 / Council Bluffs,2713 S 24TH ST,COUNCIL BLUFFS,51501,"2713 S 24TH ST
COUNCIL BLUFFS 51501
(41.234510241000066, -95.879194516999974)",78
4518,Casey's General Store #2824 / WDM,6630 MILLS CIVIC PARKWAY,WEST DES MOINES,50266,"6630 MILLS CIVIC PARKWAY
WEST DES MOINES 50266
(41.561774338000077, -93.798024115999965)",77
4690,Super Stop and Shop / Baldwin,5358 HWY 64,BALDWIN,52207,"5358 HWY 64
BALDWIN 52207
(42.073281037000072, -90.836074368999959)",49
4860,Jims Foods,812 6TH ST SW,CEDAR RAPIDS,52404,"812 6TH ST SW
CEDAR RAPIDS 52404
(41.967969880000055, -91.677117721999991)",57
4994,City Foods,200 BROADWAY ST,WATERLOO,50703,"200 BROADWAY ST
WATERLOO 50703
(42.507445180000047, -92.34428774099996)",7
4720,Chariton BP,"107, EAST GRACE",CHARITON,50049,"107, EAST GRACE
CHARITON 50049
(41.005277601000046, -93.293310499999961)",59
4600,Kum & Go #207 / Hubbell DM,4200 E HUBBELL AVE,DES MOINES,50317,"4200 E HUBBELL AVE
DES MOINES 50317
(41.635985966000078, -93.53167382099997)",77
4628,Oelwein Bottle and Can Inc.,137 2nd AVE SE,OELWEIN,50662,"137 2nd AVE SE
OELWEIN 50662
(42.675609188000067, -91.910473225999965)",33
4662,Guppy's On The Go / Cedar Rapids,"1532, ELLIS BLVD NW",CEDAR RAPIDS,52405,"1532, ELLIS BLVD NW
CEDAR RAPIDS 52405
(41.988510455000039, -91.682177391999971)",57
4676,Sam's Mini Mart / Sioux City,711 GORDON DR,SIOUX CITY,51101,"711 GORDON DR
SIOUX CITY 51101
(42.489846380000074, -96.401190854999982)",97
4710,Walgreens #09708 / Dubuque,55 JOHN F KENNEDY RD,DUBUQUE,52002,"55 JOHN F KENNEDY RD
DUBUQUE 52002
(42.493293083000026, -90.715395132999959)",31
4723,Walgreens #10557 / Cedar Falls,2509 WHITETAIL DR,CEDAR FALLS,50613,"2509 WHITETAIL DR
CEDAR FALLS 50613
(42.540575587000035, -92.47648903299995)",7
4787,Guppy's On The Go Swisher,2722 NE 120TH ST,SWISHER,52338,"2722 NE 120TH ST
SWISHER 52338
(41.847933096000077, -91.662458631999982)",52
4888,Circle S Bluff Stop,302 1ST ST,SERGEANT BLUFF,51054,"302 1ST ST
SERGEANT BLUFF 51054
(42.400271448000069, -96.362069734999977)",97
4960,AJ's Liquor III,2401 A CHAMBERLAIN ST,AMES,50010,"2401 A CHAMBERLAIN ST
AMES 50010
(42.021439903000044, -93.648608320999983)",85
4974,Super Stop  SE 14th,"727, SE  14TH ST",DES MOINES,50317,"727, SE 14TH ST
DES MOINES 50317
(41.58194971000006, -93.596843423999985)",77
4835,Point Liquor & Tobacco,4107 CENTER POINT RD NE,CEDAR RAPIDS,52402,"4107 CENTER POINT RD NE
CEDAR RAPIDS 52402
(42.020999041000039, -91.665283787999954)",57
4784,Hawkeye Convenience Store Wiley Blvd,2330 WILEY BLVD,CEDAR RAPIDS,52404,"2330 WILEY BLVD
CEDAR RAPIDS 52404
(41.956039154000052, -91.725867308999966)",57
4777,Casey's General Store #1365 / Paulli,"315, E GRAND AVE",PAULLINA,51046,"315, E GRAND AVE
PAULLINA 51046
(42.982842781000045, -95.684829831999991)",71
4981,Sinclair Food Mart,206 N MAIN ST,TRAER,50675,"206 N MAIN ST
TRAER 50675
(42.196408597000072, -92.465507787999968)",86
4982,Kimmes Country Store Alta 05,101 E  HWY 7,ALTA,51002,"101 E HWY 7
ALTA 51002
(42.675606883000057, -95.303716171999952)",11
4173,L and K Liquor,132 NORTH MAIN ST PO BOX 306,PAULLINA,51046,"132 NORTH MAIN ST PO BOX 306
PAULLINA 51046
(42.981357722000041, -95.687661630999969)",71
4358,Kum and Go #553 / Clarion,300 CENTRAL AVE W,CLARION,50525,"300 CENTRAL AVE W
CLARION 50525
(42.731590027000038, -93.735541735999959)",99
4387,KUM & GO #117 / SPIRIT LAKE,300 18TH ST,SPIRIT LAKE,51360,"300 18TH ST
SPIRIT LAKE 51360
(43.422637909000059, -95.094618056999991)",30
4629,Kwik Shop #541 / Glenwood,309 N LOCUST ST,GLENWOOD,51534,"309 N LOCUST ST
GLENWOOD 51534
(41.049697353000056, -95.744838313999992)",65
4687,Kum & Go #517 / Cedar Rapids,3132 1st AVE NE,CEDAR RAPIDS,52402,"3132 1st AVE NE
CEDAR RAPIDS 52402
(42.009500421000041, -91.63493729399994)",57
4516,Casey's General Store #1569 / Oaklan,205 BROWN ST,OAKLAND,51560,"205 BROWN ST
OAKLAND 51560
(41.304936490000046, -95.399961389999987)",78
4552,Casey's General Store #2493 / Buffal,222 W FRONT ST,BUFFALO,52728,"222 W FRONT ST
BUFFALO 52728
(41.456084539000074, -90.717912429999956)",82
4747,Walgreens #11709 / Davenport,1805 BRADY ST,DAVENPORT,52803,"1805 BRADY ST
DAVENPORT 52803
(41.537779291000049, -90.573993401999985)",82
4714,Walgreens #05943 / Indianola,1000 N JEFFERSON ST,INDIANOLA,50125,"1000 N JEFFERSON ST
INDIANOLA 50125
(41.369651004000048, -93.558344535999936)",91
4836,Kum & Go #52 / Iowa City,25 W BURLINGTON ST,IOWA CITY,52240,"25 W BURLINGTON ST
IOWA CITY 52240
(41.657873559000052, -91.537241079999944)",52
4837,Kum & Go #51 / Iowa City,323 E BURLINGTON ST,IOWA CITY,52240,"323 E BURLINGTON ST
IOWA CITY 52240
(41.657843600000035, -91.530640809999966)",52
3872,Target Store T-0086 / Dubuque,3500 DODGE ST,DUBUQUE,52003,"3500 DODGE ST
DUBUQUE 52003
(42.491622046000032, -90.72466577199998)",31
4575,Casey's General Store #2304 / Slater,200 6th AVE,SLATER,50244,"200 6th AVE
SLATER 50244
(41.877823416000069, -93.679790429999969)",85
3677,Barb's Service,1290 HWY 18,EVERLY,51338,"1290 HWY 18
EVERLY 51338
(43.183766621000075, -95.329819963999967)",21
4335,The Bottle Shop / Inwood,313 S MAIN ST,INWOOD,51240,"313 S MAIN ST
INWOOD 51240
(43.306722004000051, -96.431987890999949)",60
4868,Kum & Go #59 / Waukee,400 PRAIRIE BLUFF DR,WAUKEE,50263,"400 PRAIRIE BLUFF DR
WAUKEE 50263
(41.600327246000063, -93.863655996999967)",25
4524,Casey's General Store #1139 / Nora S,14 E CONGRESS,NORA SPRINGS,50458,"14 E CONGRESS
NORA SPRINGS 50458
(43.142737322000073, -93.00522045799994)",34
4510,Casey's General Store #1007 / Malver,701 MAIN ST,MALVERN,51551,"701 MAIN ST
MALVERN 51551
(41.005413544000078, -95.585194067999964)",65
4732,Walgreens #07967 / Clive,15601 HICKMAN RD,CLIVE,50325,"15601 HICKMAN RD
CLIVE 50325
(41.614917645000048, -93.834789618999991)",77
4828,Casey's General Store #3228 / Marsha,916 E MAIN ST,MARSHALLTOWN,50158,"916 E MAIN ST
MARSHALLTOWN 50158
(42.049238012000046, -92.896740038999951)",64
4221,Kwik Stop / Texas St,4335 TEXAS ST,WATERLOO,50702,"4335 TEXAS ST
WATERLOO 50702
(42.452785540000036, -92.306860474999951)",7
4715,Walgreens #06678 / West Des Moines,1999 GRAND AVE,WEST DES MOINES,50265,"1999 GRAND AVE
WEST DES MOINES 50265
(41.57174625500005, -93.731310101999952)",77
4746,Walgreens #05885 / Muscatine,1703 PARK AVE,MUSCATINE,52761,"1703 PARK AVE
MUSCATINE 52761
(41.444329236000044, -91.030344243999991)",70
4883,K & L Foods,"118, S MAIN ST",SIGOURNEY,52591,"118, S MAIN ST
SIGOURNEY 52591
(41.332949676000055, -92.205217695999977)",54
4493,Casey's General Store #2850 / Cedar,5655 C ST SW,CEDAR RAPIDS,52404,"5655 C ST SW
CEDAR RAPIDS 52404
(41.922511210000039, -91.637233791999961)",57
4603,Kum & Go #208 / SE 14th DM,3200 SE 14th ST,DES MOINES,50320,"3200 SE 14th ST
DES MOINES 50320
(41.555160310000076, -93.59685725099996)",77
4674,Kum & Go #227 / Ames,2108 ISSAC NEWTON DR,AMES,50010,"2108 ISSAC NEWTON DR
AMES 50010
(42.009532685000067, -93.586310415999947)",85
4797,Walgreens #05362 / Des Moines,1330 E UNIVERSITY AVE,DES MOINES,50316,"1330 E UNIVERSITY AVE
DES MOINES 50316
(41.600587869000037, -93.601541276999967)",77
4938,Pronto Market,201 S MAIN ST,HAZLETON,50641,"201 S MAIN ST
HAZLETON 50641
(38.487940514000059, -87.543434464999962)",10
4872,Casey's General Store #2644 / Earlha,975 N CHESTNUT AVE,EARLHAM,50072,"975 N CHESTNUT AVE
EARLHAM 50072
(41.502309248000074, -94.123434287999942)",61
4540,Casey's General Store #2915 / Bellev,1104 N RIVERVIEW ST,BELLEVUE,52031,"1104 N RIVERVIEW ST
BELLEVUE 52031
(42.268338637000056, -90.427814930999943)",49
4825,Casey's General Store #3212 / Osceol,400 S MAIN ST,OSCEOLA,50213,"400 S MAIN ST
OSCEOLA 50213
(41.030221045000076, -93.76571723699999)",20
4539,Casey's General Store #40 / Scranton,900 LOCUST ST,SCRANTON,51462,"900 LOCUST ST
SCRANTON 51462
(42.022400216000051, -94.551627592999978)",37
4530,Casey's General Store #2566 / Ely,1495 STATE ST,ELY,52227,"1495 STATE ST
ELY 52227
(41.872528682000052, -91.587092247999976)",57
4232,"Elliott's General Store,",23828 HWY J18,MORAVIA,52571,"23828 HWY J18
MORAVIA 52571
(40.892433162000032, -92.833773475999976)",4
4925,Kum & Go #574 / Urbandale,8600 MEREDITH DR,URBANDALE,50266,"8600 MEREDITH DR
URBANDALE 50266
(41.643817497000043, -93.736597126999982)",77
4937,ROCSTOP,1310 W SHERIDAN AVE,SHENANDOAH,51601,"1310 W SHERIDAN AVE
SHENANDOAH 51601
(40.765844937000054, -95.383755065999992)",73
4659,Casey's General Store #2802 / Conrad,409 E CENTER,CONRAD,50621,"409 E CENTER
CONRAD 50621
(42.224488686000029, -92.869921517999956)",38
4689,Walgreens #11759 / Fort Madison,2639 AVENUE L,FORT MADISON,52627,"2639 AVENUE L
FORT MADISON 52627
(40.626998461000028, -91.344231571999956)",56
4669,Vom Fass / Des Moines,"833, 42ND ST",DES MOINES,50312,"833, 42ND ST
DES MOINES 50312
(41.593280097000047, -93.674343593999936)",77
4169,Super Quick 2 / Hubbell,1824 HUBBELL AVE,DES MOINES,50317,"1824 HUBBELL AVE
DES MOINES 50317
(41.596570084000064, -93.585745861999953)",77
3864,Hometown Foods / Schaller,201 S MAIN ST PO BX 40,SCHALLER,51053,"201 S MAIN ST PO BX 40
SCHALLER 51053
(42.499612325000044, -95.293390793999947)",81
4029,The Store,204 S MAIN ST,COLESBURG,52035,"204 S MAIN ST
COLESBURG 52035
(42.636894823000034, -91.202307324999936)",28
4782,Casey's General Store #2529 / Lamoni,406 E MAIN ST,LAMONI,50140,"406 E MAIN ST
LAMONI 50140
(40.623698325000078, -93.92927096599999)",27
4578,Casey's General Store #2592 / Farmin,201 S 4TH ST,FARMINGTON,52626,"201 S 4TH ST
FARMINGTON 52626
(40.639895951000028, -91.740091075999942)",89
4793,Fort Madison Fast Break,5002 AVENUE O,FORT MADISON,52627,"5002 AVENUE O
FORT MADISON 52627
(40.624053228000037, -91.377420744999938)",56
4976,Central Mart / Sioux City,1203 TRI VIEW AVE,SIOUX CITY,51103,"1203 TRI VIEW AVE
SIOUX CITY 51103
(42.494185873000049, -96.422900995999953)",97
4961,Kwik Stop / Cedar Cross,1200 CEDAR CROSS RD,DUBUQUE,52003,"1200 CEDAR CROSS RD
DUBUQUE 52003
(42.475363350000066, -90.704871874999981)",31
5001,The Music Station / Independence,709 FIRST ST W,INDEPENDENCE,50644,"709 FIRST ST W
INDEPENDENCE 50644
(42.46860176000007, -91.901820741999984)",10
4413,KUM & GO #439 / WAPELLO,303 US HWY 61 N,WAPELLO,52653,"303 US HWY 61 N
WAPELLO 52653
(41.181295562000059, -91.195310669999969)",58
5042,Super Stop III / Dubuque,"1101, RHOMBERG AVE",DUBUQUE,52001,"1101, RHOMBERG AVE
DUBUQUE 52001
(42.51950035200008, -90.660315440999966)",31
5027,Hard Rock Hotel & Casino Sioux City,111 3RD ST,SIOUX CITY,51101,"111 3RD ST
SIOUX CITY 51101
(42.493061828000066, -96.409927618999973)",97
5032,Fastmart,1621 UNIVERSITY AVE,DES MOINES,50314,"1621 UNIVERSITY AVE
DES MOINES 50314
(41.600448442000072, -93.639951438999958)",77
5006,Kwik Stop 16th Street #325,1210 E 16TH ST,DUBUQUE,52001,"1210 E 16TH ST
DUBUQUE 52001
(42.511866496000039, -90.655292795999969)",31
5031,New Star Raymond,101 COMMERCIAL ST,RAYMOND,50667,"101 COMMERCIAL ST
RAYMOND 50667
(42.466297196000028, -92.219431091999979)",7
5024,Hawkeye Convenience Stores / Wiley,2330 WILEY BLVD SW,CEDAR RAPIDS,52404,"2330 WILEY BLVD SW
CEDAR RAPIDS 52404
(41.956039154000052, -91.725867308999966)",57
2668,Hy-Vee Food Store / Leon,1004 W 1st ST,LEON,50144,"1004 W 1st ST
LEON 50144
(40.739677795000034, -93.757640893999962)",27
4989,Casey's General Store #3322 / Iowa C,1904 BROADWAY ST,IOWA CITY,52240,"1904 BROADWAY ST
IOWA CITY 52240
(41.641170082000031, -91.520376283999951)",52
5016,Sierra Foods,3326 CENTER POINT RD NE,CEDAR RAPIDS,52402,"3326 CENTER POINT RD NE
CEDAR RAPIDS 52402
(42.01173469500003, -91.66383882599996)",57
5098,Fast Mart,"1621, UNIVERSITY AVE",DES MOINES,50311,"1621, UNIVERSITY AVE
DES MOINES 50311
(41.600460449000025, -93.639380236999955)",77
5102,Wilkie Liquors,"724, 1st  ST  SE",MOUNT VERNON,52314,"724, 1st ST SE
MOUNT VERNON 52314
(41.918305381000039, -91.410441684999967)",57
5061,Casey's General Store #3382 / Cedar,"560, 33RD AVE SW",CEDAR RAPIDS,52404,"560, 33RD AVE SW
CEDAR RAPIDS 52404
(41.94308750600004, -91.675483785999972)",57
5068,Tobacco Shop / Arnolds Park,"612, S HIGHWAY 71",ARNOLDS PARK,51331,"612, S HIGHWAY 71
ARNOLDS PARK 51331
(43.361637451000036, -95.140187792999939)",30
5039,Casey's General Store #3384 / Solon,1200 S MARKET ST,SOLON,52333,"1200 S MARKET ST
SOLON 52333
(41.802058300000056, -91.491663436999943)",52
5054,Cork 'N Bottle / Manchester,900 E MAIN ST,MANCHESTER,52087,"900 E MAIN ST
MANCHESTER 52087
(42.484099890000039, -91.445196674999977)",28
5055,Latimer Community Grocery,"110, S  AKIR  ST",LATIMER,50452,"110, S AKIR ST
LATIMER 50452
(42.76386821400007, -93.368213426999944)",35
5070,Jeff's Market / Wilton,"101, E 4TH ST",WILTON,52778,"101, E 4TH ST
WILTON 52778
(41.588767762000032, -91.016571018999969)",70
5071,Jeff's Market / Durant,"408, 6TH AVE",DURANT,52747,"408, 6TH AVE
DURANT 52747
(41.600579803000073, -90.911774444999935)",16
5090,Kum & Go #437 / Muscatine,709 GRANDVIEW AVE,MUSCATINE,52761,"709 GRANDVIEW AVE
MUSCATINE 52761
(41.408924225000078, -91.063579507999975)",70
5041,Casey's General Store #3309 / Montez,106 N FRONT ST,MONTEZUMA,50171,"106 N FRONT ST
MONTEZUMA 50171
(41.586071422000032, -92.527257417999976)",79
5079,Casey's General Store #2489 / Deniso,1608 4TH AVE S,DENISON,51442,"1608 4TH AVE S
DENISON 51442
(42.012364698000056, -95.349427759999969)",24
5064,Casey's General Store #2777 / Fairfa,"65, WILLIAMS BLVD",FAIRFAX,52228,"65, WILLIAMS BLVD
FAIRFAX 52228
(41.92951510100005, -91.778269705999946)",57
5086,"Central Mart I, LLC.","2501, FLOYD BLVD",SIOUX CITY,51106,"2501, FLOYD BLVD
SIOUX CITY 51106
(42.51569685000004, -96.385578001999988)",97
5066,Bears Burgers & Buns,"14628, MILE HILL LANE",DUBUQUE,52003,"14628, MILE HILL LANE
DUBUQUE 52003
(42.456836963000057, -90.774439736999966)",31
5097,Fareway Stores #151 / Cedar Rapids,3717 1st AVE SE,CEDAR RAPIDS,52402,"3717 1st AVE SE
CEDAR RAPIDS 52402
(42.016786299000046, -91.634568563999949)",57
5057,Kum & Go #535 / Des Moines,4960 E BROADWAY AVE,DES MOINES,50317,"4960 E BROADWAY AVE
DES MOINES 50317
(41.644052988000055, -93.546827297999982)",77
5078,Casey's General Store #2096 / Counci,2301 S 24TH ST,COUNCIL BLUFFS,51501,"2301 S 24TH ST
COUNCIL BLUFFS 51501
(41.238595080000039, -95.879219866999961)",78
2671,Hy-Vee  /  Jefferson,"106, W WASHINGTON ST",JEFFERSON,50129,"106, W WASHINGTON ST
JEFFERSON 50129
(42.017268603000048, -94.374945741999966)",37
5075,Pronto Market  / New Sharon,"202, S MAIN ST",NEW SHARON,50207,"202, S MAIN ST
NEW SHARON 50207
(41.468451104000053, -92.651453808999975)",62
5094,Casey's General Store #2778 / Cedar,"201, 8TH AVE SE",CEDAR RAPIDS,52401,"201, 8TH AVE SE
CEDAR RAPIDS 52401
(41.973035311000046, -91.662247524999941)",57
9022,Artisan Grain Distillery,"318, E 2nd St.",Davenport,52801,"318, E 2nd St.
Davenport 52801
(41.521338534000051, -90.570370627999978)",82
5083,Central Mart,"1203, TRI VIEW AVE",SIOUX CITY,51104,"1203, TRI VIEW AVE
SIOUX CITY 51104
(42.494027264000067, -96.422548664999965)",97
5048,Rolfe Area Market,"412, GARFIELD ST",ROLFE,50581,"412, GARFIELD ST
ROLFE 50581
(42.814378487000056, -94.527907870999968)",76
5077,Wal-Mart 3150 / Council Bluffs,1800 N 16TH ST,COUNCIL BLUFFS,51501,"1800 N 16TH ST
COUNCIL BLUFFS 51501
(41.278750949000028, -95.867496551999977)",78
